{"type":"FeatureCollection","features":[{"type":"Feature","properties":{"label":"marc_atlne_2000m","note":"Footprint of the ATLNE atlas the current masks were computed on (tiles with cells, clipped to the atlas bbox)."},"geometry":{"type":"Polygon","coordinates":[[[-20.02945064077,64.0],[-19.5,64.0],[-19.5,63.5],[-18.5,63.5],[-18.5,64.0],[-16.5,64.0],[-16.5,64.5],[-14.5,64.5],[-14.5,64.99103584342137],[12.0,64.99103584342137],[12.0,64.5],[11.5,64.5],[11.5,63.5],[11.0,63.5],[11.0,63.0],[7.0,63.0],[7.0,62.5],[6.0,62.5],[6.0,62.0],[5.5,62.0],[5.5,61.5],[5.0,61.5],[5.0,60.5],[5.5,60.5],[5.5,59.0],[6.0,59.0],[6.0,58.5],[8.5,58.5],[8.5,59.0],[9.5,59.0],[9.5,59.5],[10.0,59.5],[10.0,60.0],[11.0,60.0],[11.0,59.5],[11.5,59.5],[11.5,58.5],[12.0,58.5],[12.0,57.5],[12.5,57.5],[12.5,57.0],[13.0,57.0],[13.0,56.0],[13.5,56.0],[13.5,55.5],[14.0,55.5],[14.0,56.5],[15.000330885279872,56.5],[15.0,53.5],[13.5,53.5],[13.5,54.0],[12.0,54.0],[12.0,53.5],[10.5,53.5],[10.5,54.0],[9.5,54.0],[9.5,53.5],[8.5,53.5],[8.5,53.0],[8.0,53.0],[8.0,53.5],[7.5,53.5],[7.5,53.0],[5.5,53.0],[5.5,52.5],[5.0,52.5],[5.0,52.0],[4.5,52.0],[4.5,51.5],[4.0,51.5],[4.0,51.0],[2.5,51.0],[2.5,50.5],[2.0,50.5],[2.0,50.0],[1.5,50.0],[1.5,49.5],[0.5,49.5],[0.5,49.0],[-1.0,49.0],[-1.0,48.5],[-4.0,48.5],[-4.0,48.0],[-2.0,48.0],[-2.0,47.5],[-1.5,47.5],[-1.5,46.5],[-1.0,46.5],[-1.0,46.0],[-0.5,46.0],[-0.5,45.0],[-1.0,45.0],[-1.0,43.5],[-1.5,43.5],[-1.5,43.0],[-5.5,43.0],[-5.5,43.5],[-8.0,43.5],[-8.0,43.0],[-9.0,43.0],[-9.0,42.5],[-8.5,42.5],[-8.5,39.98202683441139],[-20.02945064077,39.98202683441139],[-20.02945064077,64.0]],[[9.5,54.0],[9.5,55.0],[9.0,55.0],[9.0,54.0],[9.5,54.0]],[[-9.5,54.0],[-9.5,53.5],[-9.0,53.5],[-9.0,52.5],[-9.5,52.5],[-9.5,52.0],[-8.0,52.0],[-8.0,52.5],[-6.5,52.5],[-6.5,55.0],[-8.0,55.0],[-8.0,54.0],[-9.5,54.0]],[[-2.0,55.0],[-2.0,55.5],[-3.5,55.5],[-3.5,56.5],[-3.0,56.5],[-3.0,57.0],[-2.5,57.0],[-2.5,57.5],[-4.0,57.5],[-4.0,58.5],[-5.0,58.5],[-5.0,57.5],[-5.5,57.5],[-5.5,56.5],[-4.5,56.5],[-4.5,55.0],[-3.0,55.0],[-3.0,54.5],[-2.5,54.5],[-2.5,53.5],[-3.0,53.5],[-3.0,53.0],[-4.0,53.0],[-4.0,52.0],[-2.5,52.0],[-2.5,51.0],[0.5,51.0],[0.5,52.0],[1.0,52.0],[1.0,52.5],[0.0,52.5],[0.0,53.5],[-0.5,53.5],[-0.5,54.0],[-1.0,54.0],[-1.0,54.5],[-1.5,54.5],[-1.5,55.0],[-2.0,55.0]],[[-3.5,51.0],[-4.0,51.0],[-4.0,50.5],[-3.5,50.5],[-3.5,51.0]],[[9.5,55.5],[9.5,56.0],[10.0,56.0],[10.0,57.0],[8.5,57.0],[8.5,55.5],[9.5,55.5]]]}}]}