{"type":"FeatureCollection","features":[{"type":"Feature","properties":{"layer":"spike","name":"BSH_AUSALT 90 m (spike)","label":"bsh_ausalt_90m","rank":3,"resolution_m":90,"record_hours":119.75,"resolved":["M2","K1","M4","M6"],"resolution_class":"fine"},"geometry":{"type":"Polygon","coordinates":[[[8.3061,53.850309],[8.749191000000001,53.850309],[8.749191000000001,54.0394],[8.3061,54.0394],[8.3061,53.850309]]]}},{"type":"Feature","properties":{"layer":"spike","name":"BSH_CUXBRU 90 m (spike)","label":"bsh_cuxbru_90m","rank":3,"resolution_m":90,"record_hours":119.75,"resolved":["M2","K1","M4","M6"],"resolution_class":"fine"},"geometry":{"type":"Polygon","coordinates":[[[8.681109,53.821951],[9.24921,53.821951],[9.24921,53.9494],[8.681109,53.9494],[8.681109,53.821951]]]}},{"type":"Feature","properties":{"layer":"spike","name":"BSH_DB 926 m (spike)","label":"bsh_db_926m","rank":1,"resolution_m":926,"record_hours":71.75,"resolved":["M2","K1","M4","M6"],"resolution_class":"medium"},"geometry":{"type":"Polygon","coordinates":[[[6.1736,53.237596],[9.493071,53.237596],[9.493071,56.445801],[6.1736,56.445801],[6.1736,53.237596]]]}},{"type":"Feature","properties":{"layer":"spike","name":"BSH_IDB 926 m (spike)","label":"bsh_idb_926m","rank":1,"resolution_m":926,"record_hours":71.75,"resolved":["M2","K1","M4","M6"],"resolution_class":"medium"},"geometry":{"type":"Polygon","coordinates":[[[7.756946,53.237596],[8.993067,53.237596],[8.993067,54.245889000000005],[7.756946,54.245889000000005],[7.756946,53.237596]]]}}]}