{"type":"FeatureCollection","features":[{"type":"Feature","properties":{"class":"fine"},"geometry":{"type":"MultiPolygon","coordinates":[[[[-1.0,46.0],[-0.7691652769052635,46.0],[-0.7691652769052635,45.0],[-1.0,45.0],[-1.0,43.5],[-1.5,43.5],[-1.5,43.490628110664865],[-2.1241361054892134,43.490628110664865],[-2.1241361054892134,46.67103351607416],[-1.5,46.67103351607416],[-1.5,46.5],[-1.0,46.5],[-1.0,46.0]]],[[[-2.1076664746475267,46.83212260451532],[-4.121288032565239,46.83212260451532],[-4.121288032565239,47.42150464749007],[-5.530473527062703,47.42150464749007],[-5.530473527062703,48.94785599884329],[-4.020329338465036,48.94785599884329],[-4.020329338465036,50.01749426036135],[-0.814699172163535,50.01749426036135],[-0.814699172163535,51.0],[0.5,51.0],[0.5,51.195296636940654],[2.5580265663762805,51.195296636940654],[2.5580265663762805,50.5],[2.0,50.5],[2.0,49.5],[1.5,49.5],[1.5,49.30002636666807],[-0.6837344088438844,49.30002636666807],[-0.6837344088438844,49.0],[-1.0,49.0],[-1.0,48.5843861522515],[-3.7640820356384337,48.5843861522515],[-3.7640820356384337,48.5],[-4.0,48.5],[-4.0,48.0],[-3.7640820356384337,48.0],[-3.7640820356384337,47.83955503694899],[-2.1076664746475267,47.83955503694899],[-2.1076664746475267,46.83212260451532]]]]}},{"type":"Feature","properties":{"class":"medium"},"geometry":{"type":"Polygon","coordinates":[[[-4.0,51.5],[-4.0,52.0],[-0.5,52.0],[-0.5,52.00441252454678],[4.177631589361686,52.00441252454678],[4.177631589361686,50.0],[3.0,50.0],[3.0,49.5],[2.5,49.5],[2.5,49.0],[1.5,49.0],[1.5,48.5],[0.5,48.5],[0.5,48.0],[-0.5,48.0],[-0.5,47.0],[0.0,47.0],[0.0,46.0],[0.5,46.0],[0.5,44.0],[0.0,44.0],[0.0,43.5],[-0.5,43.5],[-0.5,43.282790902924326],[-5.725559424980528,43.282790902924326],[-5.725559424980528,51.5],[-4.0,51.5]],[[-1.0,46.5],[-1.5,46.5],[-1.5,46.67103351607416],[-2.1241361054892134,46.67103351607416],[-2.1241361054892134,43.490628110664865],[-1.5,43.490628110664865],[-1.5,43.5],[-1.0,43.5],[-1.0,45.0],[-0.7691652769052635,45.0],[-0.7691652769052635,46.0],[-1.0,46.0],[-1.0,46.5]],[[-2.1076664746475267,47.83955503694899],[-3.7640820356384337,47.83955503694899],[-3.7640820356384337,48.0],[-4.0,48.0],[-4.0,48.5],[-3.7640820356384337,48.5],[-3.7640820356384337,48.5843861522515],[-1.0,48.5843861522515],[-1.0,49.0],[-0.6837344088438844,49.0],[-0.6837344088438844,49.30002636666807],[1.5,49.30002636666807],[1.5,49.5],[2.0,49.5],[2.0,50.5],[2.5580265663762805,50.5],[2.5580265663762805,51.195296636940654],[0.5,51.195296636940654],[0.5,51.0],[-0.814699172163535,51.0],[-0.814699172163535,50.01749426036135],[-4.020329338465036,50.01749426036135],[-4.020329338465036,48.94785599884329],[-5.530473527062703,48.94785599884329],[-5.530473527062703,47.42150464749007],[-4.121288032565239,47.42150464749007],[-4.121288032565239,46.83212260451532],[-2.1076664746475267,46.83212260451532],[-2.1076664746475267,47.83955503694899]]]}},{"type":"Feature","properties":{"class":"coarse"},"geometry":{"type":"MultiPolygon","coordinates":[[[[-20.029220735974285,39.98225673920711],[-20.02922073597428,63.99977009520428],[-19.50022990479572,63.99977009520428],[-19.491388067146442,63.64194306454911],[-19.37653668647302,63.51522409349774],[-18.660981935596773,63.50384294391936],[-18.508611932853558,63.64194306454911],[-18.49977009520428,63.99977009520428],[-16.660981935596773,64.00384294391935],[-16.508611932853558,64.14194306454911],[-16.49977009520428,64.49977009520428],[-14.660981935596773,64.50384294391935],[-14.508611932853558,64.64194306454911],[-14.49509027557826,64.99103584342137],[11.999770095204282,64.99080593862566],[11.999770095204282,64.50022990479572],[11.641943064549107,64.49138806714645],[11.508611932853558,64.35805693545089],[11.499770095204282,63.50022990479572],[11.05857864376269,63.441421356237306],[10.999770095204282,63.00022990479572],[7.123463313526982,62.98477590650226],[7.008611932853558,62.85805693545089],[6.999770095204282,62.50022990479572],[6.1057206526348,62.47638425286967],[6.003842943919354,62.33901806440322],[5.999770095204282,62.00022990479572],[5.660981935596775,61.99615705608064],[5.533706077539491,61.91111404660392],[5.499770095204282,61.50022990479572],[5.045397909327453,61.42687865683273],[5.008611932853558,60.64194306454911],[5.141943064549108,60.50861193285356],[5.499770095204282,60.49977009520428],[5.508611932853558,59.14194306454911],[5.641943064549108,59.00861193285356],[5.999770095204282,58.99977009520428],[6.015224093497743,58.62346331352698],[6.180396571934088,58.50096305466556],[8.358056935450893,58.50861193285356],[8.491388067146442,58.64194306454911],[8.500229904795718,58.99977009520428],[9.44142135623731,59.058578643762694],[9.500229904795718,59.49977009520428],[9.839018064403227,59.50384294391936],[9.976384252869671,59.6057206526348],[10.000229904795718,59.99977009520428],[10.999770095204282,59.99977009520428],[11.05857864376269,59.558578643762694],[11.499770095204282,59.49977009520428],[11.53370607753949,58.58888595339608],[11.660981935596773,58.50384294391936],[11.999770095204282,58.49977009520428],[12.023615747130329,57.6057206526348],[12.160981935596773,57.50384294391936],[12.499770095204282,57.49977009520428],[12.503842943919354,57.16098193559678],[12.58888595339608,57.03370607753949],[12.999770095204282,56.99977009520428],[13.015224093497743,56.12346331352698],[13.141943064549107,56.00861193285356],[13.499770095204282,55.99977009520428],[13.573121343167271,55.545397909327455],[13.839018064403227,55.50384294391936],[13.984775906502257,55.62346331352698],[14.000229904795718,56.49977009520428],[15.000100924747379,56.499770064829626],[14.999770150930095,53.50022987442252],[13.500229904795718,53.50022990479572],[13.484775906502257,53.87653668647302],[13.3,54.0],[12.123463313526981,53.98477590650226],[12.008611932853558,53.85805693545089],[11.999770095204282,53.50022990479572],[10.500229904795718,53.50022990479572],[10.496157056080646,53.83901806440322],[10.411114046603922,53.96629392246051],[9.680396571934088,53.99903694533444],[9.515224093497743,53.87653668647302],[9.499770095204282,53.50022990479572],[8.573121343167271,53.454602090672545],[8.499770095204282,53.00022990479572],[8.000229904795717,53.00022990479572],[7.966293922460509,53.41111404660392],[7.7,53.5],[7.515224093497743,53.37653668647302],[7.499770095204282,53.00022990479572],[5.6057206526348,52.97638425286967],[5.503842943919354,52.83901806440322],[5.499770095204282,52.50022990479572],[5.160981935596775,52.49615705608064],[5.033706077539491,52.41111404660392],[4.999770095204282,52.00022990479572],[4.545397909327453,51.92687865683273],[4.499770095204282,51.50022990479572],[4.177861494157405,51.50022990479572],[4.162407495863944,51.8809492110198],[3.9972350174275983,52.00344946988122],[1.0002299047957182,52.004642429342496],[0.9961570560806461,52.33901806440322],[0.8942793473651997,52.47638425286967],[0.00022990479571831674,52.50022990479572],[-0.03370607753949095,53.41111404660392],[-0.16098193559677434,53.49615705608064],[-0.4997700952042821,53.50022990479572],[-0.5038429439193539,53.83901806440322],[-0.5888859533960795,53.96629392246051],[-0.9997700952042817,54.00022990479572],[-1.0731213431672708,54.454602090672545],[-1.4997700952042818,54.50022990479572],[-1.5731213431672708,54.954602090672545],[-1.9997700952042823,55.00022990479572],[-2.073121343167271,55.454602090672545],[-3.4997700952042825,55.50022990479572],[-3.4997700952042825,56.49977009520428],[-3.1057206526348007,56.52361574713033],[-3.003842943919354,56.66098193559678],[-2.9997700952042825,56.99977009520428],[-2.5585786437626905,57.058578643762694],[-2.5,57.2],[-2.5585786437626905,57.441421356237306],[-2.7,57.5],[-3.999770095204282,57.50022990479572],[-4.045397909327453,58.42687865683273],[-4.180396571934088,58.49903694533444],[-4.876536686473018,58.48477590650226],[-4.999036945334439,58.31960342806591],[-5.000229904795718,57.50022990479572],[-5.358056935450892,57.49138806714644],[-5.491388067146442,57.35805693545089],[-5.4763842528696705,56.6057206526348],[-5.319603428065912,56.50096305466556],[-4.500229904795718,56.49977009520428],[-4.499036945334439,55.18039657193409],[-4.41111404660392,55.03370607753949],[-3.0002299047957175,54.99977009520428],[-2.9414213562373095,54.558578643762694],[-2.5002299047957175,54.49977009520428],[-2.5002299047957175,53.50022990479572],[-2.9414213562373095,53.441421356237306],[-3.0002299047957175,53.00022990479572],[-3.819603428065912,52.99903694533444],[-3.954602090672547,52.92687865683273],[-4.000229904795718,51.50022990479572],[-5.54516285304644,51.49903694533444],[-5.710335331482785,51.37653668647302],[-5.725789329776245,43.50022990479572],[-7.839018064403225,43.49615705608064],[-7.991388067146442,43.35805693545089],[-8.000229904795717,43.00022990479572],[-8.819603428065912,42.99903694533444],[-8.954602090672548,42.92687865683273],[-9.0,42.7],[-8.94142135623731,42.558578643762694],[-8.500229904795718,42.49977009520428],[-8.500229904795718,39.98225673920711],[-20.029220735974285,39.98225673920711]],[[9.5,55.995090275578214],[9.858056935450893,56.00861193285356],[9.984775906502257,56.12346331352698],[9.99903694533444,56.81960342806591],[9.94142135623731,56.941421356237306],[9.8,57.0],[8.7,57.0],[8.55857864376269,56.941421356237306],[8.5,56.8],[8.5,55.7],[8.55857864376269,55.558578643762694],[8.680396571934088,55.50096305466556],[9.376536686473019,55.51522409349774],[9.491388067146442,55.64194306454911],[9.5,55.995090275578214]],[[9.5,54.8],[9.339018064403227,54.99615705608064],[9.141943064549107,54.99138806714644],[9.023615747130329,54.8942793473652],[9.00096305466556,54.18039657193409],[9.1057206526348,54.02361574713033],[9.339018064403227,54.00384294391936],[9.476384252869671,54.1057206526348],[9.5,54.8]],[[-9.5,53.7],[-9.376536686473019,53.51522409349774],[-9.000229904795718,53.49977009520428],[-9.000229904795718,52.50022990479572],[-9.454602090672548,52.42687865683273],[-9.496157056080646,52.16098193559678],[-9.376536686473019,52.01522409349774],[-8.141943064549107,52.00861193285356],[-8.008611932853558,52.14194306454911],[-7.999770095204282,52.49977009520428],[-6.623463313526982,52.51522409349774],[-6.5,52.7],[-6.515224093497743,54.87653668647302],[-6.680396571934088,54.99903694533444],[-7.876536686473018,54.98477590650226],[-7.999036945334439,54.81960342806591],[-8.000229904795717,54.00022990479572],[-9.339018064403227,53.99615705608064],[-9.476384252869671,53.8942793473652],[-9.5,53.7]]],[[[-5.4997700952042825,43.28256099812861],[-1.5002299047957182,43.28256099812861],[-1.5002299047957182,43.00022990479572],[-5.499770095204282,43.00022990479572],[-5.4997700952042825,43.28256099812861]]]]}}]}