{"type":"FeatureCollection","features":[{"type":"Feature","properties":{"layer":"built","atlas":"BSH_AUSALT","shipped":true,"name":"Aussenelbe bis Altenbruch (90 m)","label":"bsh_ausalt_90m","rank":3,"resolution_m":90,"record_hours":119.75,"resolved":["M2","K1","M4","M6"],"cells":68177,"resolution_class":"fine"},"geometry":{"type":"Polygon","coordinates":[[[8.3061,54.0394],[8.749191000000001,54.0394],[8.749191000000001,53.850309],[8.3061,53.850309],[8.3061,54.0394]]]}},{"type":"Feature","properties":{"layer":"built","atlas":"BSH_CUXBRU","shipped":true,"name":"Cuxhaven bis Brunsbuettel (90 m)","label":"bsh_cuxbru_90m","rank":3,"resolution_m":90,"record_hours":119.75,"resolved":["M2","K1","M4","M6"],"cells":37679,"resolution_class":"fine"},"geometry":{"type":"Polygon","coordinates":[[[8.681109,53.9494],[9.24921,53.9494],[9.24921,53.821951],[8.681109,53.821951],[8.681109,53.9494]]]}},{"type":"Feature","properties":{"layer":"built","atlas":"BSH_DB","shipped":true,"name":"Deutsche Bucht (926 m)","label":"bsh_db_926m","rank":1,"resolution_m":926,"record_hours":71.75,"resolved":["M2","K1","M4","M6"],"cells":59637,"resolution_class":"medium"},"geometry":{"type":"Polygon","coordinates":[[[8.5,56.445801],[8.5,55.5],[9.493071,55.5],[9.493071,53.5],[9.0,53.5],[9.0,53.237596],[8.0,53.237596],[8.0,53.5],[7.5,53.5],[7.5,53.237596],[6.1736,53.237596],[6.1736,56.445801],[8.5,56.445801]]]}},{"type":"Feature","properties":{"layer":"built","atlas":"BSH_IDB","shipped":true,"name":"Innere Deutsche Bucht (926 m)","label":"bsh_idb_926m","rank":1,"resolution_m":926,"record_hours":71.75,"resolved":["M2","K1","M4","M6"],"cells":5719,"resolution_class":"medium"},"geometry":{"type":"Polygon","coordinates":[[[8.0,53.5],[7.756946,53.5],[7.756946,54.245889000000005],[8.993067,54.245889000000005],[8.993067,53.237596],[8.0,53.237596],[8.0,53.5]]]}},{"type":"Feature","properties":{"layer":"built","atlas":"CMEMS_IBI","shipped":true,"name":"Copernicus Marine IBI 3 km, un an horaire (3000 m)","label":"cmems_ibi_3000m","rank":0,"resolution_m":3000,"record_hours":8759.0,"resolved":["M2","S2","N2","K1","O1","M4","MS4","K2","P1","Q1","MN4","M6","2N2","NU2","MU2","L2","2MS6","MK4"],"cells":141436,"resolution_class":"coarse"},"geometry":{"type":"MultiPolygon","coordinates":[[[[-18.0,40.0],[-18.0,41.0],[-18.99950521,41.0],[-18.99950521,45.0],[-18.0,45.0],[-18.0,45.99929908],[0.0,45.99929908],[0.0,45.0],[-1.0,45.0],[-1.0,43.0],[-8.0,43.0],[-8.0,38.0],[-6.0,38.0],[-6.0,37.0],[-1.0,37.0],[-1.0,36.0],[-2.0,36.0],[-2.0,35.0],[-6.0,35.0],[-6.0,34.0],[-7.0,34.0],[-7.0,33.0],[-9.0,33.0],[-9.0,29.0],[-10.0,29.0],[-10.0,28.0],[-12.0,28.0],[-12.0,27.0],[-13.0,27.0],[-13.0,26.16535726],[-18.99950521,26.16535726],[-18.99950521,40.0],[-18.0,40.0]],[[-18.0,44.0],[-17.0,44.0],[-17.0,45.0],[-18.0,45.0],[-18.0,44.0]]],[[[1.0,38.0],[1.0,39.0],[1.417787839999999,39.0],[1.417787839999999,38.0],[1.0,38.0]]]]}},{"type":"Feature","properties":{"layer":"built","atlas":"CMEMS_MED","shipped":true,"name":"Copernicus Marine MED 4,2 km, un an horaire (4200 m)","label":"cmems_med_4200m","rank":0,"resolution_m":4200,"record_hours":8759.0,"resolved":["M2","S2","N2","K1","O1","M4","MS4","K2","P1","Q1","MN4","M6","2N2","NU2","MU2","L2","2MS6","MK4"],"cells":10231,"resolution_class":"global"},"geometry":{"type":"MultiPolygon","coordinates":[[[[-6.5,37.0],[-2.0,37.0],[-2.0,35.0],[-6.0,35.0],[-6.0,34.0],[-6.5,34.0],[-6.5,37.0]]],[[[-1.0,43.0],[-6.5,43.0],[-6.5,45.6875],[-1.0,45.6875],[-1.0,43.0]]],[[[10.0,33.14583206176758],[10.0,35.0],[11.0,35.0],[11.0,37.0],[10.0,37.0],[10.0,38.0],[11.0,38.0],[11.0,39.0],[13.0,39.0],[13.0,38.0],[14.0,38.0],[14.0,37.0],[13.0,37.0],[13.0,36.0],[16.0,36.0],[16.0,35.0],[14.0,35.0],[14.0,34.0],[13.0,34.0],[13.0,33.14583206176758],[10.0,33.14583206176758]]],[[[9.0,44.0],[10.0,44.0],[10.0,43.0],[11.0,43.0],[11.0,42.0],[10.0,42.0],[10.0,41.0],[9.0,41.0],[9.0,44.0]]],[[[12.0,43.0],[12.0,45.6875],[15.0,45.6875],[15.0,45.0],[16.0,45.0],[16.0,44.0],[18.0,44.0],[18.0,43.0],[17.0,43.0],[17.0,41.0],[16.0,41.0],[16.0,43.0],[12.0,43.0]]],[[[24.0,34.0],[24.0,35.0],[25.0,35.0],[25.0,34.0],[24.0,34.0]]],[[[24.0,37.0],[24.0,35.0],[23.0,35.0],[23.0,37.0],[24.0,37.0]]],[[[27.0,36.0],[27.0,37.0],[27.29166603088379,37.0],[27.29166603088379,36.0],[27.0,36.0]]],[[[24.0,39.0],[25.0,39.0],[25.0,38.0],[26.0,38.0],[26.0,39.0],[27.0,39.0],[27.0,37.0],[26.0,37.0],[26.0,36.0],[25.0,36.0],[25.0,37.0],[24.0,37.0],[24.0,39.0]]],[[[16.0,39.0],[16.0,37.0],[15.0,37.0],[15.0,39.0],[16.0,39.0]]],[[[19.0,41.0],[20.0,41.0],[20.0,39.0],[18.0,39.0],[18.0,40.0],[19.0,40.0],[19.0,41.0]]]]}},{"type":"Feature","properties":{"layer":"built","atlas":"CMEMS_NWS","shipped":true,"name":"Copernicus Marine NWS 1.5 km, un an horaire (1500 m)","label":"cmems_nws_1500m","rank":0,"resolution_m":1500,"record_hours":8759.0,"resolved":["M2","S2","N2","K1","O1","M4","MS4","K2","P1","Q1","MN4","M6","2N2","NU2","MU2","L2","2MS6","MK4"],"cells":547983,"resolution_class":"coarse"},"geometry":{"type":"Polygon","coordinates":[[[-13.0,46.0],[-13.0,62.74324035644531],[2.0,62.74324035644531],[2.0,62.0],[3.0,62.0],[3.0,62.74324035644531],[7.0,62.74324035644531],[7.0,62.0],[6.0,62.0],[6.0,59.0],[7.0,59.0],[7.0,58.0],[11.96969985961914,58.0],[11.96969985961914,57.0],[9.0,57.0],[9.0,55.0],[10.0,55.0],[10.0,53.0],[6.0,53.0],[6.0,52.0],[5.0,52.0],[5.0,51.0],[2.0,51.0],[2.0,49.0],[-1.0,49.0],[-1.0,46.0],[-13.0,46.0]],[[-4.0,52.0],[-2.0,52.0],[-2.0,51.0],[0.0,51.0],[0.0,53.0],[-1.0,53.0],[-1.0,54.0],[-2.0,54.0],[-2.0,53.0],[-4.0,53.0],[-4.0,52.0]],[[-7.0,53.0],[-7.0,55.0],[-8.0,55.0],[-8.0,53.0],[-7.0,53.0]],[[-9.0,53.0],[-9.0,52.0],[-8.0,52.0],[-8.0,53.0],[-9.0,53.0]]]}},{"type":"Feature","properties":{"layer":"built","atlas":"CMEMS_NWS_BIGHT","shipped":false,"name":"Copernicus Marine cmems_mod_nws_phy-cur_anfc_1.5km-2D_PT1H-i (1500 m)","label":"cmems_nws_bight_1500m","rank":1,"resolution_m":1500,"record_hours":8759.0,"resolved":["M2","S2","N2","K1","O1","M4","MS4","K2","P1","Q1","MN4","M6","2N2","NU2","MU2","L2","2MS6","MK4"],"cells":18052,"resolution_class":"coarse"},"geometry":{"type":"Polygon","coordinates":[[[6.0,53.25675964355469],[6.0,56.5],[8.5,56.5],[8.5,55.5],[9.0,55.5],[9.0,54.5],[9.060606956481934,54.5],[9.060606956481934,53.5],[8.5,53.5],[8.5,53.25675964355469],[8.0,53.25675964355469],[8.0,53.5],[7.5,53.5],[7.5,53.25675964355469],[6.0,53.25675964355469]]]}},{"type":"Feature","properties":{"layer":"built","atlas":"CMEMS_ARC_ICELAND","shipped":true,"name":"Copernicus Marine Arctic tide 3 km (HYCOM), iceland (3000 m)","label":"cmems_iceland_3000m","rank":0,"resolution_m":3000,"record_hours":8759.0,"resolved":["M2","S2","N2","K1","O1","M4","MS4","K2","P1","Q1","MN4","M6","2N2","NU2","MU2","L2","2MS6","MK4"],"cells":16652,"resolution_class":"coarse"},"geometry":{"type":"Polygon","coordinates":[[[-25.0,63.0],[-25.0,67.0],[-12.5,67.0],[-12.5,63.0],[-25.0,63.0]],[[-21.0,65.5],[-21.5,65.5],[-21.5,66.0],[-23.5,66.0],[-23.5,65.5],[-23.0,65.5],[-23.0,65.0],[-22.0,65.0],[-22.0,64.0],[-19.5,64.0],[-19.5,63.5],[-18.5,63.5],[-18.5,64.0],[-16.5,64.0],[-16.5,64.5],[-14.5,64.5],[-14.5,65.0],[-14.0,65.0],[-14.0,65.5],[-15.0,65.5],[-15.0,66.0],[-16.0,66.0],[-16.0,66.5],[-16.5,66.5],[-16.5,66.0],[-21.0,66.0],[-21.0,65.5]]]}},{"type":"Feature","properties":{"layer":"built","atlas":"NORKYST_FINNMARK","shipped":true,"name":"NorKyst800 (MET Norway), finnmark (800 m)","label":"norkyst_finnmark_800m","rank":1,"resolution_m":800,"record_hours":8783.0,"resolved":["M2","S2","N2","K1","O1","M4","MS4","K2","P1","Q1","MN4","M6","2N2","NU2","MU2","L2","2MS6","MK4"],"cells":33206,"resolution_class":"medium"},"geometry":{"type":"Polygon","coordinates":[[[30.5,70.5],[29.0,70.5],[29.0,70.10279999999997],[28.0,70.10279999999997],[28.0,71.0],[27.5,71.0],[27.5,70.5],[26.0,70.5],[26.0,70.10279999999997],[24.5,70.10279999999997],[24.5,70.5],[24.0,70.5],[24.0,70.10279999999997],[20.999,70.10279999999997],[20.999,71.29799999999955],[30.986999999999302,71.29799999999955],[30.986999999999302,70.10279999999997],[30.5,70.10279999999997],[30.5,70.5]]]}},{"type":"Feature","properties":{"layer":"built","atlas":"NORKYST_HELGELAND","shipped":true,"name":"NorKyst800 (MET Norway), helgeland (800 m)","label":"norkyst_helgeland_800m","rank":1,"resolution_m":800,"record_hours":8783.0,"resolved":["M2","S2","N2","K1","O1","M4","MS4","K2","P1","Q1","MN4","M6","2N2","NU2","MU2","L2","2MS6","MK4"],"cells":17272,"resolution_class":"medium"},"geometry":{"type":"Polygon","coordinates":[[[14.5,66.5],[14.0,66.5],[14.0,66.0],[13.0,66.0],[13.0,65.5],[10.5,65.5],[10.5,66.9],[14.5,66.9],[14.5,66.5]]]}},{"type":"Feature","properties":{"layer":"built","atlas":"NORKYST_LOFOTEN","shipped":true,"name":"NorKyst800 (MET Norway), lofoten (800 m)","label":"norkyst_lofoten_800m","rank":1,"resolution_m":800,"record_hours":8783.0,"resolved":["M2","S2","N2","K1","O1","M4","MS4","K2","P1","Q1","MN4","M6","2N2","NU2","MU2","L2","2MS6","MK4"],"cells":23052,"resolution_class":"medium"},"geometry":{"type":"Polygon","coordinates":[[[15.489999999999915,67.0],[14.0,67.0],[14.0,66.89880000000001],[11.51,66.89880000000001],[11.51,68.29559999999951],[15.489999999999915,68.29559999999951],[15.489999999999915,67.0]]]}},{"type":"Feature","properties":{"layer":"built","atlas":"NORKYST_ROGALAND","shipped":true,"name":"NorKyst800 (MET Norway), rogaland (800 m)","label":"norkyst_rogaland_800m","rank":1,"resolution_m":800,"record_hours":8783.0,"resolved":["M2","S2","N2","K1","O1","M4","MS4","K2","P1","Q1","MN4","M6","2N2","NU2","MU2","L2","2MS6","MK4"],"cells":27060,"resolution_class":"medium"},"geometry":{"type":"Polygon","coordinates":[[[6.0,59.99399999999921],[6.0,58.5],[6.987499999999981,58.5],[6.987499999999981,57.797999999999995],[4.5045,57.797999999999995],[4.5045,59.99399999999921],[6.0,59.99399999999921]]]}},{"type":"Feature","properties":{"layer":"built","atlas":"NORKYST_SKAGERRAK","shipped":true,"name":"NorKyst800 (MET Norway), skagerrak (800 m)","label":"norkyst_skagerrak_800m","rank":1,"resolution_m":800,"record_hours":8783.0,"resolved":["M2","S2","N2","K1","O1","M4","MS4","K2","P1","Q1","MN4","M6","2N2","NU2","MU2","L2","2MS6","MK4"],"cells":8101,"resolution_class":"medium"},"geometry":{"type":"MultiPolygon","coordinates":[[[[7.5,58.5],[8.0,58.5],[8.0,57.5028],[7.0005,57.5028],[7.0005,58.0],[7.5,58.0],[7.5,58.5]]],[[[8.5,58.0],[10.5,58.0],[10.5,58.5],[11.5,58.5],[11.5,58.0],[11.901499999999963,58.0],[11.901499999999963,57.5028],[8.5,57.5028],[8.5,58.0]]],[[[10.0,59.72039999999921],[11.0,59.72039999999921],[11.0,59.5],[10.0,59.5],[10.0,59.72039999999921]]]]}},{"type":"Feature","properties":{"layer":"built","atlas":"NORKYST_TROMS","shipped":true,"name":"NorKyst800 (MET Norway), troms (800 m)","label":"norkyst_troms_800m","rank":1,"resolution_m":800,"record_hours":8783.0,"resolved":["M2","S2","N2","K1","O1","M4","MS4","K2","P1","Q1","MN4","M6","2N2","NU2","MU2","L2","2MS6","MK4"],"cells":32995,"resolution_class":"medium"},"geometry":{"type":"Polygon","coordinates":[[[13.991249999999999,69.5],[13.991249999999999,70.49879999999922],[20.981750000000062,70.49879999999922],[20.981750000000062,69.5],[19.5,69.5],[19.5,69.0],[17.5,69.0],[17.5,68.5],[17.0,68.5],[17.0,68.3028],[13.991249999999999,68.3028],[13.991249999999999,68.5],[14.0,68.5],[14.0,69.5],[13.991249999999999,69.5]],[[15.0,69.5],[16.0,69.5],[16.0,70.0],[15.0,70.0],[15.0,69.5]]]}},{"type":"Feature","properties":{"layer":"built","atlas":"NORKYST_TRONDELAG","shipped":true,"name":"NorKyst800 (MET Norway), trondelag (800 m)","label":"norkyst_trondelag_800m","rank":1,"resolution_m":800,"record_hours":8783.0,"resolved":["M2","S2","N2","K1","O1","M4","MS4","K2","P1","Q1","MN4","M6","2N2","NU2","MU2","L2","2MS6","MK4"],"cells":99020,"resolution_class":"medium"},"geometry":{"type":"Polygon","coordinates":[[[11.5,64.5],[11.5,63.5],[10.5,63.5],[10.5,63.0],[8.0,63.0],[8.0,62.5],[5.007750000000001,62.499599999999994],[5.007750000000001,65.49479999999892],[11.98724999999989,65.49479999999892],[11.98724999999989,64.5],[11.5,64.5]]]}},{"type":"Feature","properties":{"layer":"built","atlas":"NORKYST_VESTLAND","shipped":true,"name":"NorKyst800 (MET Norway), vestland (800 m)","label":"norkyst_vestland_800m","rank":1,"resolution_m":800,"record_hours":8783.0,"resolved":["M2","S2","N2","K1","O1","M4","MS4","K2","P1","Q1","MN4","M6","2N2","NU2","MU2","L2","2MS6","MK4"],"cells":22899,"resolution_class":"medium"},"geometry":{"type":"Polygon","coordinates":[[[6.3974999999999485,62.0],[5.5,62.0],[5.5,61.5],[6.0,61.5],[6.0,61.0],[5.5,61.0],[5.5,60.0012],[3.9974999999999996,60.0012],[3.9974999999999996,62.499599999999106],[6.3974999999999485,62.499599999999106],[6.3974999999999485,62.0]]]}},{"type":"Feature","properties":{"layer":"built","atlas":"GOMOFS_FUNDY","shipped":false,"name":"NOAA GOMOFS (ROMS), fundy (700 m)","label":"gomofs_fundy_700m","rank":1,"resolution_m":700,"record_hours":767.0,"resolved":["M2","S2","N2","K1","O1","M4","MS4","Q1","MN4","M6","2N2","L2","2MS6"],"cells":29854,"resolution_class":"medium"},"geometry":{"type":"Polygon","coordinates":[[[-67.0,45.5],[-65.5,45.5],[-65.5,45.69705000000063],[-64.0,45.69705000000063],[-64.0,45.5],[-63.30125000000133,45.5],[-63.30125000000133,44.399249999999995],[-64.5,44.399249999999995],[-64.5,44.5],[-63.5,44.5],[-63.5,45.0],[-65.0,45.0],[-65.0,44.5],[-65.5,44.5],[-65.5,44.399249999999995],[-67.29735,44.399249999999995],[-67.29735,45.0],[-67.0,45.0],[-67.0,45.5]]]}},{"type":"Feature","properties":{"layer":"built","atlas":"SSCOFS_SALISH","shipped":false,"name":"NOAA SSCOFS (FVCOM), salish (200 m)","label":"sscofs_salish_200m","rank":2,"resolution_m":200,"record_hours":767.0,"resolved":["M2","S2","N2","K1","O1","M4","MS4","Q1","MN4","M6","2N2","L2","2MS6"],"cells":92322,"resolution_class":"fine"},"geometry":{"type":"Polygon","coordinates":[[[-123.19965,48.4983000000021],[-122.20064999999839,48.4983000000021],[-122.20064999999839,47.2005],[-123.19965,47.2005],[-123.19965,48.4983000000021]]]}}]}