{"type":"FeatureCollection","features":[{"type":"Feature","properties":{"name":"Raz Blanchard / Alderney Race","country":"France-Guernsey","region":"EUROPE - FRANCE","max_spring_kt":12.0,"max_spring_text":"~12 (flot 6-12 selon coef; jusant 4-9)","confidence":"medium","uncertain":true,"source_url":"https://fr.wikipedia.org/wiki/Raz_Blanchard","open_source_status":"current","notes":"Dans la cascade actuelle (SHOM C2D, MARC).","read_at":"2026-09-19","best_source":"MARC MANW 250 m","best_resolution_m":250,"coverage_class":"fine","candidates":["BSH Strömungsvorhersagen, mer du Nord 3 nm (5556 m)","Copernicus Marine IBI (IBI_ANALYSISFORECAST_PHY_005_001) (2500 m)","Copernicus Marine NWS (NWSHELF_ANALYSISFORECAST_PHY_004_013) (1500 m)","DMI Open Data, modèle DKSS","FES2014 courants (AVISO) (7000 m)","Marine Institute NE Atlantic ROMS (1900 m)"],"in_objective":true,"status":"covered"},"geometry":{"type":"Point","coordinates":[-2.0686,49.7178]}},{"type":"Feature","properties":{"name":"Passage du Fromveur","country":"France","region":"EUROPE - FRANCE","max_spring_kt":9.0,"max_spring_text":"9 (~7 mi-maree de vives-eaux sur tout le passage)","confidence":"medium","uncertain":true,"source_url":"https://fr.wikipedia.org/wiki/Passage_du_Fromveur","open_source_status":"current","notes":"Dans la cascade actuelle (SHOM C2D, MARC).","read_at":"2026-09-19","best_source":"MARC FINIS 250 m","best_resolution_m":250,"coverage_class":"fine","candidates":["Copernicus Marine IBI (IBI_ANALYSISFORECAST_PHY_005_001) (2500 m)","Copernicus Marine NWS (NWSHELF_ANALYSISFORECAST_PHY_004_013) (1500 m)","FES2014 courants (AVISO) (7000 m)","Marine Institute NE Atlantic ROMS (1900 m)"],"in_objective":true,"status":"covered"},"geometry":{"type":"Point","coordinates":[-5.0167,48.4267]}},{"type":"Feature","properties":{"name":"Raz de Sein","country":"France","region":"EUROPE - FRANCE","max_spring_kt":6.0,"max_spring_text":"6 (fr.wikipedia avance \">10\" - contradiction)","confidence":"medium","uncertain":true,"source_url":"https://en.wikipedia.org/wiki/Raz_de_Sein","open_source_status":"current","notes":"Dans la cascade actuelle (SHOM C2D, MARC).","read_at":"2026-09-19","best_source":"MARC FINIS 250 m","best_resolution_m":250,"coverage_class":"fine","candidates":["Copernicus Marine IBI (IBI_ANALYSISFORECAST_PHY_005_001) (2500 m)","Copernicus Marine NWS (NWSHELF_ANALYSISFORECAST_PHY_004_013) (1500 m)","DMI Open Data, modèle DKSS","FES2014 courants (AVISO) (7000 m)","Marine Institute NE Atlantic ROMS (1900 m)"],"in_objective":true,"status":"covered"},"geometry":{"type":"Point","coordinates":[-4.7722,48.0345]}},{"type":"Feature","properties":{"name":"Goulet de Brest","country":"France","region":"EUROPE - FRANCE","max_spring_kt":4.0,"max_spring_text":"4-5","confidence":"medium","uncertain":false,"source_url":"https://fr.wikipedia.org/wiki/Goulet_de_Brest","open_source_status":"current","notes":"Dans la cascade actuelle (SHOM C2D, MARC).","read_at":"2026-09-19","best_source":"MARC FINIS 250 m","best_resolution_m":250,"coverage_class":"fine","candidates":["Copernicus Marine IBI (IBI_ANALYSISFORECAST_PHY_005_001) (2500 m)","Copernicus Marine NWS (NWSHELF_ANALYSISFORECAST_PHY_004_013) (1500 m)","DMI Open Data, modèle DKSS","FES2014 courants (AVISO) (7000 m)","Marine Institute NE Atlantic ROMS (1900 m)"],"in_objective":true,"status":"covered"},"geometry":{"type":"Point","coordinates":[-4.5667,48.3417]}},{"type":"Feature","properties":{"name":"Golfe du Morbihan - goulet de Port-Navalo","country":"France","region":"EUROPE - FRANCE","max_spring_kt":9.0,"max_spring_text":"~9 (4 m/s; source citee SHOM)","confidence":"medium","uncertain":true,"source_url":"https://fr.wikipedia.org/wiki/Golfe_du_Morbihan","open_source_status":"current","notes":"Dans la cascade actuelle (SHOM C2D, MARC).","read_at":"2026-09-19","best_source":"MARC SUDBZH 250 m","best_resolution_m":250,"coverage_class":"fine","candidates":["Copernicus Marine IBI (IBI_ANALYSISFORECAST_PHY_005_001) (2500 m)","Copernicus Marine NWS (NWSHELF_ANALYSISFORECAST_PHY_004_013) (1500 m)","FES2014 courants (AVISO) (7000 m)"],"in_objective":true,"status":"covered"},"geometry":{"type":"Point","coordinates":[-2.92,47.5433]}},{"type":"Feature","properties":{"name":"Courant de la Jument (ile de Berder)","country":"France","region":"EUROPE - FRANCE","max_spring_kt":9.1,"max_spring_text":"9.1","confidence":"medium","uncertain":false,"source_url":"https://fr.wikipedia.org/wiki/Golfe_du_Morbihan","open_source_status":"current","notes":"Dans la cascade actuelle (SHOM C2D, MARC).","read_at":"2026-09-19","best_source":"MARC SUDBZH 250 m","best_resolution_m":250,"coverage_class":"fine","candidates":["Copernicus Marine IBI (IBI_ANALYSISFORECAST_PHY_005_001) (2500 m)","Copernicus Marine NWS (NWSHELF_ANALYSISFORECAST_PHY_004_013) (1500 m)","FES2014 courants (AVISO) (7000 m)"],"in_objective":true,"status":"covered"},"geometry":{"type":"Point","coordinates":[-2.8836,47.5878]}},{"type":"Feature","properties":{"name":"Passage de la Teignouse","country":"France","region":"EUROPE - FRANCE","max_spring_kt":4.0,"max_spring_text":"4-6","confidence":"low","uncertain":true,"source_url":"https://cap-nautique.fr/destinations/houat-hoedic-voilier-escale-mouillages/","open_source_status":"current","notes":"Dans la cascade actuelle (SHOM C2D, MARC).","read_at":"2026-09-19","best_source":"MARC SUDBZH 250 m","best_resolution_m":250,"coverage_class":"fine","candidates":["Copernicus Marine IBI (IBI_ANALYSISFORECAST_PHY_005_001) (2500 m)","Copernicus Marine NWS (NWSHELF_ANALYSISFORECAST_PHY_004_013) (1500 m)","FES2014 courants (AVISO) (7000 m)"],"in_objective":true,"status":"covered"},"geometry":{"type":"Point","coordinates":[-3.0364,47.437]}},{"type":"Feature","properties":{"name":"Raz de Barfleur","country":"France","region":"EUROPE - FRANCE","max_spring_kt":4.0,"max_spring_text":"4 vives-eaux (7-8 avance ailleurs)","confidence":"low","uncertain":true,"source_url":"https://www.bateaux.com/article/31514/navigation-delicate-le-passage-d-un-raz","open_source_status":"current","notes":"Dans la cascade actuelle (SHOM C2D, MARC).","read_at":"2026-09-19","best_source":"MARC MANW 250 m","best_resolution_m":250,"coverage_class":"fine","candidates":["BSH Strömungsvorhersagen, mer du Nord 3 nm (5556 m)","Copernicus Marine IBI (IBI_ANALYSISFORECAST_PHY_005_001) (2500 m)","Copernicus Marine NWS (NWSHELF_ANALYSISFORECAST_PHY_004_013) (1500 m)","DMI Open Data, modèle DKSS","FES2014 courants (AVISO) (7000 m)","Marine Institute NE Atlantic ROMS (1900 m)"],"in_objective":true,"status":"covered"},"geometry":{"type":"Point","coordinates":[-1.2489,49.7014]}},{"type":"Feature","properties":{"name":"Chenal du Four","country":"France","region":"EUROPE - FRANCE","max_spring_kt":5.0,"max_spring_text":"~5","confidence":"medium","uncertain":true,"source_url":"https://fr.wikipedia.org/wiki/Courant_de_mar%C3%A9e","open_source_status":"current","notes":"Dans la cascade actuelle (SHOM C2D, MARC).","read_at":"2026-09-19","best_source":"MARC FINIS 250 m","best_resolution_m":250,"coverage_class":"fine","candidates":["Copernicus Marine IBI (IBI_ANALYSISFORECAST_PHY_005_001) (2500 m)","Copernicus Marine NWS (NWSHELF_ANALYSISFORECAST_PHY_004_013) (1500 m)","DMI Open Data, modèle DKSS","FES2014 courants (AVISO) (7000 m)","Marine Institute NE Atlantic ROMS (1900 m)"],"in_objective":true,"status":"covered"},"geometry":{"type":"Point","coordinates":[-4.78,48.4]}},{"type":"Feature","properties":{"name":"Pentland Firth (ouest des Pentland Skerries)","country":"UK","region":"EUROPE - ILES BRITANNIQUES","max_spring_kt":16.0,"max_spring_text":"16 (30 km/h)","confidence":"medium","uncertain":false,"source_url":"https://en.wikipedia.org/wiki/Pentland_Firth","open_source_status":"partial","notes":"Une source ouverte couvre la zone mais ne résout pas une passe plus étroite que sa maille.","read_at":"2026-09-19","best_source":"Copernicus Marine NWS 1.5 km, un an horaire (1500 m)","best_resolution_m":1500,"coverage_class":"coarse","candidates":["BSH Strömungsvorhersagen, mer du Nord 3 nm (5556 m)","Copernicus Marine NWS (NWSHELF_ANALYSISFORECAST_PHY_004_013) (1500 m)","DMI Open Data, modèle DKSS","FES2014 courants (AVISO) (7000 m)"],"in_objective":true,"status":"blocked"},"geometry":{"type":"Point","coordinates":[-3.2,58.7]}},{"type":"Feature","properties":{"name":"Merry Men of Mey (Pentland Firth)","country":"UK","region":"EUROPE - ILES BRITANNIQUES","max_spring_kt":10.0,"max_spring_text":"10 (>19 km/h)","confidence":"medium","uncertain":false,"source_url":"https://en.wikipedia.org/wiki/Pentland_Firth","open_source_status":"partial","notes":"Une source ouverte couvre la zone mais ne résout pas une passe plus étroite que sa maille.","read_at":"2026-09-19","best_source":"Copernicus Marine NWS 1.5 km, un an horaire (1500 m)","best_resolution_m":1500,"coverage_class":"coarse","candidates":["BSH Strömungsvorhersagen, mer du Nord 3 nm (5556 m)","Copernicus Marine NWS (NWSHELF_ANALYSISFORECAST_PHY_004_013) (1500 m)","DMI Open Data, modèle DKSS","FES2014 courants (AVISO) (7000 m)"],"in_objective":true,"status":"blocked"},"geometry":{"type":"Point","coordinates":[-3.13,58.65]}},{"type":"Feature","properties":{"name":"Gulf of Corryvreckan","country":"UK","region":"EUROPE - ILES BRITANNIQUES","max_spring_kt":8.5,"max_spring_text":"8.5","confidence":"medium","uncertain":false,"source_url":"https://en.wikipedia.org/wiki/Gulf_of_Corryvreckan","open_source_status":"partial","notes":"Une source ouverte couvre la zone mais ne résout pas une passe plus étroite que sa maille.","read_at":"2026-09-19","best_source":"Copernicus Marine NWS 1.5 km, un an horaire (1500 m)","best_resolution_m":1500,"coverage_class":"coarse","candidates":["Copernicus Marine NWS (NWSHELF_ANALYSISFORECAST_PHY_004_013) (1500 m)","FES2014 courants (AVISO) (7000 m)","Marine Institute NE Atlantic ROMS (1900 m)"],"in_objective":true,"status":"blocked"},"geometry":{"type":"Point","coordinates":[-5.7278,56.155]}},{"type":"Feature","properties":{"name":"Kyle Rhea","country":"UK","region":"EUROPE - ILES BRITANNIQUES","max_spring_kt":8.0,"max_spring_text":"8","confidence":"medium","uncertain":false,"source_url":"https://en.wikipedia.org/wiki/Kyle_Rhea","open_source_status":"partial","notes":"Une source ouverte couvre la zone mais ne résout pas une passe plus étroite que sa maille.","read_at":"2026-09-19","best_source":"Copernicus Marine NWS 1.5 km, un an horaire (1500 m)","best_resolution_m":1500,"coverage_class":"coarse","candidates":["Copernicus Marine NWS (NWSHELF_ANALYSISFORECAST_PHY_004_013) (1500 m)","FES2014 courants (AVISO) (7000 m)","Marine Institute NE Atlantic ROMS (1900 m)"],"in_objective":true,"status":"blocked"},"geometry":{"type":"Point","coordinates":[-5.641,57.2548]}},{"type":"Feature","properties":{"name":"Cuan Sound","country":"UK","region":"EUROPE - ILES BRITANNIQUES","max_spring_kt":7.0,"max_spring_text":"7 (West Coast of Scotland Pilot)","confidence":"high","uncertain":false,"source_url":"https://en.wikipedia.org/wiki/Cuan_Sound","open_source_status":"partial","notes":"Une source ouverte couvre la zone mais ne résout pas une passe plus étroite que sa maille.","read_at":"2026-09-19","best_source":"Copernicus Marine NWS 1.5 km, un an horaire (1500 m)","best_resolution_m":1500,"coverage_class":"coarse","candidates":["Copernicus Marine NWS (NWSHELF_ANALYSISFORECAST_PHY_004_013) (1500 m)","FES2014 courants (AVISO) (7000 m)","Marine Institute NE Atlantic ROMS (1900 m)"],"in_objective":true,"status":"blocked"},"geometry":{"type":"Point","coordinates":[-5.6293,56.2682]}},{"type":"Feature","properties":{"name":"Falls of Lora (Connel)","country":"UK","region":"EUROPE - ILES BRITANNIQUES","max_spring_kt":12.0,"max_spring_text":"12 mesure SAMS (pilote officiel: 6)","confidence":"medium","uncertain":false,"source_url":"https://www.fallsoflora.info/about-the-falls-of-lora/","open_source_status":"partial","notes":"Une source ouverte couvre la zone mais ne résout pas une passe plus étroite que sa maille.","read_at":"2026-09-19","best_source":"Copernicus Marine NWS 1.5 km, un an horaire (1500 m)","best_resolution_m":1500,"coverage_class":"coarse","candidates":["Copernicus Marine NWS (NWSHELF_ANALYSISFORECAST_PHY_004_013) (1500 m)","FES2014 courants (AVISO) (7000 m)","Marine Institute NE Atlantic ROMS (1900 m)"],"in_objective":true,"status":"blocked"},"geometry":{"type":"Point","coordinates":[-5.3875,56.4569]}},{"type":"Feature","properties":{"name":"Sumburgh Roost","country":"UK","region":"EUROPE - ILES BRITANNIQUES","max_spring_kt":6.0,"max_spring_text":"6","confidence":"medium","uncertain":false,"source_url":"https://www.yachtingmonthly.com/sailing-skills/the-uks-11-fiercest-tide-races-75304","open_source_status":"partial","notes":"Une source ouverte couvre la zone mais ne résout pas une passe plus étroite que sa maille.","read_at":"2026-09-19","best_source":"Copernicus Marine NWS 1.5 km, un an horaire (1500 m)","best_resolution_m":1500,"coverage_class":"coarse","candidates":["BSH Strömungsvorhersagen, mer du Nord 3 nm (5556 m)","Copernicus Marine NWS (NWSHELF_ANALYSISFORECAST_PHY_004_013) (1500 m)","DMI Open Data, modèle DKSS","FES2014 courants (AVISO) (7000 m)","NorKyst800 (MET Norway / IMR) (800 m)"],"in_objective":true,"status":"target"},"geometry":{"type":"Point","coordinates":[-1.3,59.8]}},{"type":"Feature","properties":{"name":"Mull of Kintyre","country":"UK","region":"EUROPE - ILES BRITANNIQUES","max_spring_kt":5.0,"max_spring_text":"5","confidence":"medium","uncertain":false,"source_url":"https://www.yachtingmonthly.com/sailing-skills/the-uks-11-fiercest-tide-races-75304","open_source_status":"partial","notes":"Une source ouverte couvre la zone mais ne résout pas une passe plus étroite que sa maille.","read_at":"2026-09-19","best_source":"Copernicus Marine NWS 1.5 km, un an horaire (1500 m)","best_resolution_m":1500,"coverage_class":"coarse","candidates":["Copernicus Marine IBI (IBI_ANALYSISFORECAST_PHY_005_001) (2500 m)","Copernicus Marine NWS (NWSHELF_ANALYSISFORECAST_PHY_004_013) (1500 m)","FES2014 courants (AVISO) (7000 m)","Marine Institute NE Atlantic ROMS (1900 m)"],"in_objective":true,"status":"blocked"},"geometry":{"type":"Point","coordinates":[-5.8,55.3]}},{"type":"Feature","properties":{"name":"Skerries / Holyhead race (Anglesey)","country":"UK","region":"EUROPE - ILES BRITANNIQUES","max_spring_kt":5.0,"max_spring_text":"5","confidence":"medium","uncertain":false,"source_url":"https://www.yachtingmonthly.com/sailing-skills/the-uks-11-fiercest-tide-races-75304","open_source_status":"partial","notes":"Une source ouverte couvre la zone mais ne résout pas une passe plus étroite que sa maille.","read_at":"2026-09-19","best_source":"Copernicus Marine NWS 1.5 km, un an horaire (1500 m)","best_resolution_m":1500,"coverage_class":"coarse","candidates":["Copernicus Marine IBI (IBI_ANALYSISFORECAST_PHY_005_001) (2500 m)","Copernicus Marine NWS (NWSHELF_ANALYSISFORECAST_PHY_004_013) (1500 m)","DMI Open Data, modèle DKSS","FES2014 courants (AVISO) (7000 m)","Marine Institute NE Atlantic ROMS (1900 m)"],"in_objective":true,"status":"blocked"},"geometry":{"type":"Point","coordinates":[-4.61,53.42]}},{"type":"Feature","properties":{"name":"Lundy race","country":"UK","region":"EUROPE - ILES BRITANNIQUES","max_spring_kt":4.0,"max_spring_text":">4","confidence":"medium","uncertain":false,"source_url":"https://www.yachtingmonthly.com/sailing-skills/the-uks-11-fiercest-tide-races-75304","open_source_status":"partial","notes":"Une source ouverte couvre la zone mais ne résout pas une passe plus étroite que sa maille.","read_at":"2026-09-19","best_source":"MARC MANGA 700 m","best_resolution_m":700,"coverage_class":"medium","candidates":["Copernicus Marine IBI (IBI_ANALYSISFORECAST_PHY_005_001) (2500 m)","Copernicus Marine NWS (NWSHELF_ANALYSISFORECAST_PHY_004_013) (1500 m)","DMI Open Data, modèle DKSS","FES2014 courants (AVISO) (7000 m)","Marine Institute NE Atlantic ROMS (1900 m)"],"in_objective":true,"status":"covered"},"geometry":{"type":"Point","coordinates":[-4.67,51.18]}},{"type":"Feature","properties":{"name":"Menai Strait - The Swellies","country":"UK","region":"EUROPE - ILES BRITANNIQUES","max_spring_kt":4.8,"max_spring_text":"4.8 aux Swellies (>7 dans le chenal)","confidence":"medium","uncertain":false,"source_url":"https://en.wikipedia.org/wiki/Menai_Strait","open_source_status":"partial","notes":"Une source ouverte couvre la zone mais ne résout pas une passe plus étroite que sa maille.","read_at":"2026-09-19","best_source":"Copernicus Marine NWS 1.5 km, un an horaire (1500 m)","best_resolution_m":1500,"coverage_class":"coarse","candidates":["Copernicus Marine IBI (IBI_ANALYSISFORECAST_PHY_005_001) (2500 m)","Copernicus Marine NWS (NWSHELF_ANALYSISFORECAST_PHY_004_013) (1500 m)","DMI Open Data, modèle DKSS","FES2014 courants (AVISO) (7000 m)","Marine Institute NE Atlantic ROMS (1900 m)"],"in_objective":true,"status":"blocked"},"geometry":{"type":"Point","coordinates":[-4.18,53.217]}},{"type":"Feature","properties":{"name":"Ramsey Sound / The Bitches","country":"UK","region":"EUROPE - ILES BRITANNIQUES","max_spring_kt":8.0,"max_spring_text":"~8 dans le sound (12-18 sur le recif; tres disperse)","confidence":"low","uncertain":true,"source_url":"https://www.ramseyisland.co.uk/the-islands/the-bitches-rocks/","open_source_status":"partial","notes":"Une source ouverte couvre la zone mais ne résout pas une passe plus étroite que sa maille.","read_at":"2026-09-19","best_source":"Copernicus Marine NWS 1.5 km, un an horaire (1500 m)","best_resolution_m":1500,"coverage_class":"coarse","candidates":["Copernicus Marine IBI (IBI_ANALYSISFORECAST_PHY_005_001) (2500 m)","Copernicus Marine NWS (NWSHELF_ANALYSISFORECAST_PHY_004_013) (1500 m)","FES2014 courants (AVISO) (7000 m)","Marine Institute NE Atlantic ROMS (1900 m)"],"in_objective":true,"status":"blocked"},"geometry":{"type":"Point","coordinates":[-5.33,51.87]}},{"type":"Feature","properties":{"name":"Jack Sound","country":"UK","region":"EUROPE - ILES BRITANNIQUES","max_spring_kt":6.0,"max_spring_text":"6","confidence":"medium","uncertain":false,"source_url":"https://en.wikipedia.org/wiki/Jack_Sound","open_source_status":"partial","notes":"Une source ouverte couvre la zone mais ne résout pas une passe plus étroite que sa maille.","read_at":"2026-09-19","best_source":"Copernicus Marine NWS 1.5 km, un an horaire (1500 m)","best_resolution_m":1500,"coverage_class":"coarse","candidates":["Copernicus Marine IBI (IBI_ANALYSISFORECAST_PHY_005_001) (2500 m)","Copernicus Marine NWS (NWSHELF_ANALYSISFORECAST_PHY_004_013) (1500 m)","FES2014 courants (AVISO) (7000 m)","Marine Institute NE Atlantic ROMS (1900 m)"],"in_objective":true,"status":"blocked"},"geometry":{"type":"Point","coordinates":[-5.259,51.735]}},{"type":"Feature","properties":{"name":"Bardsey Sound","country":"UK","region":"EUROPE - ILES BRITANNIQUES","max_spring_kt":5.0,"max_spring_text":"5-6 carte (jusqu'a 8)","confidence":"low","uncertain":true,"source_url":"https://sailingsilvergirl.com/posts/richard-smiths-guide-to-sailing-through-bardsey-sound/","open_source_status":"partial","notes":"Une source ouverte couvre la zone mais ne résout pas une passe plus étroite que sa maille.","read_at":"2026-09-19","best_source":"Copernicus Marine NWS 1.5 km, un an horaire (1500 m)","best_resolution_m":1500,"coverage_class":"coarse","candidates":["Copernicus Marine IBI (IBI_ANALYSISFORECAST_PHY_005_001) (2500 m)","Copernicus Marine NWS (NWSHELF_ANALYSISFORECAST_PHY_004_013) (1500 m)","DMI Open Data, modèle DKSS","FES2014 courants (AVISO) (7000 m)","Marine Institute NE Atlantic ROMS (1900 m)"],"in_objective":true,"status":"blocked"},"geometry":{"type":"Point","coordinates":[-4.78,52.77]}},{"type":"Feature","properties":{"name":"The Shoots (Severn - Prince of Wales Bridge)","country":"UK","region":"EUROPE - ILES BRITANNIQUES","max_spring_kt":8.0,"max_spring_text":"8","confidence":"medium","uncertain":false,"source_url":"https://pccsail.com/tides/","open_source_status":"partial","notes":"Une source ouverte couvre la zone mais ne résout pas une passe plus étroite que sa maille.","read_at":"2026-09-19","best_source":"MARC MANGA 700 m","best_resolution_m":700,"coverage_class":"medium","candidates":["BSH Strömungsvorhersagen, mer du Nord 3 nm (5556 m)","Copernicus Marine IBI (IBI_ANALYSISFORECAST_PHY_005_001) (2500 m)","Copernicus Marine NWS (NWSHELF_ANALYSISFORECAST_PHY_004_013) (1500 m)","DMI Open Data, modèle DKSS","FES2014 courants (AVISO) (7000 m)","Marine Institute NE Atlantic ROMS (1900 m)"],"in_objective":true,"status":"covered"},"geometry":{"type":"Point","coordinates":[-2.68,51.6]}},{"type":"Feature","properties":{"name":"Bristol Channel (general)","country":"UK","region":"EUROPE - ILES BRITANNIQUES","max_spring_kt":3.0,"max_spring_text":"3-5","confidence":"medium","uncertain":false,"source_url":"https://pccsail.com/tides/","open_source_status":"partial","notes":"Une source ouverte couvre la zone mais ne résout pas une passe plus étroite que sa maille.","read_at":"2026-09-19","best_source":"MARC MANGA 700 m","best_resolution_m":700,"coverage_class":"medium","candidates":["BSH Strömungsvorhersagen, mer du Nord 3 nm (5556 m)","Copernicus Marine IBI (IBI_ANALYSISFORECAST_PHY_005_001) (2500 m)","Copernicus Marine NWS (NWSHELF_ANALYSISFORECAST_PHY_004_013) (1500 m)","DMI Open Data, modèle DKSS","FES2014 courants (AVISO) (7000 m)","Marine Institute NE Atlantic ROMS (1900 m)"],"in_objective":true,"status":"covered"},"geometry":{"type":"Point","coordinates":[-3.17,51.4]}},{"type":"Feature","properties":{"name":"Portland Race","country":"UK","region":"EUROPE - ILES BRITANNIQUES","max_spring_kt":7.8,"max_spring_text":"~7.8 (4 m/s en vives-eaux)","confidence":"medium","uncertain":true,"source_url":"https://en.wikipedia.org/wiki/Portland_Race","open_source_status":"partial","notes":"Une source ouverte couvre la zone mais ne résout pas une passe plus étroite que sa maille.","read_at":"2026-09-19","best_source":"MARC MANGA 700 m","best_resolution_m":700,"coverage_class":"medium","candidates":["BSH Strömungsvorhersagen, mer du Nord 3 nm (5556 m)","Copernicus Marine IBI (IBI_ANALYSISFORECAST_PHY_005_001) (2500 m)","Copernicus Marine NWS (NWSHELF_ANALYSISFORECAST_PHY_004_013) (1500 m)","DMI Open Data, modèle DKSS","FES2014 courants (AVISO) (7000 m)","Marine Institute NE Atlantic ROMS (1900 m)"],"in_objective":true,"status":"covered"},"geometry":{"type":"Point","coordinates":[-2.45,50.49]}},{"type":"Feature","properties":{"name":"The Shambles (Portland)","country":"UK","region":"EUROPE - ILES BRITANNIQUES","max_spring_kt":3.0,"max_spring_text":"3-4","confidence":"medium","uncertain":false,"source_url":"https://eoceanic.com/sailing/routes/41/","open_source_status":"partial","notes":"Une source ouverte couvre la zone mais ne résout pas une passe plus étroite que sa maille.","read_at":"2026-09-19","best_source":"MARC MANGA 700 m","best_resolution_m":700,"coverage_class":"medium","candidates":["BSH Strömungsvorhersagen, mer du Nord 3 nm (5556 m)","Copernicus Marine IBI (IBI_ANALYSISFORECAST_PHY_005_001) (2500 m)","Copernicus Marine NWS (NWSHELF_ANALYSISFORECAST_PHY_004_013) (1500 m)","DMI Open Data, modèle DKSS","FES2014 courants (AVISO) (7000 m)","Marine Institute NE Atlantic ROMS (1900 m)"],"in_objective":true,"status":"covered"},"geometry":{"type":"Point","coordinates":[-2.37,50.53]}},{"type":"Feature","properties":{"name":"St Alban's Head race","country":"UK","region":"EUROPE - ILES BRITANNIQUES","max_spring_kt":4.5,"max_spring_text":"4.5-4.8","confidence":"medium","uncertain":false,"source_url":"https://eoceanic.com/sailing/routes/41/","open_source_status":"partial","notes":"Une source ouverte couvre la zone mais ne résout pas une passe plus étroite que sa maille.","read_at":"2026-09-19","best_source":"MARC MANGA 700 m","best_resolution_m":700,"coverage_class":"medium","candidates":["BSH Strömungsvorhersagen, mer du Nord 3 nm (5556 m)","Copernicus Marine IBI (IBI_ANALYSISFORECAST_PHY_005_001) (2500 m)","Copernicus Marine NWS (NWSHELF_ANALYSISFORECAST_PHY_004_013) (1500 m)","DMI Open Data, modèle DKSS","FES2014 courants (AVISO) (7000 m)","Marine Institute NE Atlantic ROMS (1900 m)"],"in_objective":true,"status":"covered"},"geometry":{"type":"Point","coordinates":[-2.058,50.575]}},{"type":"Feature","properties":{"name":"Hurst Narrows (Solent ouest)","country":"UK","region":"EUROPE - ILES BRITANNIQUES","max_spring_kt":4.4,"max_spring_text":"4.4 jusant / 3.9 flot","confidence":"high","uncertain":false,"source_url":"https://eoceanic.com/sailing/routes/45/","open_source_status":"partial","notes":"Une source ouverte couvre la zone mais ne résout pas une passe plus étroite que sa maille.","read_at":"2026-09-19","best_source":"MARC MANGA 700 m","best_resolution_m":700,"coverage_class":"medium","candidates":["BSH Strömungsvorhersagen, mer du Nord 3 nm (5556 m)","Copernicus Marine IBI (IBI_ANALYSISFORECAST_PHY_005_001) (2500 m)","Copernicus Marine NWS (NWSHELF_ANALYSISFORECAST_PHY_004_013) (1500 m)","DMI Open Data, modèle DKSS","FES2014 courants (AVISO) (7000 m)","Marine Institute NE Atlantic ROMS (1900 m)"],"in_objective":true,"status":"covered"},"geometry":{"type":"Point","coordinates":[-1.55,50.705]}},{"type":"Feature","properties":{"name":"The Bridge / The Shingles (Needles)","country":"UK","region":"EUROPE - ILES BRITANNIQUES","max_spring_kt":3.4,"max_spring_text":"3.4 jusant / 3.1 flot","confidence":"high","uncertain":false,"source_url":"https://eoceanic.com/sailing/routes/45/","open_source_status":"partial","notes":"Une source ouverte couvre la zone mais ne résout pas une passe plus étroite que sa maille.","read_at":"2026-09-19","best_source":"MARC MANGA 700 m","best_resolution_m":700,"coverage_class":"medium","candidates":["BSH Strömungsvorhersagen, mer du Nord 3 nm (5556 m)","Copernicus Marine IBI (IBI_ANALYSISFORECAST_PHY_005_001) (2500 m)","Copernicus Marine NWS (NWSHELF_ANALYSISFORECAST_PHY_004_013) (1500 m)","DMI Open Data, modèle DKSS","FES2014 courants (AVISO) (7000 m)","Marine Institute NE Atlantic ROMS (1900 m)"],"in_objective":true,"status":"covered"},"geometry":{"type":"Point","coordinates":[-1.6,50.662]}},{"type":"Feature","properties":{"name":"Dover Strait (South Foreland)","country":"UK-France","region":"EUROPE - ILES BRITANNIQUES","max_spring_kt":2.4,"max_spring_text":"2.4","confidence":"low","uncertain":true,"source_url":"https://www.visitmyharbour.com/articles/3171/hourly-tidal-streams-in-the-dover-strait","open_source_status":"partial","notes":"Une source ouverte couvre la zone mais ne résout pas une passe plus étroite que sa maille.","read_at":"2026-09-19","best_source":"MARC MANE 250 m","best_resolution_m":250,"coverage_class":"fine","candidates":["BSH Strömungsvorhersagen, mer du Nord 3 nm (5556 m)","Copernicus Marine IBI (IBI_ANALYSISFORECAST_PHY_005_001) (2500 m)","Copernicus Marine NWS (NWSHELF_ANALYSISFORECAST_PHY_004_013) (1500 m)","DMI Open Data, modèle DKSS","FES2014 courants (AVISO) (7000 m)"],"in_objective":true,"status":"covered"},"geometry":{"type":"Point","coordinates":[1.42,51.06]}},{"type":"Feature","properties":{"name":"Strangford Lough Narrows","country":"UK","region":"EUROPE - ILES BRITANNIQUES","max_spring_kt":7.8,"max_spring_text":"~7.8 (4 m/s)","confidence":"medium","uncertain":true,"source_url":"https://en.wikipedia.org/wiki/Strangford_Lough","open_source_status":"partial","notes":"Une source ouverte couvre la zone mais ne résout pas une passe plus étroite que sa maille.","read_at":"2026-09-19","best_source":"Copernicus Marine NWS 1.5 km, un an horaire (1500 m)","best_resolution_m":1500,"coverage_class":"coarse","candidates":["Copernicus Marine IBI (IBI_ANALYSISFORECAST_PHY_005_001) (2500 m)","Copernicus Marine NWS (NWSHELF_ANALYSISFORECAST_PHY_004_013) (1500 m)","FES2014 courants (AVISO) (7000 m)","Marine Institute NE Atlantic ROMS (1900 m)"],"in_objective":true,"status":"blocked"},"geometry":{"type":"Point","coordinates":[-5.56,54.38]}},{"type":"Feature","properties":{"name":"Rathlin Sound","country":"UK","region":"EUROPE - ILES BRITANNIQUES","max_spring_kt":6.0,"max_spring_text":"6 vives-eaux / 4 mortes-eaux","confidence":"high","uncertain":false,"source_url":"https://eoceanic.com/sailing/harbours/151/","open_source_status":"partial","notes":"Une source ouverte couvre la zone mais ne résout pas une passe plus étroite que sa maille.","read_at":"2026-09-19","best_source":"Copernicus Marine NWS 1.5 km, un an horaire (1500 m)","best_resolution_m":1500,"coverage_class":"coarse","candidates":["Copernicus Marine IBI (IBI_ANALYSISFORECAST_PHY_005_001) (2500 m)","Copernicus Marine NWS (NWSHELF_ANALYSISFORECAST_PHY_004_013) (1500 m)","FES2014 courants (AVISO) (7000 m)","Marine Institute NE Atlantic ROMS (1900 m)"],"in_objective":true,"status":"blocked"},"geometry":{"type":"Point","coordinates":[-6.22,55.27]}},{"type":"Feature","properties":{"name":"Torr Head (jusant)","country":"UK","region":"EUROPE - ILES BRITANNIQUES","max_spring_kt":6.0,"max_spring_text":"6","confidence":"medium","uncertain":false,"source_url":"https://eoceanic.com/sailing/harbours/151/","open_source_status":"partial","notes":"Une source ouverte couvre la zone mais ne résout pas une passe plus étroite que sa maille.","read_at":"2026-09-19","best_source":"Copernicus Marine NWS 1.5 km, un an horaire (1500 m)","best_resolution_m":1500,"coverage_class":"coarse","candidates":["Copernicus Marine IBI (IBI_ANALYSISFORECAST_PHY_005_001) (2500 m)","Copernicus Marine NWS (NWSHELF_ANALYSISFORECAST_PHY_004_013) (1500 m)","FES2014 courants (AVISO) (7000 m)","Marine Institute NE Atlantic ROMS (1900 m)"],"in_objective":true,"status":"blocked"},"geometry":{"type":"Point","coordinates":[-6.064,55.195]}},{"type":"Feature","properties":{"name":"Saltstraumen","country":"Norway","region":"EUROPE - SCANDINAVIE / MER DU NORD","max_spring_kt":8.0,"max_spring_text":"8 (Norwegian Pilot; Compton 2013 avance ~21)","confidence":"medium","uncertain":true,"source_url":"https://en.wikipedia.org/wiki/Saltstraumen","open_source_status":"partial","notes":"Une source ouverte couvre la zone mais ne résout pas une passe plus étroite que sa maille.","read_at":"2026-09-19","best_source":null,"best_resolution_m":null,"coverage_class":"global","candidates":["FES2014 courants (AVISO) (7000 m)","NorKyst800 (MET Norway / IMR) (800 m)"],"in_objective":true,"status":"target"},"geometry":{"type":"Point","coordinates":[14.6164,67.2281]}},{"type":"Feature","properties":{"name":"Moskstraumen","country":"Norway","region":"EUROPE - SCANDINAVIE / MER DU NORD","max_spring_kt":6.0,"max_spring_text":"~6-11 (3 a 5 m/s selon etudes; tres dispute)","confidence":"low","uncertain":true,"source_url":"https://en.wikipedia.org/wiki/Moskstraumen","open_source_status":"partial","notes":"Une source ouverte couvre la zone mais ne résout pas une passe plus étroite que sa maille.","read_at":"2026-09-19","best_source":null,"best_resolution_m":null,"coverage_class":"global","candidates":["FES2014 courants (AVISO) (7000 m)","NorKyst800 (MET Norway / IMR) (800 m)"],"in_objective":true,"status":"target"},"geometry":{"type":"Point","coordinates":[12.8333,67.8]}},{"type":"Feature","properties":{"name":"Marsdiep (Texel)","country":"Netherlands","region":"EUROPE - SCANDINAVIE / MER DU NORD","max_spring_kt":3.5,"max_spring_text":"~3.5 (1.8 m/s max observe ADCP)","confidence":"low","uncertain":true,"source_url":"https://os.copernicus.org/articles/18/1805/2022/","open_source_status":"partial","notes":"Une source ouverte couvre la zone mais ne résout pas une passe plus étroite que sa maille.","read_at":"2026-09-19","best_source":"Copernicus Marine NWS 1.5 km, un an horaire (1500 m)","best_resolution_m":1500,"coverage_class":"coarse","candidates":["BSH Strömungsvorhersagen, mer du Nord 3 nm (5556 m)","Copernicus Marine IBI (IBI_ANALYSISFORECAST_PHY_005_001) (2500 m)","Copernicus Marine NWS (NWSHELF_ANALYSISFORECAST_PHY_004_013) (1500 m)","DMI Open Data, modèle DKSS","FES2014 courants (AVISO) (7000 m)"],"in_objective":true,"status":"blocked"},"geometry":{"type":"Point","coordinates":[4.77,52.98]}},{"type":"Feature","properties":{"name":"Westerschelde (Vlissingen)","country":"Netherlands","region":"EUROPE - SCANDINAVIE / MER DU NORD","max_spring_kt":4.5,"max_spring_text":"4.5 jusant / 3 flot","confidence":"low","uncertain":true,"source_url":"https://www.vliz.be/imisdocs/publications/214759.pdf","open_source_status":"partial","notes":"Une source ouverte couvre la zone mais ne résout pas une passe plus étroite que sa maille.","read_at":"2026-09-19","best_source":"MARC MANGA 700 m","best_resolution_m":700,"coverage_class":"medium","candidates":["BSH Strömungsvorhersagen, mer du Nord 3 nm (5556 m)","Copernicus Marine IBI (IBI_ANALYSISFORECAST_PHY_005_001) (2500 m)","Copernicus Marine NWS (NWSHELF_ANALYSISFORECAST_PHY_004_013) (1500 m)","DMI Open Data, modèle DKSS","FES2014 courants (AVISO) (7000 m)"],"in_objective":true,"status":"covered"},"geometry":{"type":"Point","coordinates":[3.58,51.43]}},{"type":"Feature","properties":{"name":"Elbe - Scharhoern Riff (Cuxhaven)","country":"Germany","region":"EUROPE - SCANDINAVIE / MER DU NORD","max_spring_kt":4.0,"max_spring_text":"4 au jusant","confidence":"low","uncertain":true,"source_url":"http://www.kissen.co.uk/delivery5.html","open_source_status":"ok","notes":"Source ouverte disponible (voir registre).","read_at":"2026-09-19","best_source":"Aussenelbe bis Altenbruch (90 m)","best_resolution_m":90,"coverage_class":"fine","candidates":["BSH Strömungsvorhersagen, Elbe 90 m (90 m)","BSH Strömungsvorhersagen, baie allemande 0,5 nm (926 m)","BSH Strömungsvorhersagen, mer du Nord 3 nm (5556 m)","COSYNA radar HF, baie allemande (référence de validation) (2000 m)","Copernicus Marine NWS (NWSHELF_ANALYSISFORECAST_PHY_004_013) (1500 m)","DMI Open Data, modèle DKSS","FES2014 courants (AVISO) (7000 m)","WSV service SOS, mesures de courant Elbe (stations LZ, D1-D4)"],"in_objective":true,"status":"covered"},"geometry":{"type":"Point","coordinates":[8.4,53.95]}},{"type":"Feature","properties":{"name":"Elbe - Kugelbake (Cuxhaven)","country":"Germany","region":"EUROPE - SCANDINAVIE / MER DU NORD","max_spring_kt":4.0,"max_spring_text":"4-5 au jusant (Boehlich BAW 2013)","confidence":"medium","uncertain":false,"source_url":"https://www.segeln-forum.de/thread/38335-elbe-revier-stroemungen/","open_source_status":"ok","notes":"Source ouverte disponible (voir registre).","read_at":"2026-09-19","best_source":"Aussenelbe bis Altenbruch (90 m)","best_resolution_m":90,"coverage_class":"fine","candidates":["BSH Strömungsvorhersagen, Elbe 90 m (90 m)","BSH Strömungsvorhersagen, baie allemande 0,5 nm (926 m)","BSH Strömungsvorhersagen, mer du Nord 3 nm (5556 m)","COSYNA radar HF, baie allemande (référence de validation) (2000 m)","Copernicus Marine NWS (NWSHELF_ANALYSISFORECAST_PHY_004_013) (1500 m)","DMI Open Data, modèle DKSS","FES2014 courants (AVISO) (7000 m)","WSV service SOS, mesures de courant Elbe (stations LZ, D1-D4)"],"in_objective":true,"status":"covered"},"geometry":{"type":"Point","coordinates":[8.69,53.895]}},{"type":"Feature","properties":{"name":"Helgoland - position F (BSH Bericht 27)","country":"Germany","region":"EUROPE - SCANDINAVIE / MER DU NORD","max_spring_kt":1.8,"max_spring_text":"1.8 vive-eau surface (mesure)","confidence":"high","uncertain":false,"source_url":"https://www.bsh.de/download/Berichte-des-BSH-27.pdf","open_source_status":"ok","notes":"Source ouverte disponible (voir registre).","read_at":"2026-09-19","best_source":"Deutsche Bucht (926 m)","best_resolution_m":926,"coverage_class":"medium","candidates":["BSH Strömungsvorhersagen, baie allemande 0,5 nm (926 m)","BSH Strömungsvorhersagen, mer du Nord 3 nm (5556 m)","COSYNA radar HF, baie allemande (référence de validation) (2000 m)","Copernicus Marine NWS (NWSHELF_ANALYSISFORECAST_PHY_004_013) (1500 m)","DMI Open Data, modèle DKSS","FES2014 courants (AVISO) (7000 m)"],"in_objective":true,"status":"covered"},"geometry":{"type":"Point","coordinates":[7.89,54.155]}},{"type":"Feature","properties":{"name":"Strait of Messina","country":"Italy","region":"EUROPE - MEDITERRANEE / DETROITS TURCS","max_spring_kt":5.0,"max_spring_text":"5 (jusqu'a 5.5 Tyrrhenienne->Ionienne; 2.5-3 inverse)","confidence":"medium","uncertain":false,"source_url":"https://imray.com/destinations/mediterranean-sea/the-strait-of-messina/","open_source_status":"none","notes":"Aucune source ouverte de courants trouvée (voir README, section 9).","read_at":"2026-09-19","best_source":null,"best_resolution_m":null,"coverage_class":"global","candidates":["FES2014 courants (AVISO) (7000 m)"],"in_objective":true,"status":"unknown"},"geometry":{"type":"Point","coordinates":[15.6325,38.2458]}},{"type":"Feature","properties":{"name":"Euripus Strait (Chalkida)","country":"Greece","region":"EUROPE - MEDITERRANEE / DETROITS TURCS","max_spring_kt":6.5,"max_spring_text":"6.5 (12 km/h)","confidence":"medium","uncertain":false,"source_url":"https://en.wikipedia.org/wiki/Euripus_Strait","open_source_status":"none","notes":"Aucune source ouverte de courants trouvée (voir README, section 9).","read_at":"2026-09-19","best_source":null,"best_resolution_m":null,"coverage_class":"global","candidates":["FES2014 courants (AVISO) (7000 m)"],"in_objective":true,"status":"unknown"},"geometry":{"type":"Point","coordinates":[23.5894,38.4628]}},{"type":"Feature","properties":{"name":"Strait of Gibraltar (Tarifa narrows)","country":"Spain-Morocco","region":"EUROPE - MEDITERRANEE / DETROITS TURCS","max_spring_kt":2.0,"max_spring_text":"2 au centre / 3 pres des cotes","confidence":"medium","uncertain":false,"source_url":"https://www.sea-seek.com/en/The-Strait-of-Gibraltar","open_source_status":"partial","notes":"Une source ouverte couvre la zone mais ne résout pas une passe plus étroite que sa maille.","read_at":"2026-09-19","best_source":"Copernicus Marine IBI 3 km, un an horaire (3000 m)","best_resolution_m":3000,"coverage_class":"coarse","candidates":["Copernicus Marine IBI (IBI_ANALYSISFORECAST_PHY_005_001) (2500 m)","FES2014 courants (AVISO) (7000 m)"],"in_objective":true,"status":"blocked"},"geometry":{"type":"Point","coordinates":[-5.6,35.95]}},{"type":"Feature","properties":{"name":"Bosphorus (Kandilli-Asiyan)","country":"Turkey","region":"EUROPE - MEDITERRANEE / DETROITS TURCS","max_spring_kt":7.0,"max_spring_text":"7-8 (NON tidal: densite + vent)","confidence":"medium","uncertain":false,"source_url":"https://en.wikipedia.org/wiki/Bosporus","open_source_status":"not_tidal","notes":"Courant de densité ou de vent, pas de marée : hors périmètre d'un atlas harmonique.","read_at":"2026-09-19","best_source":null,"best_resolution_m":null,"coverage_class":"global","candidates":["FES2014 courants (AVISO) (7000 m)"],"in_objective":true,"status":"unknown"},"geometry":{"type":"Point","coordinates":[29.06,41.07]}},{"type":"Feature","properties":{"name":"Dardanelles (Nara Burnu)","country":"Turkey","region":"EUROPE - MEDITERRANEE / DETROITS TURCS","max_spring_kt":4.0,"max_spring_text":"~4 (jusqu'a 5; NON tidal)","confidence":"low","uncertain":true,"source_url":"https://www.cruiserswiki.org/wiki/Dardanelles","open_source_status":"not_tidal","notes":"Courant de densité ou de vent, pas de marée : hors périmètre d'un atlas harmonique.","read_at":"2026-09-19","best_source":null,"best_resolution_m":null,"coverage_class":"global","candidates":["FES2014 courants (AVISO) (7000 m)"],"in_objective":true,"status":"unknown"},"geometry":{"type":"Point","coordinates":[26.4,40.2]}},{"type":"Feature","properties":{"name":"Minas Passage / Minas Basin","country":"Canada","region":"NORTH AMERICA - EST / FUNDY","max_spring_kt":8.0,"max_spring_text":"8 a mi-maree (RASC Observer's Handbook 2012)","confidence":"medium","uncertain":false,"source_url":"https://en.wikipedia.org/wiki/Minas_Basin","open_source_status":"partial","notes":"Une source ouverte couvre la zone mais ne résout pas une passe plus étroite que sa maille.","read_at":"2026-09-19","best_source":null,"best_resolution_m":null,"coverage_class":"global","candidates":["ECCC CIOPS-East (Datamart) (2000 m)","FES2014 courants (AVISO) (7000 m)","NOAA GoMOFS (golfe du Maine) (500 m)"],"in_objective":false,"status":"target"},"geometry":{"type":"Point","coordinates":[-64.4,45.34]}},{"type":"Feature","properties":{"name":"Cape Split (Minas Channel)","country":"Canada","region":"NORTH AMERICA - EST / FUNDY","max_spring_kt":5.0,"max_spring_text":"5-8 au jusant","confidence":"low","uncertain":true,"source_url":"https://fundydiscovery.ca/explore-fundy/","open_source_status":"partial","notes":"Une source ouverte couvre la zone mais ne résout pas une passe plus étroite que sa maille.","read_at":"2026-09-19","best_source":null,"best_resolution_m":null,"coverage_class":"global","candidates":["ECCC CIOPS-East (Datamart) (2000 m)","FES2014 courants (AVISO) (7000 m)","NOAA GoMOFS (golfe du Maine) (500 m)"],"in_objective":false,"status":"target"},"geometry":{"type":"Point","coordinates":[-64.5,45.33]}},{"type":"Feature","properties":{"name":"Old Sow whirlpool / Western Passage","country":"Canada-USA","region":"NORTH AMERICA - EST / FUNDY","max_spring_kt":9.3,"max_spring_text":"~9.3 (27.6 km/h)","confidence":"low","uncertain":true,"source_url":"https://en.wikipedia.org/wiki/Whirlpool","open_source_status":"partial","notes":"Une source ouverte couvre la zone mais ne résout pas une passe plus étroite que sa maille.","read_at":"2026-09-19","best_source":null,"best_resolution_m":null,"coverage_class":"global","candidates":["ECCC CIOPS-East (Datamart) (2000 m)","FES2014 courants (AVISO) (7000 m)","NOAA GoMOFS (golfe du Maine) (500 m)"],"in_objective":false,"status":"target"},"geometry":{"type":"Point","coordinates":[-66.9866,44.9239]}},{"type":"Feature","properties":{"name":"Hell Gate (East River)","country":"USA","region":"NORTH AMERICA - EST / FUNDY","max_spring_kt":5.0,"max_spring_text":"5","confidence":"medium","uncertain":false,"source_url":"https://www.offshoreblue.com/cruise/east-river.php","open_source_status":"ok","notes":"Source ouverte disponible (voir registre).","read_at":"2026-09-19","best_source":null,"best_resolution_m":null,"coverage_class":"global","candidates":["FES2014 courants (AVISO) (7000 m)"],"in_objective":false,"status":"unknown"},"geometry":{"type":"Point","coordinates":[-73.9206,40.7842]}},{"type":"Feature","properties":{"name":"The Race (Long Island Sound)","country":"USA","region":"NORTH AMERICA - EST / FUNDY","max_spring_kt":4.0,"max_spring_text":"4-5+","confidence":"low","uncertain":true,"source_url":"https://soundingsonline.com/news/the-sentinels-of-long-island-sound/","open_source_status":"ok","notes":"Source ouverte disponible (voir registre).","read_at":"2026-09-19","best_source":null,"best_resolution_m":null,"coverage_class":"global","candidates":["FES2014 courants (AVISO) (7000 m)"],"in_objective":false,"status":"blocked"},"geometry":{"type":"Point","coordinates":[-72.07,41.235]}},{"type":"Feature","properties":{"name":"Plum Gut","country":"USA","region":"NORTH AMERICA - EST / FUNDY","max_spring_kt":5.0,"max_spring_text":"5+","confidence":"low","uncertain":true,"source_url":"https://soundingsonline.com/news/the-sentinels-of-long-island-sound/","open_source_status":"ok","notes":"Source ouverte disponible (voir registre).","read_at":"2026-09-19","best_source":null,"best_resolution_m":null,"coverage_class":"global","candidates":["FES2014 courants (AVISO) (7000 m)"],"in_objective":false,"status":"blocked"},"geometry":{"type":"Point","coordinates":[-72.21,41.17]}},{"type":"Feature","properties":{"name":"Cape Cod Canal","country":"USA","region":"NORTH AMERICA - EST / FUNDY","max_spring_kt":4.5,"max_spring_text":"4.5 (5.2 mph au jusant)","confidence":"medium","uncertain":false,"source_url":"https://en.wikipedia.org/wiki/Cape_Cod_Canal","open_source_status":"ok","notes":"Source ouverte disponible (voir registre).","read_at":"2026-09-19","best_source":null,"best_resolution_m":null,"coverage_class":"global","candidates":["ECCC CIOPS-East (Datamart) (2000 m)","FES2014 courants (AVISO) (7000 m)","NOAA GoMOFS (golfe du Maine) (500 m)"],"in_objective":false,"status":"target"},"geometry":{"type":"Point","coordinates":[-70.5683,41.7642]}},{"type":"Feature","properties":{"name":"Woods Hole passage","country":"USA","region":"NORTH AMERICA - EST / FUNDY","max_spring_kt":4.0,"max_spring_text":"4 courant / 7 exceptionnel","confidence":"medium","uncertain":false,"source_url":"https://en.wikipedia.org/wiki/Woods_Hole_(passage)","open_source_status":"ok","notes":"Source ouverte disponible (voir registre).","read_at":"2026-09-19","best_source":null,"best_resolution_m":null,"coverage_class":"global","candidates":["ECCC CIOPS-East (Datamart) (2000 m)","FES2014 courants (AVISO) (7000 m)","NOAA GoMOFS (golfe du Maine) (500 m)"],"in_objective":false,"status":"target"},"geometry":{"type":"Point","coordinates":[-70.6828,41.5168]}},{"type":"Feature","properties":{"name":"Canapitsit Channel","country":"USA","region":"NORTH AMERICA - EST / FUNDY","max_spring_kt":6.0,"max_spring_text":"6","confidence":"medium","uncertain":false,"source_url":"https://en.wikipedia.org/wiki/Canapitsit_Channel","open_source_status":"ok","notes":"Source ouverte disponible (voir registre).","read_at":"2026-09-19","best_source":null,"best_resolution_m":null,"coverage_class":"global","candidates":["ECCC CIOPS-East (Datamart) (2000 m)","FES2014 courants (AVISO) (7000 m)","NOAA GoMOFS (golfe du Maine) (500 m)"],"in_objective":false,"status":"target"},"geometry":{"type":"Point","coordinates":[-70.9078,41.4234]}},{"type":"Feature","properties":{"name":"Golden Gate","country":"USA","region":"NORTH AMERICA - PACIFIQUE / ALASKA","max_spring_kt":4.2,"max_spring_text":"4.2 predit NOAA (>5 possible)","confidence":"low","uncertain":true,"source_url":"https://www.bask.org/technical-and-gear/tech4_tides/","open_source_status":"ok","notes":"Source ouverte disponible (voir registre).","read_at":"2026-09-19","best_source":null,"best_resolution_m":null,"coverage_class":"global","candidates":["FES2014 courants (AVISO) (7000 m)","NOAA SFBOFS (San Francisco) (500 m)","NOAA WCOFS (côte ouest) (500 m)"],"in_objective":false,"status":"target"},"geometry":{"type":"Point","coordinates":[-122.478,37.819]}},{"type":"Feature","properties":{"name":"Columbia Bar","country":"USA","region":"NORTH AMERICA - PACIFIQUE / ALASKA","max_spring_kt":4.0,"max_spring_text":"4-7 (>8 sur grosse maree descendante)","confidence":"medium","uncertain":false,"source_url":"https://en.wikipedia.org/wiki/Columbia_Bar","open_source_status":"ok","notes":"Source ouverte disponible (voir registre).","read_at":"2026-09-19","best_source":null,"best_resolution_m":null,"coverage_class":"global","candidates":["ECCC CIOPS-West + Salish Sea 500 m (Datamart) (500 m)","FES2014 courants (AVISO) (7000 m)","NOAA WCOFS (côte ouest) (500 m)"],"in_objective":false,"status":"target"},"geometry":{"type":"Point","coordinates":[-124.033,46.25]}},{"type":"Feature","properties":{"name":"Deception Pass","country":"USA","region":"NORTH AMERICA - PACIFIQUE / ALASKA","max_spring_kt":8.0,"max_spring_text":"8 (WA Dept of Ecology GRP 2012)","confidence":"high","uncertain":false,"source_url":"https://en.wikipedia.org/wiki/Deception_Pass","open_source_status":"ok","notes":"Source ouverte disponible (voir registre).","read_at":"2026-09-19","best_source":null,"best_resolution_m":null,"coverage_class":"global","candidates":["ECCC CIOPS-West + Salish Sea 500 m (Datamart) (500 m)","FES2014 courants (AVISO) (7000 m)","NOAA SSCOFS (Salish Sea) (500 m)","NOAA WCOFS (côte ouest) (500 m)"],"in_objective":false,"status":"target"},"geometry":{"type":"Point","coordinates":[-122.6444,48.4064]}},{"type":"Feature","properties":{"name":"Seymour Narrows","country":"Canada","region":"NORTH AMERICA - PACIFIQUE / ALASKA","max_spring_kt":15.0,"max_spring_text":"15","confidence":"medium","uncertain":false,"source_url":"https://en.wikipedia.org/wiki/Seymour_Narrows","open_source_status":"partial","notes":"Une source ouverte couvre la zone mais ne résout pas une passe plus étroite que sa maille.","read_at":"2026-09-19","best_source":null,"best_resolution_m":null,"coverage_class":"global","candidates":["ECCC CIOPS-West + Salish Sea 500 m (Datamart) (500 m)","FES2014 courants (AVISO) (7000 m)","NOAA SSCOFS (Salish Sea) (500 m)"],"in_objective":false,"status":"target"},"geometry":{"type":"Point","coordinates":[-125.3533,50.1367]}},{"type":"Feature","properties":{"name":"Skookumchuck Narrows (Sechelt Rapids)","country":"Canada","region":"NORTH AMERICA - PACIFIQUE / ALASKA","max_spring_kt":16.0,"max_spring_text":"16 a 17.68","confidence":"medium","uncertain":false,"source_url":"https://en.wikipedia.org/wiki/Skookumchuck_Narrows","open_source_status":"partial","notes":"Une source ouverte couvre la zone mais ne résout pas une passe plus étroite que sa maille.","read_at":"2026-09-19","best_source":null,"best_resolution_m":null,"coverage_class":"global","candidates":["ECCC CIOPS-West + Salish Sea 500 m (Datamart) (500 m)","FES2014 courants (AVISO) (7000 m)","NOAA SSCOFS (Salish Sea) (500 m)","NOAA WCOFS (côte ouest) (500 m)"],"in_objective":false,"status":"target"},"geometry":{"type":"Point","coordinates":[-123.9078,49.7475]}},{"type":"Feature","properties":{"name":"Nakwakto Rapids (Slingsby Channel)","country":"Canada","region":"NORTH AMERICA - PACIFIQUE / ALASKA","max_spring_kt":16.0,"max_spring_text":"~16 (14.5-18.5 selon sources)","confidence":"medium","uncertain":true,"source_url":"https://en.wikipedia.org/wiki/Slingsby_Channel","open_source_status":"partial","notes":"Une source ouverte couvre la zone mais ne résout pas une passe plus étroite que sa maille.","read_at":"2026-09-19","best_source":null,"best_resolution_m":null,"coverage_class":"global","candidates":["ECCC CIOPS-West + Salish Sea 500 m (Datamart) (500 m)","FES2014 courants (AVISO) (7000 m)"],"in_objective":false,"status":"target"},"geometry":{"type":"Point","coordinates":[-127.5667,51.0833]}},{"type":"Feature","properties":{"name":"Porlier Pass","country":"Canada","region":"NORTH AMERICA - PACIFIQUE / ALASKA","max_spring_kt":10.0,"max_spring_text":"10 au flot / 7 au jusant","confidence":"medium","uncertain":false,"source_url":"https://48north.com/instructional/seamanship-and-navigation/passes-of-the-gulf-islands/","open_source_status":"partial","notes":"Une source ouverte couvre la zone mais ne résout pas une passe plus étroite que sa maille.","read_at":"2026-09-19","best_source":null,"best_resolution_m":null,"coverage_class":"global","candidates":["ECCC CIOPS-West + Salish Sea 500 m (Datamart) (500 m)","FES2014 courants (AVISO) (7000 m)","NOAA SSCOFS (Salish Sea) (500 m)","NOAA WCOFS (côte ouest) (500 m)"],"in_objective":false,"status":"target"},"geometry":{"type":"Point","coordinates":[-123.59,49.015]}},{"type":"Feature","properties":{"name":"Dodd Narrows","country":"Canada","region":"NORTH AMERICA - PACIFIQUE / ALASKA","max_spring_kt":8.0,"max_spring_text":"8-9","confidence":"medium","uncertain":false,"source_url":"https://48north.com/instructional/seamanship-and-navigation/passes-of-the-gulf-islands/","open_source_status":"partial","notes":"Une source ouverte couvre la zone mais ne résout pas une passe plus étroite que sa maille.","read_at":"2026-09-19","best_source":null,"best_resolution_m":null,"coverage_class":"global","candidates":["ECCC CIOPS-West + Salish Sea 500 m (Datamart) (500 m)","FES2014 courants (AVISO) (7000 m)","NOAA SSCOFS (Salish Sea) (500 m)","NOAA WCOFS (côte ouest) (500 m)"],"in_objective":false,"status":"target"},"geometry":{"type":"Point","coordinates":[-123.82,49.135]}},{"type":"Feature","properties":{"name":"Gabriola Passage","country":"Canada","region":"NORTH AMERICA - PACIFIQUE / ALASKA","max_spring_kt":8.0,"max_spring_text":">8","confidence":"medium","uncertain":false,"source_url":"https://48north.com/instructional/seamanship-and-navigation/passes-of-the-gulf-islands/","open_source_status":"partial","notes":"Une source ouverte couvre la zone mais ne résout pas une passe plus étroite que sa maille.","read_at":"2026-09-19","best_source":null,"best_resolution_m":null,"coverage_class":"global","candidates":["ECCC CIOPS-West + Salish Sea 500 m (Datamart) (500 m)","FES2014 courants (AVISO) (7000 m)","NOAA SSCOFS (Salish Sea) (500 m)","NOAA WCOFS (côte ouest) (500 m)"],"in_objective":false,"status":"target"},"geometry":{"type":"Point","coordinates":[-123.69,49.13]}},{"type":"Feature","properties":{"name":"Active Pass","country":"Canada","region":"NORTH AMERICA - PACIFIQUE / ALASKA","max_spring_kt":7.0,"max_spring_text":"7 au flot (cote Mayne Island)","confidence":"medium","uncertain":false,"source_url":"https://48north.com/instructional/seamanship-and-navigation/passes-of-the-gulf-islands/","open_source_status":"partial","notes":"Une source ouverte couvre la zone mais ne résout pas une passe plus étroite que sa maille.","read_at":"2026-09-19","best_source":null,"best_resolution_m":null,"coverage_class":"global","candidates":["ECCC CIOPS-West + Salish Sea 500 m (Datamart) (500 m)","FES2014 courants (AVISO) (7000 m)","NOAA SSCOFS (Salish Sea) (500 m)","NOAA WCOFS (côte ouest) (500 m)"],"in_objective":false,"status":"target"},"geometry":{"type":"Point","coordinates":[-123.3119,48.8597]}},{"type":"Feature","properties":{"name":"Boundary Pass","country":"Canada","region":"NORTH AMERICA - PACIFIQUE / ALASKA","max_spring_kt":5.0,"max_spring_text":">5","confidence":"medium","uncertain":false,"source_url":"https://48north.com/instructional/seamanship-and-navigation/passes-of-the-gulf-islands/","open_source_status":"partial","notes":"Une source ouverte couvre la zone mais ne résout pas une passe plus étroite que sa maille.","read_at":"2026-09-19","best_source":null,"best_resolution_m":null,"coverage_class":"global","candidates":["ECCC CIOPS-West + Salish Sea 500 m (Datamart) (500 m)","FES2014 courants (AVISO) (7000 m)","NOAA SSCOFS (Salish Sea) (500 m)","NOAA WCOFS (côte ouest) (500 m)"],"in_objective":false,"status":"target"},"geometry":{"type":"Point","coordinates":[-123.1,48.75]}},{"type":"Feature","properties":{"name":"Marcus Passage","country":"Canada","region":"NORTH AMERICA - PACIFIQUE / ALASKA","max_spring_kt":5.0,"max_spring_text":"5 jusant / 3.5 flot (Sailing Directions BC Coast)","confidence":"high","uncertain":false,"source_url":"https://en.wikipedia.org/wiki/Marcus_Passage","open_source_status":"partial","notes":"Une source ouverte couvre la zone mais ne résout pas une passe plus étroite que sa maille.","read_at":"2026-09-19","best_source":null,"best_resolution_m":null,"coverage_class":"global","candidates":["ECCC CIOPS-West + Salish Sea 500 m (Datamart) (500 m)","FES2014 courants (AVISO) (7000 m)"],"in_objective":false,"status":"target"},"geometry":{"type":"Point","coordinates":[-130.2567,54.1061]}},{"type":"Feature","properties":{"name":"Sergius Narrows (Peril Strait)","country":"USA","region":"NORTH AMERICA - PACIFIQUE / ALASKA","max_spring_kt":7.0,"max_spring_text":"7","confidence":"low","uncertain":true,"source_url":"https://cloudobserver.medium.com/winds-and-currents-of-southeast-alaska-4ec498c7de94","open_source_status":"ok","notes":"Source ouverte disponible (voir registre).","read_at":"2026-09-19","best_source":null,"best_resolution_m":null,"coverage_class":"global","candidates":["ECCC CIOPS-West + Salish Sea 500 m (Datamart) (500 m)","FES2014 courants (AVISO) (7000 m)"],"in_objective":false,"status":"target"},"geometry":{"type":"Point","coordinates":[-135.64,57.41]}},{"type":"Feature","properties":{"name":"Cook Inlet","country":"USA","region":"NORTH AMERICA - PACIFIQUE / ALASKA","max_spring_kt":6.0,"max_spring_text":"6 (>5 en plein flux)","confidence":"medium","uncertain":false,"source_url":"https://en.wikipedia.org/wiki/Cook_Inlet","open_source_status":"ok","notes":"Source ouverte disponible (voir registre).","read_at":"2026-09-19","best_source":null,"best_resolution_m":null,"coverage_class":"global","candidates":["FES2014 courants (AVISO) (7000 m)","NOAA CIOFS (Cook Inlet) (500 m)"],"in_objective":false,"status":"target"},"geometry":{"type":"Point","coordinates":[-151.875,60.3378]}},{"type":"Feature","properties":{"name":"Turnagain Arm (derriere le mascaret)","country":"USA","region":"NORTH AMERICA - PACIFIQUE / ALASKA","max_spring_kt":10.0,"max_spring_text":">10","confidence":"low","uncertain":true,"source_url":"https://www.alaska.org/advice/alaska-bore-tide","open_source_status":"ok","notes":"Source ouverte disponible (voir registre).","read_at":"2026-09-19","best_source":null,"best_resolution_m":null,"coverage_class":"global","candidates":["FES2014 courants (AVISO) (7000 m)","NOAA CIOFS (Cook Inlet) (500 m)"],"in_objective":false,"status":"target"},"geometry":{"type":"Point","coordinates":[-149.47,60.98]}},{"type":"Feature","properties":{"name":"Kanmon Strait (Hayatomo Seto)","country":"Japan","region":"ASIE","max_spring_kt":9.4,"max_spring_text":"9.4 (17.4 km/h - Japan Tourism Agency)","confidence":"high","uncertain":false,"source_url":"https://www.mlit.go.jp/tagengo-db/en/R5-00689.html","open_source_status":"none","notes":"Aucune source ouverte de courants trouvée (voir README, section 9).","read_at":"2026-09-19","best_source":null,"best_resolution_m":null,"coverage_class":"global","candidates":["FES2014 courants (AVISO) (7000 m)","KHOA carte numérique des courants (Corée)"],"in_objective":false,"status":"blocked"},"geometry":{"type":"Point","coordinates":[130.96,33.958]}},{"type":"Feature","properties":{"name":"Naruto Strait","country":"Japan","region":"ASIE","max_spring_kt":10.8,"max_spring_text":"~10.8 en vives-eaux (20 km/h)","confidence":"medium","uncertain":true,"source_url":"https://en.wikipedia.org/wiki/Naruto_whirlpools","open_source_status":"none","notes":"Aucune source ouverte de courants trouvée (voir README, section 9).","read_at":"2026-09-19","best_source":null,"best_resolution_m":null,"coverage_class":"global","candidates":["FES2014 courants (AVISO) (7000 m)"],"in_objective":false,"status":"blocked"},"geometry":{"type":"Point","coordinates":[134.6514,34.2383]}},{"type":"Feature","properties":{"name":"Akashi Strait","country":"Japan","region":"ASIE","max_spring_kt":8.7,"max_spring_text":"8.7 (4.5 m/s)","confidence":"medium","uncertain":false,"source_url":"https://en.wikipedia.org/wiki/Akashi_Strait","open_source_status":"none","notes":"Aucune source ouverte de courants trouvée (voir README, section 9).","read_at":"2026-09-19","best_source":null,"best_resolution_m":null,"coverage_class":"global","candidates":["FES2014 courants (AVISO) (7000 m)"],"in_objective":false,"status":"blocked"},"geometry":{"type":"Point","coordinates":[134.983,34.617]}},{"type":"Feature","properties":{"name":"Miyakubo Seto (zone de Kurushima)","country":"Japan","region":"ASIE","max_spring_kt":10.0,"max_spring_text":"10 (18 km/h)","confidence":"medium","uncertain":false,"source_url":"https://en.japantravel.com/ehime/riding-the-seto-inland-sea-currents/3464","open_source_status":"none","notes":"Aucune source ouverte de courants trouvée (voir README, section 9).","read_at":"2026-09-19","best_source":null,"best_resolution_m":null,"coverage_class":"global","candidates":["FES2014 courants (AVISO) (7000 m)"],"in_objective":false,"status":"blocked"},"geometry":{"type":"Point","coordinates":[132.97,34.17]}},{"type":"Feature","properties":{"name":"Kurushima Strait","country":"Japan","region":"ASIE","max_spring_kt":10.3,"max_spring_text":"10.3 (chiffre Japan Coast Guard cite)","confidence":"low","uncertain":true,"source_url":"https://www.gltjp.com/en/article/item/20977/","open_source_status":"none","notes":"Aucune source ouverte de courants trouvée (voir README, section 9).","read_at":"2026-09-19","best_source":null,"best_resolution_m":null,"coverage_class":"global","candidates":["FES2014 courants (AVISO) (7000 m)"],"in_objective":false,"status":"blocked"},"geometry":{"type":"Point","coordinates":[132.98,34.12]}},{"type":"Feature","properties":{"name":"Myeongnyang / Uldolmok Strait","country":"South Korea","region":"ASIE","max_spring_kt":11.5,"max_spring_text":"11.5 (Encyclopedia of Korean Culture)","confidence":"medium","uncertain":false,"source_url":"https://en.wikipedia.org/wiki/Myeongnyang_Strait","open_source_status":"ok","notes":"Source ouverte disponible (voir registre).","read_at":"2026-09-19","best_source":null,"best_resolution_m":null,"coverage_class":"global","candidates":["FES2014 courants (AVISO) (7000 m)","KHOA carte numérique des courants (Corée)"],"in_objective":false,"status":"blocked"},"geometry":{"type":"Point","coordinates":[126.3078,34.5683]}},{"type":"Feature","properties":{"name":"Qiantang River bore (Haining)","country":"China","region":"ASIE","max_spring_kt":21.6,"max_spring_text":"~21.6 (40 km/h - MASCARET, pas courant etabli)","confidence":"medium","uncertain":true,"source_url":"https://en.wikipedia.org/wiki/Qiantang_River","open_source_status":"not_tidal","notes":"Courant de densité ou de vent, pas de marée : hors périmètre d'un atlas harmonique.","read_at":"2026-09-19","best_source":null,"best_resolution_m":null,"coverage_class":"global","candidates":["FES2014 courants (AVISO) (7000 m)"],"in_objective":false,"status":"unknown"},"geometry":{"type":"Point","coordinates":[120.6889,30.3794]}},{"type":"Feature","properties":{"name":"Gulf of Khambhat","country":"India","region":"ASIE","max_spring_kt":6.0,"max_spring_text":"6 a mi-maree (3 m/s)","confidence":"low","uncertain":true,"source_url":"https://journals.sagepub.com/doi/full/10.1177/1759313117690010","open_source_status":"none","notes":"Aucune source ouverte de courants trouvée (voir README, section 9).","read_at":"2026-09-19","best_source":null,"best_resolution_m":null,"coverage_class":"global","candidates":["FES2014 courants (AVISO) (7000 m)"],"in_objective":false,"status":"unknown"},"geometry":{"type":"Point","coordinates":[72.5,21.5]}},{"type":"Feature","properties":{"name":"Gulf of Kutch","country":"India","region":"ASIE","max_spring_kt":3.0,"max_spring_text":"3-5 au centre / 1.5-2.5 a l'entree","confidence":"low","uncertain":true,"source_url":"https://en.wikipedia.org/wiki/Gulf_of_Kutch","open_source_status":"none","notes":"Aucune source ouverte de courants trouvée (voir README, section 9).","read_at":"2026-09-19","best_source":null,"best_resolution_m":null,"coverage_class":"global","candidates":["FES2014 courants (AVISO) (7000 m)"],"in_objective":false,"status":"unknown"},"geometry":{"type":"Point","coordinates":[69.7,22.6]}},{"type":"Feature","properties":{"name":"French Pass","country":"New Zealand","region":"OCEANIE","max_spring_kt":8.0,"max_spring_text":"8 (4 m/s; Stevens et al. 2008)","confidence":"high","uncertain":false,"source_url":"https://en.wikipedia.org/wiki/French_Pass","open_source_status":"none","notes":"Aucune source ouverte de courants trouvée (voir README, section 9).","read_at":"2026-09-19","best_source":null,"best_resolution_m":null,"coverage_class":"global","candidates":["FES2014 courants (AVISO) (7000 m)"],"in_objective":false,"status":"blocked"},"geometry":{"type":"Point","coordinates":[173.8336,-40.9219]}},{"type":"Feature","properties":{"name":"Cook Strait","country":"New Zealand","region":"OCEANIE","max_spring_kt":5.0,"max_spring_text":"5 (2.5 m/s)","confidence":"medium","uncertain":false,"source_url":"https://en.wikipedia.org/wiki/Cook_Strait","open_source_status":"none","notes":"Aucune source ouverte de courants trouvée (voir README, section 9).","read_at":"2026-09-19","best_source":null,"best_resolution_m":null,"coverage_class":"global","candidates":["FES2014 courants (AVISO) (7000 m)"],"in_objective":false,"status":"blocked"},"geometry":{"type":"Point","coordinates":[174.4831,-41.2294]}},{"type":"Feature","properties":{"name":"Tory Channel","country":"New Zealand","region":"OCEANIE","max_spring_kt":7.0,"max_spring_text":"~7 (3.6 m/s - chiffre promoteur hydrolien)","confidence":"low","uncertain":true,"source_url":"https://en.wikipedia.org/wiki/Tory_Channel","open_source_status":"none","notes":"Aucune source ouverte de courants trouvée (voir README, section 9).","read_at":"2026-09-19","best_source":null,"best_resolution_m":null,"coverage_class":"global","candidates":["FES2014 courants (AVISO) (7000 m)"],"in_objective":false,"status":"blocked"},"geometry":{"type":"Point","coordinates":[174.2333,-41.24]}},{"type":"Feature","properties":{"name":"Torres Strait / Prince of Wales Channel","country":"Australia","region":"OCEANIE","max_spring_kt":6.0,"max_spring_text":"6 (7+ ailleurs)","confidence":"low","uncertain":true,"source_url":"https://www.picton-castle.com/captains_log/torres-strait/","open_source_status":"clarify","notes":"Source existante, licence à trancher (CC BY-SA).","read_at":"2026-09-19","best_source":null,"best_resolution_m":null,"coverage_class":"global","candidates":["FES2014 courants (AVISO) (7000 m)","eReefs GBR1 / GBR4 (CSIRO / AIMS) (1000 m)"],"in_objective":false,"status":"target"},"geometry":{"type":"Point","coordinates":[142.2,-10.6]}},{"type":"Feature","properties":{"name":"Clarence Strait - South Channel","country":"Australia","region":"OCEANIE","max_spring_kt":5.8,"max_spring_text":"~5.8 (>3 m/s mesure)","confidence":"low","uncertain":true,"source_url":"https://tethys.pnnl.gov/project-sites/clarence-strait-tidal-energy-project-tropical-tidal-test-centre","open_source_status":"clarify","notes":"Source existante, licence à trancher (CC BY-SA).","read_at":"2026-09-19","best_source":null,"best_resolution_m":null,"coverage_class":"global","candidates":["FES2014 courants (AVISO) (7000 m)"],"in_objective":false,"status":"blocked"},"geometry":{"type":"Point","coordinates":[131.1,-12.05]}},{"type":"Feature","properties":{"name":"Banks Strait","country":"Australia","region":"OCEANIE","max_spring_kt":4.5,"max_spring_text":"~4.5-5.8 (2.3-3 m/s)","confidence":"low","uncertain":true,"source_url":"https://doi.org/10.3390/en13205326","open_source_status":"clarify","notes":"Source existante, licence à trancher (CC BY-SA).","read_at":"2026-09-19","best_source":null,"best_resolution_m":null,"coverage_class":"global","candidates":["FES2014 courants (AVISO) (7000 m)"],"in_objective":false,"status":"blocked"},"geometry":{"type":"Point","coordinates":[148.1,-40.65]}},{"type":"Feature","properties":{"name":"Chacao Channel","country":"Chile","region":"AMERIQUE DU SUD / AFRIQUE","max_spring_kt":8.0,"max_spring_text":"~8-9.7 au flot (4-5 m/s; Guerra et al. 2017)","confidence":"high","uncertain":true,"source_url":"https://en.wikipedia.org/wiki/Chacao_Channel","open_source_status":"none","notes":"Aucune source ouverte de courants trouvée (voir README, section 9).","read_at":"2026-09-19","best_source":null,"best_resolution_m":null,"coverage_class":"global","candidates":["FES2014 courants (AVISO) (7000 m)"],"in_objective":false,"status":"unknown"},"geometry":{"type":"Point","coordinates":[-73.4917,-41.825]}},{"type":"Feature","properties":{"name":"Primera Angostura (Magellan)","country":"Chile","region":"AMERIQUE DU SUD / AFRIQUE","max_spring_kt":7.0,"max_spring_text":"7-8 (pointes ~9 avancees)","confidence":"low","uncertain":true,"source_url":"https://www.ushervegas.com/strait-of-magellan/","open_source_status":"none","notes":"Aucune source ouverte de courants trouvée (voir README, section 9).","read_at":"2026-09-19","best_source":null,"best_resolution_m":null,"coverage_class":"global","candidates":["FES2014 courants (AVISO) (7000 m)"],"in_objective":false,"status":"unknown"},"geometry":{"type":"Point","coordinates":[-69.5339,-52.4738]}},{"type":"Feature","properties":{"name":"Ponta Torres (Inhaca)","country":"Mozambique","region":"AMERIQUE DU SUD / AFRIQUE","max_spring_kt":1.5,"max_spring_text":"~1.5 (0.75 m/s)","confidence":"low","uncertain":true,"source_url":"https://link.springer.com/article/10.1023/A:1004030605474","open_source_status":"none","notes":"Aucune source ouverte de courants trouvée (voir README, section 9).","read_at":"2026-09-19","best_source":null,"best_resolution_m":null,"coverage_class":"global","candidates":["FES2014 courants (AVISO) (7000 m)"],"in_objective":false,"status":"unknown"},"geometry":{"type":"Point","coordinates":[32.9,-26.0]}}]}