{"type":"FeatureCollection","name":"tidal_world_objective","description":"Zone objectif de couverture pour OhMyWind : là où l'application doit répondre avec une source de courants à 1 km ou mieux partout où le courant tidal dépasse 1,5 kt. Boîtes indicatives, à faire évoluer à la main.","features":[{"type":"Feature","properties":{"name":"Atlantique Nord-Est, Manche, mer du Nord, Islande","priority":1},"geometry":{"type":"Polygon","coordinates":[[[42.0,30.0],[-6.5,30.0],[-6.5,35.5],[-25.0,35.5],[-25.0,67.0],[3.0,67.0],[3.0,71.5],[20.0,71.5],[20.0,66.5],[31.0,66.5],[31.0,53.0],[15.0,53.0],[15.0,47.5],[42.0,47.5],[42.0,30.0]]]}}]}