{"type":"FeatureCollection","generated_at":"2026-09-19T18:09:59+00:00","features":[{"type":"Feature","properties":{"layer":"marc","name":"MARC AQUI 250 m","rank":2,"resolution_m":250},"geometry":{"type":"Polygon","coordinates":[[[-2.1241361054892134,43.490628110664865],[-0.7691652769052635,43.490628110664865],[-0.7691652769052635,46.67103351607416],[-2.1241361054892134,46.67103351607416],[-2.1241361054892134,43.490628110664865]]]}},{"type":"Feature","properties":{"layer":"marc","name":"MARC ATLNE 2000 m","rank":0,"resolution_m":2000},"geometry":{"type":"Polygon","coordinates":[[[-20.02945064077,39.98202683441139],[15.000330885279872,39.98202683441139],[15.000330885279872,64.99103584342137],[-20.02945064077,64.99103584342137],[-20.02945064077,39.98202683441139]]]}},{"type":"Feature","properties":{"layer":"marc","name":"MARC FINIS 250 m","rank":2,"resolution_m":250},"geometry":{"type":"Polygon","coordinates":[[[-5.530473527062703,47.42150464749007],[-3.7640820356384337,47.42150464749007],[-3.7640820356384337,48.94785599884329],[-5.530473527062703,48.94785599884329],[-5.530473527062703,47.42150464749007]]]}},{"type":"Feature","properties":{"layer":"marc","name":"MARC MANE 250 m","rank":2,"resolution_m":250},"geometry":{"type":"Polygon","coordinates":[[[-0.814699172163535,49.30002636666807],[2.5580265663762805,49.30002636666807],[2.5580265663762805,51.195296636940654],[-0.814699172163535,51.195296636940654],[-0.814699172163535,49.30002636666807]]]}},{"type":"Feature","properties":{"layer":"marc","name":"MARC MANGA 700 m","rank":1,"resolution_m":700},"geometry":{"type":"Polygon","coordinates":[[[-5.725559424980528,43.282790902924326],[4.177631589361686,43.282790902924326],[4.177631589361686,52.00441252454678],[-5.725559424980528,52.00441252454678],[-5.725559424980528,43.282790902924326]]]}},{"type":"Feature","properties":{"layer":"marc","name":"MARC MANW 250 m","rank":2,"resolution_m":250},"geometry":{"type":"Polygon","coordinates":[[[-4.020329338465036,48.5843861522515],[-0.6837344088438844,48.5843861522515],[-0.6837344088438844,50.01749426036135],[-4.020329338465036,50.01749426036135],[-4.020329338465036,48.5843861522515]]]}},{"type":"Feature","properties":{"layer":"marc","name":"MARC SUDBZH 250 m","rank":2,"resolution_m":250},"geometry":{"type":"Polygon","coordinates":[[[-4.121288032565239,46.83212260451532],[-2.1076664746475267,46.83212260451532],[-2.1076664746475267,47.83955503694899],[-4.121288032565239,47.83955503694899],[-4.121288032565239,46.83212260451532]]]}},{"type":"Feature","properties":{"name":"SHOM C2D 559 LA_ROCHELLE","layer":"shom","points":651},"geometry":{"type":"Polygon","coordinates":[[[-1.3195500373840332,46.07915115356445],[-1.1098833084106445,46.07915115356445],[-1.1098833084106445,46.17515182495117],[-1.3195500373840332,46.17515182495117],[-1.3195500373840332,46.07915115356445]]]}},{"type":"Feature","properties":{"name":"SHOM C2D 563 PERROS_GUIREC","layer":"shom","points":57},"geometry":{"type":"Polygon","coordinates":[[[-3.4811666011810303,48.803733825683594],[-3.3851499557495117,48.803733825683594],[-3.3851499557495117,48.850399017333984],[-3.4811666011810303,48.850399017333984],[-3.4811666011810303,48.803733825683594]]]}},{"type":"Feature","properties":{"name":"SHOM C2D 557 BOULOGNE","layer":"shom","points":3},"geometry":{"type":"Polygon","coordinates":[[[1.5053333044052124,50.74246597290039],[1.5500500202178955,50.74246597290039],[1.5500500202178955,50.804134368896484],[1.5053333044052124,50.804134368896484],[1.5053333044052124,50.74246597290039]]]}},{"type":"Feature","properties":{"name":"SHOM C2D 558 MORBIHAN","layer":"shom","points":591},"geometry":{"type":"Polygon","coordinates":[[[-2.9825499057769775,47.51580047607422],[-2.7063333988189697,47.51580047607422],[-2.7063333988189697,47.637664794921875],[-2.9825499057769775,47.637664794921875],[-2.9825499057769775,47.51580047607422]]]}},{"type":"Feature","properties":{"name":"SHOM C2D 561 LE_HAVRE","layer":"shom","points":515},"geometry":{"type":"Polygon","coordinates":[[[-0.30916666984558105,49.30123519897461],[0.22633333504199982,49.30123519897461],[0.22633333504199982,49.78459930419922],[-0.30916666984558105,49.78459930419922],[-0.30916666984558105,49.30123519897461]]]}},{"type":"Feature","properties":{"name":"SHOM C2D 561 BARFLEUR","layer":"shom","points":359},"geometry":{"type":"Polygon","coordinates":[[[-1.7653666734695435,49.49056625366211],[-1.062683343887329,49.49056625366211],[-1.062683343887329,49.78725051879883],[-1.7653666734695435,49.78725051879883],[-1.7653666734695435,49.49056625366211]]]}},{"type":"Feature","properties":{"name":"SHOM C2D 565 GASCOGNE","layer":"shom","points":442},"geometry":{"type":"Polygon","coordinates":[[[-7.412533283233643,43.426666259765625],[-1.2790166139602661,43.426666259765625],[-1.2790166139602661,47.826751708984375],[-7.412533283233643,47.826751708984375],[-7.412533283233643,43.426666259765625]]]}},{"type":"Feature","properties":{"name":"SHOM C2D 558 GROIX","layer":"shom","points":602},"geometry":{"type":"Polygon","coordinates":[[[-3.7955665588378906,47.53608322143555],[-3.145550012588501,47.53608322143555],[-3.145550012588501,47.79275131225586],[-3.7955665588378906,47.79275131225586],[-3.7955665588378906,47.53608322143555]]]}},{"type":"Feature","properties":{"name":"SHOM C2D 563 BLOSCON","layer":"shom","points":39},"geometry":{"type":"Polygon","coordinates":[[[-3.967766761779785,48.71620178222656],[-3.9526000022888184,48.71620178222656],[-3.9526000022888184,48.72403335571289],[-3.967766761779785,48.72403335571289],[-3.967766761779785,48.71620178222656]]]}},{"type":"Feature","properties":{"name":"SHOM C2D 563 7ILES_LANNION","layer":"shom","points":351},"geometry":{"type":"Polygon","coordinates":[[[-3.7288832664489746,48.666683197021484],[-3.3613834381103516,48.666683197021484],[-3.3613834381103516,48.954200744628906],[-3.7288832664489746,48.954200744628906],[-3.7288832664489746,48.666683197021484]]]}},{"type":"Feature","properties":{"name":"SHOM C2D 563 MORLAIX","layer":"shom","points":386},"geometry":{"type":"Polygon","coordinates":[[[-3.9721832275390625,48.62168502807617],[-3.838933229446411,48.62168502807617],[-3.838933229446411,48.76118469238281],[-3.9721832275390625,48.76118469238281],[-3.9721832275390625,48.62168502807617]]]}},{"type":"Feature","properties":{"name":"SHOM C2D 562 HAGUE","layer":"shom","points":124},"geometry":{"type":"Polygon","coordinates":[[[-2.3242833614349365,49.54071807861328],[-1.7684333324432373,49.54071807861328],[-1.7684333324432373,49.76573181152344],[-2.3242833614349365,49.76573181152344],[-2.3242833614349365,49.54071807861328]]]}},{"type":"Feature","properties":{"name":"SHOM C2D 563 ROSCOFF","layer":"shom","points":31},"geometry":{"type":"Polygon","coordinates":[[[-3.9839999675750732,48.72283172607422],[-3.9688334465026855,48.72283172607422],[-3.9688334465026855,48.729984283447266],[-3.9839999675750732,48.729984283447266],[-3.9839999675750732,48.72283172607422]]]}},{"type":"Feature","properties":{"name":"SHOM C2D 558 BRETAGNE_SUD","layer":"shom","points":397},"geometry":{"type":"Polygon","coordinates":[[[-4.647916793823242,47.0125846862793],[-2.8680334091186523,47.0125846862793],[-2.8680334091186523,47.747615814208984],[-4.647916793823242,47.747615814208984],[-4.647916793823242,47.0125846862793]]]}},{"type":"Feature","properties":{"name":"SHOM C2D 559 VENDEE_GIRONDE","layer":"shom","points":517},"geometry":{"type":"Polygon","coordinates":[[[-2.9751999378204346,45.26698303222656],[-1.173466682434082,45.26698303222656],[-1.173466682434082,47.0003662109375],[-2.9751999378204346,47.0003662109375],[-2.9751999378204346,45.26698303222656]]]}},{"type":"Feature","properties":{"name":"SHOM C2D 562 GOLFE_NORMAND_BRETON","layer":"shom","points":365},"geometry":{"type":"Polygon","coordinates":[[[-3.1097500324249268,48.7156982421875],[-1.3596999645233154,48.7156982421875],[-1.3596999645233154,50.290748596191406],[-3.1097500324249268,50.290748596191406],[-3.1097500324249268,48.7156982421875]]]}},{"type":"Feature","properties":{"name":"SHOM C2D 560 SEIN","layer":"shom","points":407},"geometry":{"type":"Polygon","coordinates":[[[-4.883716583251953,48.0057487487793],[-4.6571831703186035,48.0057487487793],[-4.6571831703186035,48.09228515625],[-4.883716583251953,48.09228515625],[-4.883716583251953,48.0057487487793]]]}},{"type":"Feature","properties":{"name":"SHOM C2D 562 GRANVILLE","layer":"shom","points":142},"geometry":{"type":"Polygon","coordinates":[[[-2.00136661529541,48.79348373413086],[-1.5763499736785889,48.79348373413086],[-1.5763499736785889,49.460182189941406],[-2.00136661529541,49.460182189941406],[-2.00136661529541,48.79348373413086]]]}},{"type":"Feature","properties":{"name":"SHOM C2D 558 GLENAN","layer":"shom","points":803},"geometry":{"type":"Polygon","coordinates":[[[-4.523416519165039,47.58486557006836],[-3.8077332973480225,47.58486557006836],[-3.8077332973480225,47.90153503417969],[-4.523416519165039,47.90153503417969],[-4.523416519165039,47.58486557006836]]]}},{"type":"Feature","properties":{"name":"SHOM C2D 557 PAS_DE_CALAIS","layer":"shom","points":97},"geometry":{"type":"Polygon","coordinates":[[[1.024999976158142,50.642818450927734],[2.3931167125701904,50.642818450927734],[2.3931167125701904,51.18920135498047],[1.024999976158142,51.18920135498047],[1.024999976158142,50.642818450927734]]]}},{"type":"Feature","properties":{"name":"SHOM C2D 563 BRETAGNE_NORD","layer":"shom","points":403},"geometry":{"type":"Polygon","coordinates":[[[-4.321683406829834,48.661231994628906],[-3.068333387374878,48.661231994628906],[-3.068333387374878,49.14125061035156],[-4.321683406829834,49.14125061035156],[-4.321683406829834,48.661231994628906]]]}},{"type":"Feature","properties":{"name":"SHOM C2D 562 GUERNSEY","layer":"shom","points":69},"geometry":{"type":"Polygon","coordinates":[[[-2.5571999549865723,49.355716705322266],[-2.2484500408172607,49.355716705322266],[-2.2484500408172607,49.4957160949707],[-2.5571999549865723,49.4957160949707],[-2.5571999549865723,49.355716705322266]]]}},{"type":"Feature","properties":{"name":"SHOM C2D 562 BRIEUC","layer":"shom","points":169},"geometry":{"type":"Polygon","coordinates":[[[-2.8448166847229004,48.540584564208984],[-2.43179988861084,48.540584564208984],[-2.43179988861084,48.69091796875],[-2.8448166847229004,48.69091796875],[-2.8448166847229004,48.540584564208984]]]}},{"type":"Feature","properties":{"name":"SHOM C2D 557 DUNKERQUE","layer":"shom","points":11},"geometry":{"type":"Polygon","coordinates":[[[2.095900058746338,51.04719924926758],[2.4186832904815674,51.04719924926758],[2.4186832904815674,51.090816497802734],[2.095900058746338,51.090816497802734],[2.095900058746338,51.04719924926758]]]}},{"type":"Feature","properties":{"name":"SHOM C2D 558 QUIBERON","layer":"shom","points":646},"geometry":{"type":"Polygon","coordinates":[[[-3.161783218383789,47.261531829833984],[-2.4454333782196045,47.261531829833984],[-2.4454333782196045,47.5655517578125],[-3.161783218383789,47.5655517578125],[-3.161783218383789,47.261531829833984]]]}},{"type":"Feature","properties":{"name":"SHOM C2D 564 BAIE_DE_SEINE","layer":"shom","points":394},"geometry":{"type":"Polygon","coordinates":[[[-1.721933364868164,49.31211853027344],[0.396450012922287,49.31211853027344],[0.396450012922287,50.16081619262695],[-1.721933364868164,50.16081619262695],[-1.721933364868164,49.31211853027344]]]}},{"type":"Feature","properties":{"name":"SHOM C2D 564 MANCHE","layer":"shom","points":290},"geometry":{"type":"Polygon","coordinates":[[[-6.421500205993652,47.97948455810547],[2.4586832523345947,47.97948455810547],[2.4586832523345947,51.227684020996094],[-6.421500205993652,51.227684020996094],[-6.421500205993652,47.97948455810547]]]}},{"type":"Feature","properties":{"name":"SHOM C2D 562 SAINT_MALO","layer":"shom","points":251},"geometry":{"type":"Polygon","coordinates":[[[-2.3202333450317383,48.623199462890625],[-1.7610499858856201,48.623199462890625],[-1.7610499858856201,48.74821853637695],[-2.3202333450317383,48.74821853637695],[-2.3202333450317383,48.623199462890625]]]}},{"type":"Feature","properties":{"name":"SHOM C2D 559 GIRONDE","layer":"shom","points":328},"geometry":{"type":"Polygon","coordinates":[[[-1.6330833435058594,45.43185043334961],[-1.0197333097457886,45.43185043334961],[-1.0197333097457886,45.73051834106445],[-1.6330833435058594,45.73051834106445],[-1.6330833435058594,45.43185043334961]]]}},{"type":"Feature","properties":{"name":"SHOM C2D 557 CALAIS","layer":"shom","points":8},"geometry":{"type":"Polygon","coordinates":[[[1.7353333234786987,50.94915008544922],[1.884783387184143,50.94915008544922],[1.884783387184143,51.007484436035156],[1.7353333234786987,51.007484436035156],[1.7353333234786987,50.94915008544922]]]}},{"type":"Feature","properties":{"name":"SHOM C2D 559 PERTUIS_CHARENTAIS","layer":"shom","points":614},"geometry":{"type":"Polygon","coordinates":[[[-1.6926167011260986,45.75508499145508],[-1.068600058555603,45.75508499145508],[-1.068600058555603,46.41510009765625],[-1.6926167011260986,46.41510009765625],[-1.6926167011260986,45.75508499145508]]]}},{"type":"Feature","properties":{"name":"SHOM C2D 560 IROISE","layer":"shom","points":698},"geometry":{"type":"Polygon","coordinates":[[[-5.285299777984619,47.76543426513672],[-4.296450138092041,47.76543426513672],[-4.296450138092041,48.74693298339844],[-5.285299777984619,48.74693298339844],[-5.285299777984619,47.76543426513672]]]}},{"type":"Feature","properties":{"name":"SHOM C2D 561 CHERBOURG","layer":"shom","points":179},"geometry":{"type":"Polygon","coordinates":[[[-1.6830333471298218,49.649898529052734],[-1.5655332803726196,49.649898529052734],[-1.5655332803726196,49.67839813232422],[-1.6830333471298218,49.67839813232422],[-1.6830333471298218,49.649898529052734]]]}},{"type":"Feature","properties":{"name":"SHOM C2D 563 BATZ","layer":"shom","points":614},"geometry":{"type":"Polygon","coordinates":[[[-4.083216667175293,48.708351135253906],[-3.93696665763855,48.708351135253906],[-3.93696665763855,48.7713508605957],[-4.083216667175293,48.7713508605957],[-4.083216667175293,48.708351135253906]]]}},{"type":"Feature","properties":{"name":"SHOM C2D 560 RADE_BREST","layer":"shom","points":499},"geometry":{"type":"Polygon","coordinates":[[[-4.64751672744751,48.268550872802734],[-4.251100063323975,48.268550872802734],[-4.251100063323975,48.41911697387695],[-4.64751672744751,48.41911697387695],[-4.64751672744751,48.268550872802734]]]}},{"type":"Feature","properties":{"name":"SHOM C2D 562 BREHAT","layer":"shom","points":258},"geometry":{"type":"Polygon","coordinates":[[[-3.093600034713745,48.762699127197266],[-2.790250062942505,48.762699127197266],[-2.790250062942505,49.09870147705078],[-3.093600034713745,49.09870147705078],[-3.093600034713745,48.762699127197266]]]}},{"type":"Feature","properties":{"name":"SHOM C2D 563 TREBEURDEN","layer":"shom","points":33},"geometry":{"type":"Polygon","coordinates":[[[-3.6058833599090576,48.76150131225586],[-3.5796332359313965,48.76150131225586],[-3.5796332359313965,48.77316665649414],[-3.6058833599090576,48.77316665649414],[-3.6058833599090576,48.76150131225586]]]}},{"type":"Feature","properties":{"name":"SHOM C2D 560 OUESSANT","layer":"shom","points":559},"geometry":{"type":"Polygon","coordinates":[[[-5.159316539764404,48.26981735229492],[-4.655916690826416,48.26981735229492],[-4.655916690826416,48.55543518066406],[-5.159316539764404,48.55543518066406],[-5.159316539764404,48.26981735229492]]]}},{"type":"Feature","properties":{"name":"SHOM C2D 559 LOIRE_BOURGNEUF","layer":"shom","points":332},"geometry":{"type":"Polygon","coordinates":[[[-2.866650104522705,46.87419891357422],[-2.0002999305725098,46.87419891357422],[-2.0002999305725098,47.310550689697266],[-2.866650104522705,47.310550689697266],[-2.866650104522705,46.87419891357422]]]}},{"type":"Feature","properties":{"name":"SHOM C2D 562 JERSEY","layer":"shom","points":56},"geometry":{"type":"Polygon","coordinates":[[[-2.207750082015991,49.088768005371094],[-1.9148166179656982,49.088768005371094],[-1.9148166179656982,49.22293472290039],[-2.207750082015991,49.22293472290039],[-2.207750082015991,49.088768005371094]]]}},{"type":"Feature","properties":{"layer":"spike","name":"BSH_AUSALT 90 m (spike)","rank":3,"resolution_m":90,"record_hours":119.75,"resolved":["M2","K1","M4","M6"]},"geometry":{"type":"Polygon","coordinates":[[[8.3061,53.850309],[8.749191000000001,53.850309],[8.749191000000001,54.0394],[8.3061,54.0394],[8.3061,53.850309]]]}},{"type":"Feature","properties":{"layer":"spike","name":"BSH_CUXBRU 90 m (spike)","rank":3,"resolution_m":90,"record_hours":119.75,"resolved":["M2","K1","M4","M6"]},"geometry":{"type":"Polygon","coordinates":[[[8.681109,53.821951],[9.24921,53.821951],[9.24921,53.9494],[8.681109,53.9494],[8.681109,53.821951]]]}},{"type":"Feature","properties":{"layer":"spike","name":"BSH_DB 926 m (spike)","rank":1,"resolution_m":926,"record_hours":71.75,"resolved":["M2","K1","M4","M6"]},"geometry":{"type":"Polygon","coordinates":[[[6.1736,53.237596],[9.493071,53.237596],[9.493071,56.445801],[6.1736,56.445801],[6.1736,53.237596]]]}},{"type":"Feature","properties":{"layer":"spike","name":"BSH_IDB 926 m (spike)","rank":1,"resolution_m":926,"record_hours":71.75,"resolved":["M2","K1","M4","M6"]},"geometry":{"type":"Polygon","coordinates":[[[7.756946,53.237596],[8.993067,53.237596],[8.993067,54.245889000000005],[7.756946,54.245889000000005],[7.756946,53.237596]]]}},{"type":"Feature","properties":{"name":"Open-Meteo SMOC 8 km (fallback)","layer":"smoc"},"geometry":{"type":"Polygon","coordinates":[[[-180.0,-80.0],[180.0,-80.0],[180.0,90.0],[-180.0,90.0],[-180.0,-80.0]]]}}]}