{"type":"FeatureCollection","name":"tidal_model_domain","features":[{"type":"Feature","properties":{"kind":"domain","atlases":["NORKYST_FINNMARK"],"source_file":"norkyst_finnmark_20250919.nc","wet_cells":106109,"grid_deg":0.01,"area_deg2":18.56},"geometry":{"type":"MultiPolygon","coordinates":[[[[21.31,69.91],[21.31,69.9],[21.299999999999997,69.9],[21.299999999999997,69.91],[21.31,69.91]]],[[[21.29,69.91],[21.27,69.91],[21.27,69.92],[21.29,69.92],[21.29,69.91]]],[[[26.22,72.97],[26.24,72.97],[26.24,72.96],[26.27,72.96],[26.27,72.95],[26.31,72.95],[26.31,72.94],[26.34,72.94],[26.34,72.93],[26.38,72.93],[26.38,72.92],[26.409999999999997,72.92],[26.409999999999997,72.91],[26.45,72.91],[26.45,72.9],[26.47,72.9],[26.47,72.89],[26.5,72.89],[26.5,72.88],[26.54,72.88],[26.54,72.87],[26.57,72.87],[26.57,72.86],[26.61,72.86],[26.61,72.85],[26.64,72.85],[26.64,72.84],[26.659999999999997,72.84],[26.659999999999997,72.83],[26.689999999999998,72.83],[26.689999999999998,72.82],[26.729999999999997,72.82],[26.729999999999997,72.81],[26.759999999999998,72.81],[26.759999999999998,72.8],[26.799999999999997,72.8],[26.799999999999997,72.79],[26.83,72.79],[26.83,72.78],[26.849999999999998,72.78],[26.849999999999998,72.77],[26.89,72.77],[26.89,72.76],[26.919999999999998,72.76],[26.919999999999998,72.75],[26.959999999999997,72.75],[26.959999999999997,72.74],[26.99,72.74],[26.99,72.73],[27.009999999999998,72.73],[27.009999999999998,72.72],[27.04,72.72],[27.04,72.71],[27.08,72.71],[27.08,72.7],[27.11,72.7],[27.11,72.69],[27.14,72.69],[27.14,72.68],[27.18,72.68],[27.18,72.67],[27.2,72.67],[27.2,72.66],[27.259999999999998,72.65],[27.259999999999998,72.64],[27.299999999999997,72.64],[27.299999999999997,72.63],[27.33,72.63],[27.33,72.62],[27.349999999999998,72.62],[27.349999999999998,72.61],[27.38,72.61],[27.38,72.6],[27.419999999999998,72.6],[27.419999999999998,72.59],[27.45,72.59],[27.45,72.58],[27.49,72.58],[27.5,72.56],[27.54,72.56],[27.54,72.55],[27.599999999999998,72.54],[27.599999999999998,72.53],[27.64,72.53],[27.65,72.51],[27.689999999999998,72.51],[27.689999999999998,72.5],[27.72,72.5],[27.72,72.49],[27.75,72.49],[27.75,72.48],[27.79,72.48],[27.799999999999997,72.46],[27.839999999999996,72.46],[27.839999999999996,72.45],[27.869999999999997,72.45],[27.869999999999997,72.44],[27.909999999999997,72.44],[27.909999999999997,72.43],[27.939999999999998,72.43],[27.939999999999998,72.42],[27.96,72.42],[27.96,72.41],[28.019999999999996,72.4],[28.019999999999996,72.39],[28.049999999999997,72.39],[28.049999999999997,72.38],[28.089999999999996,72.38],[28.099999999999998,72.36],[28.14,72.36],[28.14,72.35],[28.2,72.34],[28.2,72.33],[28.24,72.33],[28.25,72.31],[28.29,72.31],[28.29,72.3],[28.32,72.3],[28.32,72.29],[28.349999999999998,72.29],[28.349999999999998,72.28],[28.38,72.28],[28.38,72.27],[28.4,72.27],[28.4,72.26],[28.43,72.26],[28.43,72.25],[28.47,72.25],[28.47,72.24],[28.5,72.24],[28.509999999999998,72.22],[28.549999999999997,72.22],[28.549999999999997,72.21],[28.58,72.21],[28.58,72.2],[28.61,72.2],[28.61,72.19],[28.64,72.19],[28.64,72.18],[28.659999999999997,72.18],[28.659999999999997,72.17],[28.689999999999998,72.17],[28.689999999999998,72.16],[28.72,72.16],[28.72,72.15],[28.759999999999998,72.15],[28.769999999999996,72.13],[28.81,72.13],[28.81,72.12],[28.839999999999996,72.12],[28.839999999999996,72.11],[28.869999999999997,72.11],[28.869999999999997,72.1],[28.89,72.1],[28.89,72.09],[28.919999999999998,72.09],[28.919999999999998,72.08],[28.95,72.08],[28.95,72.07],[28.979999999999997,72.07],[28.979999999999997,72.06],[29.009999999999998,72.06],[29.009999999999998,72.05],[29.03,72.05],[29.03,72.04],[29.06,72.04],[29.06,72.03],[29.089999999999996,72.03],[29.089999999999996,72.02],[29.119999999999997,72.02],[29.119999999999997,72.01],[29.14,72.01],[29.14,72.0],[29.169999999999998,72.0],[29.169999999999998,71.99],[29.2,71.99],[29.2,71.98],[29.24,71.98],[29.25,71.96],[29.31,71.95],[29.31,71.94],[29.349999999999998,71.94],[29.36,71.92],[29.39,71.92],[29.39,71.91],[29.419999999999998,71.91],[29.419999999999998,71.9],[29.46,71.9],[29.47,71.88],[29.5,71.88],[29.5,71.87],[29.53,71.87],[29.53,71.86],[29.57,71.86],[29.57,71.85],[29.599999999999998,71.85],[29.61,71.83],[29.64,71.83],[29.64,71.82],[29.669999999999998,71.82],[29.669999999999998,71.81],[29.71,71.81],[29.72,71.79],[29.75,71.79],[29.75,71.78],[29.78,71.78],[29.78,71.77],[29.81,71.77],[29.81,71.76],[29.83,71.76],[29.83,71.75],[29.86,71.75],[29.86,71.74],[29.919999999999998,71.73],[29.919999999999998,71.72],[29.939999999999998,71.72],[29.939999999999998,71.71],[30.0,71.7],[30.009999999999998,71.68],[30.04,71.68],[30.04,71.67],[30.07,71.67],[30.07,71.66],[30.11,71.66],[30.119999999999997,71.64],[30.15,71.64],[30.15,71.63],[30.21,71.62],[30.21,71.61],[30.229999999999997,71.61],[30.229999999999997,71.6],[30.29,71.59],[30.29,71.58],[30.32,71.58],[30.33,71.56],[30.36,71.56],[30.36,71.55],[30.419999999999998,71.54],[30.419999999999998,71.53],[30.439999999999998,71.53],[30.439999999999998,71.52],[30.5,71.51],[30.509999999999998,71.49],[30.54,71.49],[30.54,71.48],[30.57,71.48],[30.57,71.47],[30.599999999999998,71.47],[30.599999999999998,71.46],[30.619999999999997,71.46],[30.619999999999997,71.45],[30.65,71.45],[30.65,71.44],[30.71,71.43],[30.72,71.41],[30.75,71.41],[30.75,71.4],[30.78,71.4],[30.78,71.39],[30.799999999999997,71.39],[30.799999999999997,71.38],[30.83,71.38],[30.83,71.37],[30.86,71.37],[30.86,71.36],[30.89,71.36],[30.9,71.34],[30.93,71.34],[30.93,71.33],[30.99,71.32],[31.0,71.3],[31.06,71.29],[31.06,71.28],[31.08,71.28],[31.08,71.27],[31.11,71.27],[31.11,71.26],[31.13,71.26],[31.13,71.25],[31.159999999999997,71.25],[31.159999999999997,71.24],[31.18,71.24],[31.18,71.23],[31.24,71.22],[31.25,71.2],[31.28,71.2],[31.28,71.19],[31.339999999999996,71.18],[31.349999999999998,71.16],[31.409999999999997,71.15],[31.419999999999998,71.13],[31.479999999999997,71.12],[31.479999999999997,71.11],[31.509999999999998,71.11],[31.509999999999998,71.1],[31.549999999999997,71.09],[31.549999999999997,71.08],[31.58,71.08],[31.58,71.07],[31.599999999999998,71.07],[31.599999999999998,71.06],[31.63,71.06],[31.63,71.05],[31.669999999999998,71.04],[31.669999999999998,71.03],[31.7,71.03],[31.7,71.02],[31.729999999999997,71.02],[31.729999999999997,71.01],[31.75,71.01],[31.75,71.0],[31.77,71.0],[31.77,70.99],[31.799999999999997,70.99],[31.799999999999997,70.98],[31.82,70.98],[31.82,70.97],[31.839999999999996,70.97],[31.839999999999996,70.96],[31.9,70.95],[31.9,70.94],[31.939999999999998,70.93],[31.939999999999998,70.92],[31.97,70.92],[31.97,70.91],[32.01,70.9],[32.01,70.89],[32.04,70.89],[32.04,70.88],[32.08,70.87],[32.08,70.86],[32.11,70.86],[32.11,70.85],[32.15,70.84],[32.15,70.83],[32.18,70.83],[32.18,70.82],[32.2,70.82],[32.2,70.81],[32.23,70.81],[32.23,70.8],[32.269999999999996,70.79],[32.269999999999996,70.78],[32.3,70.78],[32.31,70.76],[32.37,70.75],[32.379999999999995,70.73],[32.44,70.72],[32.45,70.7],[32.48,70.7],[32.48,70.69],[32.51,70.69],[32.51,70.68],[32.54,70.68],[32.55,70.66],[32.58,70.66],[32.58,70.65],[32.599999999999994,70.65],[32.599999999999994,70.64],[32.62,70.64],[32.62,70.63],[32.64,70.63],[32.64,70.62],[32.67,70.62],[32.67,70.61],[32.69,70.61],[32.69,70.6],[32.71,70.6],[32.71,70.59],[32.739999999999995,70.59],[32.75,70.57],[32.81,70.56],[32.82,70.54],[32.879999999999995,70.53],[32.89,70.51],[32.92,70.51],[32.92,70.5],[32.9,70.5],[32.9,70.49],[32.839999999999996,70.49],[32.839999999999996,70.48],[32.81,70.48],[32.81,70.47],[32.769999999999996,70.47],[32.769999999999996,70.46],[32.739999999999995,70.46],[32.739999999999995,70.45],[32.7,70.45],[32.7,70.44],[32.65,70.44],[32.65,70.43],[32.61,70.43],[32.61,70.42],[32.58,70.42],[32.58,70.41],[32.54,70.41],[32.54,70.4],[32.51,70.4],[32.51,70.39],[32.46,70.39],[32.46,70.38],[32.379999999999995,70.37],[32.379999999999995,70.36],[32.349999999999994,70.36],[32.349999999999994,70.35],[32.31,70.35],[32.31,70.34],[32.26,70.34],[32.26,70.33],[32.23,70.33],[32.23,70.32],[32.19,70.32],[32.19,70.31],[32.16,70.31],[32.16,70.3],[32.12,70.3],[32.12,70.29],[32.07,70.29],[32.07,70.28],[32.04,70.28],[32.04,70.27],[32.0,70.27],[32.0,70.26],[31.97,70.26],[31.97,70.25],[31.93,70.25],[31.93,70.24],[31.9,70.24],[31.9,70.23],[31.839999999999996,70.23],[31.839999999999996,70.22],[31.81,70.22],[31.81,70.21],[31.77,70.21],[31.77,70.2],[31.74,70.2],[31.74,70.19],[31.71,70.19],[31.71,70.18],[31.669999999999998,70.18],[31.669999999999998,70.17],[31.619999999999997,70.17],[31.619999999999997,70.16],[31.589999999999996,70.16],[31.589999999999996,70.15],[31.549999999999997,70.15],[31.549999999999997,70.14],[31.52,70.14],[31.52,70.13],[31.479999999999997,70.13],[31.479999999999997,70.12],[31.45,70.12],[31.45,70.11],[31.4,70.11],[31.4,70.1],[31.36,70.1],[31.36,70.09],[31.33,70.09],[31.33,70.08],[31.29,70.08],[31.29,70.07],[31.229999999999997,70.06],[31.229999999999997,70.05],[31.189999999999998,70.05],[31.189999999999998,70.04],[31.14,70.04],[31.14,70.03],[31.11,70.03],[31.11,70.02],[31.07,70.02],[31.07,70.01],[31.04,70.01],[31.04,70.0],[31.009999999999998,70.0],[31.009999999999998,69.99],[30.97,69.99],[30.97,69.98],[30.939999999999998,69.98],[30.939999999999998,69.97],[30.9,69.97],[30.9,69.96],[30.849999999999998,69.96],[30.849999999999998,69.95],[30.82,69.95],[30.82,69.94],[30.79,69.94],[30.79,69.93],[30.75,69.93],[30.75,69.92],[30.72,69.92],[30.72,69.91],[30.689999999999998,69.91],[30.689999999999998,69.9],[30.65,69.9],[30.65,69.89],[30.619999999999997,69.89],[30.619999999999997,69.88],[30.57,69.88],[30.57,69.87],[30.53,69.87],[30.53,69.86],[30.5,69.86],[30.5,69.85],[30.47,69.85],[30.47,69.84],[30.43,69.84],[30.43,69.83],[30.4,69.83],[30.4,69.82],[30.38,69.83],[30.38,69.85],[30.33,69.85],[30.33,69.84],[30.29,69.84],[30.29,69.85],[30.299999999999997,69.85],[30.299999999999997,69.88],[30.229999999999997,69.88],[30.229999999999997,69.87],[30.22,69.87],[30.22,69.88],[30.169999999999998,69.88],[30.169999999999998,69.87],[30.14,69.87],[30.14,69.83],[30.159999999999997,69.83],[30.159999999999997,69.82],[30.169999999999998,69.82],[30.169999999999998,69.78],[30.189999999999998,69.78],[30.189999999999998,69.77],[30.159999999999997,69.77],[30.159999999999997,69.76],[30.099999999999998,69.76],[30.099999999999998,69.74],[30.089999999999996,69.74],[30.089999999999996,69.73],[30.049999999999997,69.73],[30.049999999999997,69.75],[30.07,69.75],[30.07,69.78],[30.019999999999996,69.78],[30.019999999999996,69.77],[29.96,69.77],[29.96,69.76],[29.919999999999998,69.76],[29.919999999999998,69.75],[29.9,69.75],[29.89,69.73],[29.88,69.73],[29.88,69.74],[29.659999999999997,69.74],[29.659999999999997,69.72],[29.64,69.72],[29.64,69.71],[29.619999999999997,69.71],[29.619999999999997,69.7],[29.589999999999996,69.7],[29.589999999999996,69.69],[29.56,69.69],[29.549999999999997,69.67],[29.54,69.67],[29.54,69.66],[29.519999999999996,69.66],[29.519999999999996,69.65],[29.509999999999998,69.65],[29.509999999999998,69.66],[29.5,69.66],[29.5,69.67],[29.509999999999998,69.67],[29.509999999999998,69.69],[29.53,69.69],[29.53,69.7],[29.549999999999997,69.7],[29.549999999999997,69.71],[29.599999999999998,69.71],[29.599999999999998,69.73],[29.619999999999997,69.73],[29.619999999999997,69.77],[29.689999999999998,69.77],[29.689999999999998,69.79],[29.729999999999997,69.8],[29.729999999999997,69.81],[29.75,69.82],[29.75,69.85],[29.74,69.85],[29.74,69.86],[29.759999999999998,69.86],[29.759999999999998,69.89],[29.75,69.89],[29.75,69.9],[29.729999999999997,69.9],[29.729999999999997,69.91],[29.669999999999998,69.91],[29.669999999999998,69.9],[29.63,69.9],[29.63,69.91],[29.509999999999998,69.91],[29.5,69.89],[29.46,69.89],[29.46,69.88],[29.45,69.88],[29.45,69.87],[29.43,69.87],[29.43,69.86],[29.36,69.86],[29.369999999999997,69.88],[29.38,69.88],[29.38,69.87],[29.409999999999997,69.87],[29.409999999999997,69.89],[29.47,69.9],[29.47,69.91],[29.49,69.91],[29.49,69.92],[29.509999999999998,69.92],[29.509999999999998,69.93],[29.57,69.93],[29.57,69.94],[29.61,69.94],[29.61,69.97],[29.599999999999998,69.97],[29.599999999999998,69.98],[29.519999999999996,69.98],[29.509999999999998,70.0],[29.439999999999998,70.0],[29.439999999999998,70.01],[29.33,70.01],[29.33,70.02],[29.28,70.02],[29.28,70.01],[29.269999999999996,70.01],[29.269999999999996,70.02],[29.229999999999997,70.02],[29.229999999999997,70.01],[29.13,70.01],[29.13,70.02],[29.14,70.02],[29.14,70.05],[29.119999999999997,70.05],[29.119999999999997,70.06],[29.07,70.06],[29.07,70.05],[29.06,70.05],[29.06,70.06],[28.939999999999998,70.06],[28.939999999999998,70.07],[28.799999999999997,70.07],[28.799999999999997,70.08],[28.759999999999998,70.08],[28.759999999999998,70.09],[28.74,70.09],[28.74,70.11],[28.71,70.11],[28.71,70.1],[28.61,70.1],[28.61,70.11],[28.589999999999996,70.11],[28.58,70.13],[28.659999999999997,70.13],[28.659999999999997,70.16],[28.57,70.16],[28.57,70.17],[28.589999999999996,70.17],[28.589999999999996,70.18],[28.72,70.18],[28.72,70.17],[28.769999999999996,70.17],[28.769999999999996,70.16],[28.86,70.16],[28.86,70.15],[28.9,70.15],[28.9,70.14],[28.99,70.14],[28.99,70.13],[29.049999999999997,70.13],[29.049999999999997,70.12],[29.089999999999996,70.12],[29.089999999999996,70.13],[29.159999999999997,70.13],[29.159999999999997,70.12],[29.299999999999997,70.12],[29.299999999999997,70.11],[29.33,70.11],[29.33,70.1],[29.589999999999996,70.1],[29.589999999999996,70.09],[29.659999999999997,70.09],[29.659999999999997,70.08],[29.72,70.08],[29.72,70.07],[29.89,70.07],[29.89,70.06],[29.96,70.06],[29.96,70.07],[30.019999999999996,70.07],[30.019999999999996,70.08],[30.03,70.08],[30.03,70.07],[30.06,70.07],[30.06,70.08],[30.119999999999997,70.08],[30.119999999999997,70.1],[30.159999999999997,70.1],[30.159999999999997,70.11],[30.169999999999998,70.11],[30.169999999999998,70.1],[30.2,70.1],[30.2,70.11],[30.24,70.11],[30.24,70.12],[30.299999999999997,70.12],[30.299999999999997,70.13],[30.339999999999996,70.13],[30.339999999999996,70.14],[30.36,70.14],[30.36,70.17],[30.349999999999998,70.17],[30.349999999999998,70.19],[30.38,70.19],[30.38,70.2],[30.419999999999998,70.2],[30.419999999999998,70.21],[30.5,70.21],[30.5,70.23],[30.519999999999996,70.23],[30.519999999999996,70.24],[30.549999999999997,70.24],[30.549999999999997,70.25],[30.729999999999997,70.25],[30.729999999999997,70.26],[30.759999999999998,70.26],[30.759999999999998,70.27],[30.769999999999996,70.27],[30.769999999999996,70.26],[30.81,70.26],[30.81,70.27],[30.82,70.27],[30.82,70.26],[30.869999999999997,70.26],[30.869999999999997,70.27],[30.939999999999998,70.27],[30.939999999999998,70.28],[30.99,70.28],[30.99,70.29],[31.0,70.29],[31.0,70.28],[31.04,70.28],[31.04,70.31],[31.049999999999997,70.31],[31.04,70.37],[31.02,70.37],[31.02,70.4],[31.009999999999998,70.4],[31.009999999999998,70.42],[30.99,70.42],[30.99,70.43],[30.97,70.43],[30.97,70.44],[30.95,70.44],[30.95,70.45],[30.83,70.44],[30.83,70.43],[30.79,70.43],[30.79,70.42],[30.78,70.42],[30.78,70.43],[30.74,70.43],[30.74,70.44],[30.72,70.44],[30.72,70.48],[30.7,70.48],[30.7,70.49],[30.64,70.49],[30.64,70.5],[30.599999999999998,70.51],[30.599999999999998,70.52],[30.619999999999997,70.52],[30.619999999999997,70.55],[30.589999999999996,70.55],[30.589999999999996,70.54],[30.519999999999996,70.54],[30.519999999999996,70.55],[30.33,70.55],[30.33,70.54],[30.269999999999996,70.54],[30.269999999999996,70.53],[30.2,70.53],[30.2,70.52],[30.169999999999998,70.52],[30.169999999999998,70.51],[30.13,70.51],[30.13,70.5],[30.119999999999997,70.5],[30.11,70.52],[30.049999999999997,70.52],[30.049999999999997,70.53],[30.089999999999996,70.54],[30.099999999999998,70.56],[30.11,70.56],[30.11,70.55],[30.169999999999998,70.55],[30.169999999999998,70.56],[30.18,70.56],[30.18,70.55],[30.22,70.55],[30.22,70.57],[30.28,70.57],[30.28,70.58],[30.32,70.58],[30.32,70.61],[30.31,70.61],[30.299999999999997,70.63],[30.269999999999996,70.63],[30.269999999999996,70.64],[30.21,70.64],[30.21,70.65],[30.14,70.65],[30.14,70.64],[30.13,70.64],[30.13,70.65],[30.11,70.65],[30.11,70.66],[30.169999999999998,70.66],[30.169999999999998,70.69],[30.13,70.69],[30.13,70.7],[30.099999999999998,70.7],[30.099999999999998,70.71],[30.009999999999998,70.71],[30.009999999999998,70.7],[29.93,70.7],[29.93,70.69],[29.89,70.69],[29.89,70.67],[29.86,70.67],[29.849999999999998,70.65],[29.82,70.65],[29.82,70.64],[29.78,70.64],[29.78,70.63],[29.75,70.63],[29.75,70.62],[29.71,70.62],[29.71,70.63],[29.729999999999997,70.63],[29.729999999999997,70.64],[29.759999999999998,70.64],[29.759999999999998,70.65],[29.79,70.65],[29.79,70.66],[29.799999999999997,70.66],[29.799999999999997,70.69],[29.81,70.69],[29.81,70.73],[29.659999999999997,70.73],[29.659999999999997,70.72],[29.63,70.72],[29.63,70.71],[29.549999999999997,70.71],[29.549999999999997,70.7],[29.54,70.7],[29.54,70.71],[29.509999999999998,70.71],[29.509999999999998,70.7],[29.45,70.7],[29.45,70.69],[29.38,70.69],[29.38,70.68],[29.349999999999998,70.68],[29.349999999999998,70.67],[29.33,70.67],[29.33,70.66],[29.31,70.66],[29.31,70.65],[29.299999999999997,70.65],[29.29,70.67],[29.269999999999996,70.67],[29.269999999999996,70.68],[29.32,70.68],[29.32,70.71],[29.31,70.71],[29.31,70.73],[29.269999999999996,70.73],[29.269999999999996,70.74],[29.29,70.74],[29.29,70.75],[29.349999999999998,70.75],[29.349999999999998,70.76],[29.369999999999997,70.76],[29.369999999999997,70.79],[29.299999999999997,70.79],[29.299999999999997,70.8],[29.269999999999996,70.8],[29.269999999999996,70.83],[29.259999999999998,70.83],[29.259999999999998,70.85],[29.099999999999998,70.85],[29.099999999999998,70.87],[29.0,70.87],[29.0,70.88],[28.919999999999998,70.88],[28.919999999999998,70.89],[28.89,70.89],[28.89,70.88],[28.83,70.88],[28.83,70.87],[28.79,70.87],[28.79,70.86],[28.759999999999998,70.86],[28.759999999999998,70.84],[28.72,70.84],[28.72,70.83],[28.7,70.83],[28.7,70.82],[28.68,70.81],[28.68,70.78],[28.659999999999997,70.78],[28.659999999999997,70.77],[28.64,70.77],[28.64,70.78],[28.61,70.78],[28.61,70.77],[28.58,70.77],[28.58,70.75],[28.54,70.74],[28.54,70.7],[28.57,70.7],[28.57,70.69],[28.61,70.69],[28.61,70.68],[28.63,70.68],[28.63,70.67],[28.599999999999998,70.67],[28.599999999999998,70.68],[28.519999999999996,70.68],[28.519999999999996,70.67],[28.509999999999998,70.67],[28.509999999999998,70.65],[28.49,70.65],[28.49,70.6],[28.45,70.6],[28.45,70.59],[28.43,70.59],[28.43,70.58],[28.419999999999998,70.58],[28.419999999999998,70.54],[28.43,70.54],[28.439999999999998,70.52],[28.46,70.52],[28.46,70.51],[28.53,70.51],[28.53,70.5],[28.509999999999998,70.5],[28.509999999999998,70.46],[28.479999999999997,70.46],[28.479999999999997,70.45],[28.47,70.45],[28.47,70.46],[28.45,70.46],[28.45,70.49],[28.39,70.49],[28.39,70.48],[28.349999999999998,70.48],[28.349999999999998,70.47],[28.33,70.47],[28.33,70.45],[28.32,70.45],[28.32,70.44],[28.28,70.44],[28.28,70.42],[28.24,70.42],[28.24,70.43],[28.259999999999998,70.43],[28.259999999999998,70.45],[28.29,70.45],[28.29,70.47],[28.31,70.47],[28.31,70.5],[28.299999999999997,70.5],[28.299999999999997,70.51],[28.229999999999997,70.51],[28.229999999999997,70.5],[28.21,70.5],[28.21,70.49],[28.18,70.49],[28.18,70.48],[28.15,70.48],[28.15,70.47],[28.11,70.47],[28.11,70.46],[28.08,70.46],[28.08,70.45],[28.06,70.45],[28.049999999999997,70.43],[28.04,70.43],[28.04,70.44],[28.019999999999996,70.44],[28.019999999999996,70.45],[28.04,70.45],[28.04,70.46],[28.06,70.46],[28.06,70.47],[28.08,70.47],[28.08,70.5],[28.04,70.5],[28.04,70.49],[28.009999999999998,70.49],[28.009999999999998,70.48],[28.0,70.48],[28.0,70.49],[27.979999999999997,70.49],[27.979999999999997,70.5],[27.93,70.5],[27.93,70.49],[27.909999999999997,70.49],[27.909999999999997,70.48],[27.88,70.48],[27.88,70.45],[27.869999999999997,70.45],[27.869999999999997,70.44],[27.83,70.44],[27.83,70.46],[27.839999999999996,70.46],[27.839999999999996,70.49],[27.86,70.49],[27.86,70.5],[27.89,70.5],[27.89,70.51],[27.95,70.52],[27.95,70.53],[27.99,70.53],[27.99,70.54],[28.019999999999996,70.54],[28.019999999999996,70.55],[28.089999999999996,70.55],[28.089999999999996,70.56],[28.15,70.57],[28.15,70.58],[28.189999999999998,70.58],[28.189999999999998,70.59],[28.2,70.59],[28.2,70.6],[28.22,70.6],[28.22,70.61],[28.259999999999998,70.61],[28.259999999999998,70.63],[28.28,70.63],[28.28,70.64],[28.29,70.64],[28.29,70.66],[28.31,70.66],[28.31,70.7],[28.299999999999997,70.7],[28.299999999999997,70.72],[28.25,70.72],[28.25,70.71],[28.22,70.71],[28.22,70.7],[28.18,70.7],[28.18,70.69],[28.119999999999997,70.68],[28.119999999999997,70.67],[28.049999999999997,70.67],[28.049999999999997,70.66],[27.97,70.66],[27.97,70.65],[27.9,70.65],[27.9,70.64],[27.869999999999997,70.64],[27.869999999999997,70.63],[27.769999999999996,70.63],[27.769999999999996,70.62],[27.71,70.62],[27.71,70.61],[27.7,70.61],[27.7,70.62],[27.68,70.62],[27.68,70.63],[27.75,70.63],[27.75,70.64],[27.81,70.64],[27.81,70.65],[27.849999999999998,70.65],[27.849999999999998,70.66],[27.909999999999997,70.66],[27.909999999999997,70.67],[27.93,70.67],[27.93,70.68],[27.95,70.68],[27.95,70.69],[28.009999999999998,70.69],[28.009999999999998,70.7],[28.049999999999997,70.7],[28.049999999999997,70.71],[28.08,70.71],[28.08,70.72],[28.11,70.72],[28.11,70.75],[28.04,70.75],[28.04,70.76],[27.99,70.76],[27.99,70.77],[27.839999999999996,70.77],[27.839999999999996,70.76],[27.81,70.76],[27.81,70.75],[27.799999999999997,70.75],[27.799999999999997,70.76],[27.78,70.76],[27.78,70.79],[27.759999999999998,70.79],[27.769999999999996,70.81],[27.78,70.81],[27.78,70.8],[27.81,70.8],[27.81,70.81],[27.82,70.81],[27.82,70.8],[27.95,70.8],[27.95,70.81],[27.979999999999997,70.81],[27.979999999999997,70.82],[27.99,70.82],[27.99,70.81],[28.009999999999998,70.81],[28.009999999999998,70.8],[28.049999999999997,70.8],[28.049999999999997,70.79],[28.08,70.79],[28.08,70.8],[28.14,70.8],[28.14,70.79],[28.25,70.79],[28.25,70.8],[28.29,70.8],[28.29,70.83],[28.33,70.83],[28.33,70.82],[28.36,70.82],[28.36,70.85],[28.409999999999997,70.85],[28.409999999999997,70.88],[28.4,70.88],[28.4,70.89],[28.419999999999998,70.89],[28.419999999999998,70.9],[28.43,70.9],[28.43,70.89],[28.5,70.89],[28.5,70.91],[28.519999999999996,70.91],[28.519999999999996,70.93],[28.54,70.93],[28.54,70.99],[28.47,70.99],[28.47,71.0],[28.409999999999997,71.0],[28.409999999999997,71.01],[28.38,71.01],[28.38,71.0],[28.28,71.0],[28.28,70.98],[28.25,70.98],[28.25,70.97],[28.21,70.97],[28.21,70.96],[28.2,70.96],[28.189999999999998,70.98],[28.22,70.98],[28.22,71.01],[28.2,71.01],[28.2,71.03],[28.21,71.03],[28.21,71.04],[28.25,71.04],[28.25,71.08],[28.24,71.08],[28.229999999999997,71.1],[28.2,71.1],[28.2,71.09],[28.14,71.09],[28.14,71.08],[28.099999999999998,71.07],[28.099999999999998,71.05],[28.06,71.05],[28.06,71.08],[28.019999999999996,71.08],[28.019999999999996,71.07],[28.0,71.07],[28.0,71.06],[27.979999999999997,71.07],[27.979999999999997,71.08],[27.95,71.08],[27.939999999999998,71.06],[27.919999999999998,71.06],[27.919999999999998,71.05],[27.9,71.05],[27.9,71.04],[27.89,71.04],[27.89,71.05],[27.849999999999998,71.05],[27.849999999999998,71.04],[27.83,71.04],[27.83,71.03],[27.82,71.03],[27.82,71.04],[27.79,71.04],[27.79,71.06],[27.759999999999998,71.06],[27.759999999999998,71.05],[27.75,71.05],[27.75,71.06],[27.72,71.06],[27.72,71.11],[27.689999999999998,71.11],[27.689999999999998,71.12],[27.65,71.12],[27.65,71.1],[27.63,71.1],[27.63,71.09],[27.61,71.1],[27.61,71.11],[27.549999999999997,71.11],[27.549999999999997,71.1],[27.519999999999996,71.1],[27.519999999999996,71.09],[27.5,71.09],[27.5,71.07],[27.49,71.07],[27.49,71.04],[27.509999999999998,71.04],[27.509999999999998,71.03],[27.54,71.03],[27.54,71.02],[27.57,71.02],[27.57,71.01],[27.549999999999997,71.01],[27.549999999999997,71.0],[27.54,71.0],[27.54,70.97],[27.549999999999997,70.97],[27.549999999999997,70.96],[27.53,70.96],[27.53,70.95],[27.519999999999996,70.95],[27.519999999999996,70.96],[27.49,70.96],[27.49,71.01],[27.479999999999997,71.01],[27.479999999999997,71.02],[27.39,71.02],[27.39,71.01],[27.38,71.01],[27.38,71.02],[27.349999999999998,71.02],[27.339999999999996,71.04],[27.31,71.04],[27.31,71.03],[27.299999999999997,71.03],[27.299999999999997,71.04],[27.25,71.04],[27.25,71.03],[27.22,71.03],[27.22,71.0],[27.24,71.0],[27.24,70.99],[27.269999999999996,70.99],[27.269999999999996,70.98],[27.29,70.98],[27.299999999999997,70.96],[27.32,70.96],[27.32,70.95],[27.28,70.95],[27.28,70.96],[27.25,70.96],[27.25,70.97],[27.22,70.97],[27.22,70.98],[27.189999999999998,70.98],[27.189999999999998,70.97],[27.18,70.97],[27.18,70.98],[27.13,70.98],[27.13,70.95],[27.11,70.95],[27.11,70.92],[27.14,70.92],[27.15,70.9],[27.18,70.9],[27.18,70.89],[27.21,70.89],[27.21,70.9],[27.22,70.9],[27.22,70.89],[27.269999999999996,70.89],[27.269999999999996,70.9],[27.369999999999997,70.9],[27.369999999999997,70.92],[27.409999999999997,70.92],[27.409999999999997,70.89],[27.439999999999998,70.89],[27.439999999999998,70.88],[27.46,70.88],[27.46,70.87],[27.519999999999996,70.87],[27.519999999999996,70.86],[27.5,70.86],[27.5,70.83],[27.54,70.83],[27.54,70.82],[27.589999999999996,70.82],[27.589999999999996,70.81],[27.61,70.81],[27.61,70.8],[27.57,70.8],[27.57,70.81],[27.49,70.81],[27.49,70.82],[27.46,70.82],[27.46,70.81],[27.45,70.81],[27.45,70.82],[27.39,70.82],[27.39,70.83],[27.29,70.83],[27.29,70.8],[27.269999999999996,70.8],[27.269999999999996,70.77],[27.31,70.77],[27.31,70.76],[27.33,70.76],[27.33,70.74],[27.31,70.74],[27.31,70.73],[27.299999999999997,70.73],[27.299999999999997,70.74],[27.28,70.74],[27.28,70.75],[27.13,70.75],[27.13,70.76],[27.099999999999998,70.76],[27.099999999999998,70.74],[27.08,70.74],[27.08,70.7],[27.13,70.7],[27.14,70.68],[27.089999999999996,70.68],[27.089999999999996,70.67],[27.08,70.67],[27.08,70.64],[27.119999999999997,70.64],[27.119999999999997,70.63],[27.14,70.63],[27.14,70.62],[27.2,70.62],[27.2,70.61],[27.229999999999997,70.61],[27.24,70.59],[27.2,70.59],[27.2,70.6],[27.11,70.6],[27.11,70.61],[27.06,70.61],[27.06,70.62],[27.019999999999996,70.62],[27.009999999999998,70.6],[26.97,70.6],[26.97,70.57],[27.0,70.57],[26.99,70.55],[26.979999999999997,70.55],[26.979999999999997,70.52],[27.0,70.52],[27.0,70.51],[27.009999999999998,70.51],[27.009999999999998,70.49],[27.07,70.49],[27.06,70.47],[27.049999999999997,70.47],[27.049999999999997,70.48],[26.99,70.48],[26.979999999999997,70.46],[26.959999999999997,70.46],[26.959999999999997,70.45],[26.95,70.45],[26.95,70.46],[26.919999999999998,70.46],[26.919999999999998,70.48],[26.759999999999998,70.48],[26.759999999999998,70.45],[26.74,70.44],[26.74,70.42],[26.7,70.42],[26.7,70.41],[26.689999999999998,70.41],[26.689999999999998,70.42],[26.619999999999997,70.42],[26.619999999999997,70.39],[26.64,70.39],[26.64,70.38],[26.54,70.38],[26.529999999999998,70.36],[26.509999999999998,70.36],[26.509999999999998,70.35],[26.5,70.35],[26.49,70.37],[26.5,70.37],[26.5,70.38],[26.52,70.38],[26.52,70.44],[26.54,70.44],[26.54,70.46],[26.56,70.46],[26.56,70.53],[26.59,70.53],[26.59,70.54],[26.61,70.54],[26.61,70.59],[26.63,70.59],[26.619999999999997,70.65],[26.599999999999998,70.65],[26.599999999999998,70.66],[26.54,70.66],[26.54,70.67],[26.49,70.67],[26.49,70.66],[26.419999999999998,70.66],[26.419999999999998,70.65],[26.36,70.65],[26.36,70.64],[26.349999999999998,70.64],[26.349999999999998,70.65],[26.33,70.65],[26.33,70.66],[26.4,70.66],[26.4,70.68],[26.409999999999997,70.68],[26.409999999999997,70.69],[26.419999999999998,70.69],[26.419999999999998,70.68],[26.459999999999997,70.68],[26.459999999999997,70.69],[26.479999999999997,70.69],[26.479999999999997,70.7],[26.49,70.7],[26.49,70.69],[26.529999999999998,70.69],[26.54,70.71],[26.58,70.71],[26.58,70.72],[26.64,70.72],[26.64,70.74],[26.68,70.74],[26.68,70.79],[26.709999999999997,70.79],[26.709999999999997,70.83],[26.68,70.83],[26.68,70.84],[26.669999999999998,70.84],[26.669999999999998,70.87],[26.7,70.87],[26.7,70.89],[26.709999999999997,70.89],[26.709999999999997,70.92],[26.689999999999998,70.92],[26.689999999999998,70.97],[26.659999999999997,70.97],[26.659999999999997,70.96],[26.619999999999997,70.96],[26.619999999999997,70.95],[26.529999999999998,70.95],[26.529999999999998,70.94],[26.49,70.94],[26.49,70.92],[26.43,70.91],[26.419999999999998,70.89],[26.39,70.89],[26.39,70.88],[26.36,70.88],[26.36,70.87],[26.34,70.87],[26.33,70.85],[26.31,70.85],[26.31,70.83],[26.279999999999998,70.83],[26.279999999999998,70.82],[26.24,70.82],[26.24,70.8],[26.22,70.8],[26.209999999999997,70.78],[26.18,70.78],[26.18,70.77],[26.169999999999998,70.77],[26.169999999999998,70.78],[26.14,70.78],[26.14,70.75],[26.119999999999997,70.74],[26.119999999999997,70.72],[26.099999999999998,70.72],[26.099999999999998,70.73],[26.04,70.73],[26.04,70.69],[26.029999999999998,70.69],[26.029999999999998,70.67],[26.009999999999998,70.67],[26.009999999999998,70.65],[25.99,70.65],[25.99,70.64],[25.97,70.63],[25.97,70.6],[25.939999999999998,70.6],[25.93,70.58],[25.909999999999997,70.58],[25.909999999999997,70.57],[25.849999999999998,70.57],[25.849999999999998,70.56],[25.83,70.56],[25.83,70.55],[25.81,70.55],[25.81,70.54],[25.779999999999998,70.54],[25.779999999999998,70.52],[25.72,70.51],[25.72,70.5],[25.7,70.5],[25.7,70.49],[25.669999999999998,70.49],[25.669999999999998,70.46],[25.64,70.46],[25.64,70.45],[25.619999999999997,70.45],[25.619999999999997,70.44],[25.599999999999998,70.44],[25.59,70.42],[25.57,70.42],[25.56,70.4],[25.54,70.4],[25.54,70.39],[25.509999999999998,70.39],[25.509999999999998,70.38],[25.49,70.38],[25.49,70.37],[25.459999999999997,70.37],[25.459999999999997,70.36],[25.439999999999998,70.36],[25.439999999999998,70.35],[25.43,70.35],[25.43,70.32],[25.439999999999998,70.32],[25.439999999999998,70.31],[25.5,70.31],[25.5,70.32],[25.509999999999998,70.32],[25.509999999999998,70.31],[25.52,70.31],[25.52,70.3],[25.509999999999998,70.3],[25.509999999999998,70.28],[25.5,70.28],[25.5,70.27],[25.47,70.27],[25.47,70.26],[25.439999999999998,70.26],[25.439999999999998,70.25],[25.409999999999997,70.25],[25.409999999999997,70.22],[25.39,70.22],[25.38,70.2],[25.349999999999998,70.2],[25.349999999999998,70.19],[25.33,70.19],[25.33,70.18],[25.299999999999997,70.18],[25.299999999999997,70.17],[25.279999999999998,70.17],[25.279999999999998,70.16],[25.27,70.16],[25.27,70.14],[25.25,70.14],[25.25,70.13],[25.24,70.13],[25.24,70.09],[25.22,70.09],[25.22,70.08],[25.159999999999997,70.08],[25.159999999999997,70.07],[25.13,70.07],[25.13,70.06],[25.119999999999997,70.06],[25.119999999999997,70.07],[25.09,70.07],[25.09,70.09],[25.07,70.09],[25.07,70.13],[25.06,70.13],[25.06,70.15],[25.04,70.15],[25.04,70.16],[25.0,70.16],[25.0,70.14],[24.99,70.14],[24.99,70.09],[25.02,70.09],[25.02,70.08],[25.04,70.08],[25.04,70.07],[25.02,70.07],[25.02,70.06],[25.0,70.06],[25.0,70.05],[24.99,70.05],[24.99,70.06],[24.979999999999997,70.06],[24.979999999999997,70.08],[24.9,70.08],[24.9,70.09],[24.919999999999998,70.09],[24.919999999999998,70.15],[24.93,70.15],[24.93,70.19],[24.95,70.19],[24.95,70.24],[25.009999999999998,70.24],[25.009999999999998,70.25],[25.04,70.25],[25.04,70.26],[25.099999999999998,70.26],[25.099999999999998,70.27],[25.119999999999997,70.27],[25.119999999999997,70.28],[25.14,70.28],[25.14,70.29],[25.18,70.29],[25.18,70.33],[25.11,70.33],[25.11,70.32],[25.07,70.32],[25.07,70.33],[25.09,70.33],[25.09,70.37],[25.119999999999997,70.37],[25.119999999999997,70.38],[25.14,70.38],[25.14,70.4],[25.2,70.41],[25.2,70.43],[25.229999999999997,70.43],[25.229999999999997,70.48],[25.15,70.48],[25.15,70.47],[25.11,70.47],[25.11,70.48],[25.09,70.48],[25.09,70.53],[25.119999999999997,70.53],[25.119999999999997,70.54],[25.189999999999998,70.54],[25.189999999999998,70.55],[25.22,70.55],[25.22,70.56],[25.25,70.56],[25.25,70.57],[25.259999999999998,70.57],[25.259999999999998,70.59],[25.299999999999997,70.59],[25.299999999999997,70.6],[25.33,70.6],[25.33,70.61],[25.36,70.61],[25.36,70.62],[25.38,70.62],[25.38,70.63],[25.39,70.63],[25.39,70.65],[25.43,70.65],[25.43,70.67],[25.49,70.67],[25.49,70.68],[25.52,70.68],[25.52,70.7],[25.54,70.7],[25.54,70.71],[25.59,70.71],[25.59,70.72],[25.599999999999998,70.72],[25.599999999999998,70.76],[25.64,70.77],[25.64,70.78],[25.759999999999998,70.78],[25.759999999999998,70.79],[25.77,70.79],[25.77,70.81],[25.779999999999998,70.81],[25.779999999999998,70.83],[25.82,70.83],[25.82,70.84],[25.849999999999998,70.84],[25.849999999999998,70.9],[25.759999999999998,70.9],[25.759999999999998,70.88],[25.74,70.87],[25.74,70.88],[25.72,70.88],[25.72,70.89],[25.7,70.89],[25.7,70.91],[25.599999999999998,70.91],[25.599999999999998,70.9],[25.57,70.9],[25.57,70.89],[25.549999999999997,70.89],[25.54,70.87],[25.47,70.87],[25.47,70.85],[25.45,70.84],[25.45,70.85],[25.409999999999997,70.85],[25.409999999999997,70.86],[25.43,70.86],[25.43,70.87],[25.45,70.87],[25.45,70.88],[25.479999999999997,70.88],[25.479999999999997,70.89],[25.509999999999998,70.89],[25.509999999999998,70.9],[25.529999999999998,70.9],[25.529999999999998,70.93],[25.5,70.93],[25.5,70.94],[25.459999999999997,70.94],[25.45,70.96],[25.419999999999998,70.96],[25.419999999999998,70.97],[25.38,70.97],[25.38,70.98],[25.31,70.98],[25.31,70.94],[25.33,70.94],[25.33,70.93],[25.36,70.93],[25.36,70.92],[25.38,70.92],[25.38,70.91],[25.39,70.91],[25.39,70.88],[25.38,70.88],[25.38,70.87],[25.36,70.87],[25.36,70.82],[25.32,70.82],[25.32,70.84],[25.29,70.84],[25.29,70.81],[25.25,70.81],[25.25,70.87],[25.24,70.87],[25.24,70.89],[25.22,70.89],[25.22,70.9],[25.169999999999998,70.9],[25.159999999999997,70.92],[25.09,70.92],[25.09,70.91],[25.049999999999997,70.91],[25.04,70.89],[25.02,70.89],[25.02,70.87],[24.95,70.87],[24.95,70.88],[24.93,70.88],[24.93,70.89],[24.959999999999997,70.89],[24.959999999999997,70.9],[24.99,70.9],[24.99,70.92],[25.029999999999998,70.92],[25.029999999999998,70.93],[25.04,70.93],[25.04,70.97],[25.029999999999998,70.97],[25.029999999999998,70.98],[25.0,70.98],[25.0,70.97],[24.959999999999997,70.97],[24.959999999999997,70.95],[24.939999999999998,70.95],[24.939999999999998,70.92],[24.919999999999998,70.92],[24.919999999999998,70.91],[24.909999999999997,70.91],[24.909999999999997,70.92],[24.86,70.92],[24.86,70.91],[24.849999999999998,70.91],[24.849999999999998,70.92],[24.83,70.92],[24.83,70.95],[24.799999999999997,70.95],[24.799999999999997,70.97],[24.779999999999998,70.97],[24.779999999999998,70.99],[24.75,70.99],[24.75,70.98],[24.709999999999997,70.98],[24.709999999999997,70.97],[24.7,70.97],[24.7,70.98],[24.689999999999998,70.98],[24.689999999999998,71.0],[24.63,71.0],[24.619999999999997,70.98],[24.57,70.98],[24.57,70.96],[24.549999999999997,70.96],[24.549999999999997,70.92],[24.59,70.92],[24.59,70.9],[24.619999999999997,70.9],[24.619999999999997,70.89],[24.68,70.89],[24.68,70.88],[24.7,70.88],[24.7,70.87],[24.659999999999997,70.87],[24.659999999999997,70.88],[24.63,70.88],[24.63,70.87],[24.59,70.87],[24.59,70.84],[24.599999999999998,70.84],[24.599999999999998,70.82],[24.64,70.82],[24.64,70.8],[24.619999999999997,70.8],[24.619999999999997,70.79],[24.58,70.79],[24.58,70.8],[24.549999999999997,70.8],[24.549999999999997,70.81],[24.509999999999998,70.81],[24.509999999999998,70.82],[24.45,70.82],[24.45,70.84],[24.419999999999998,70.84],[24.419999999999998,70.85],[24.4,70.85],[24.4,70.88],[24.34,70.88],[24.33,70.86],[24.27,70.85],[24.27,70.82],[24.279999999999998,70.82],[24.279999999999998,70.81],[24.27,70.81],[24.27,70.77],[24.33,70.77],[24.33,70.76],[24.349999999999998,70.76],[24.349999999999998,70.75],[24.52,70.75],[24.52,70.74],[24.54,70.74],[24.54,70.72],[24.56,70.72],[24.56,70.71],[24.619999999999997,70.71],[24.619999999999997,70.68],[24.64,70.68],[24.64,70.66],[24.669999999999998,70.66],[24.669999999999998,70.65],[24.689999999999998,70.65],[24.689999999999998,70.64],[24.7,70.64],[24.689999999999998,70.62],[24.659999999999997,70.62],[24.659999999999997,70.61],[24.65,70.61],[24.65,70.62],[24.61,70.62],[24.61,70.63],[24.58,70.63],[24.58,70.65],[24.549999999999997,70.65],[24.549999999999997,70.66],[24.479999999999997,70.66],[24.479999999999997,70.68],[24.439999999999998,70.68],[24.439999999999998,70.69],[24.299999999999997,70.69],[24.29,70.67],[24.27,70.67],[24.27,70.66],[24.24,70.66],[24.24,70.61],[24.209999999999997,70.61],[24.209999999999997,70.6],[24.189999999999998,70.6],[24.18,70.58],[24.159999999999997,70.58],[24.159999999999997,70.57],[24.13,70.57],[24.13,70.56],[24.119999999999997,70.56],[24.119999999999997,70.53],[24.18,70.53],[24.18,70.52],[24.25,70.52],[24.25,70.51],[24.259999999999998,70.51],[24.259999999999998,70.49],[24.29,70.49],[24.29,70.48],[24.31,70.48],[24.31,70.47],[24.33,70.47],[24.33,70.46],[24.31,70.46],[24.31,70.45],[24.29,70.46],[24.29,70.47],[24.27,70.47],[24.27,70.48],[24.209999999999997,70.48],[24.209999999999997,70.49],[24.18,70.49],[24.18,70.48],[24.169999999999998,70.48],[24.169999999999998,70.49],[24.08,70.49],[24.08,70.51],[23.9,70.5],[23.9,70.49],[23.84,70.49],[23.84,70.48],[23.83,70.48],[23.83,70.49],[23.799999999999997,70.49],[23.79,70.47],[23.77,70.47],[23.77,70.46],[23.759999999999998,70.46],[23.759999999999998,70.44],[23.729999999999997,70.44],[23.729999999999997,70.43],[23.669999999999998,70.43],[23.669999999999998,70.42],[23.65,70.42],[23.64,70.4],[23.58,70.4],[23.58,70.38],[23.56,70.38],[23.56,70.37],[23.529999999999998,70.37],[23.529999999999998,70.36],[23.5,70.36],[23.5,70.35],[23.47,70.35],[23.47,70.31],[23.49,70.31],[23.5,70.29],[23.529999999999998,70.29],[23.529999999999998,70.3],[23.57,70.3],[23.58,70.28],[23.38,70.28],[23.38,70.25],[23.45,70.25],[23.45,70.24],[23.43,70.24],[23.43,70.23],[23.38,70.23],[23.38,70.22],[23.22,70.22],[23.22,70.19],[23.31,70.19],[23.31,70.18],[23.33,70.18],[23.33,70.17],[23.299999999999997,70.17],[23.299999999999997,70.14],[23.36,70.13],[23.36,70.12],[23.38,70.12],[23.38,70.11],[23.349999999999998,70.11],[23.349999999999998,70.1],[23.25,70.1],[23.25,70.11],[23.22,70.11],[23.22,70.1],[23.189999999999998,70.1],[23.189999999999998,70.09],[23.169999999999998,70.09],[23.169999999999998,70.06],[23.2,70.06],[23.2,70.05],[23.229999999999997,70.05],[23.229999999999997,70.04],[23.29,70.04],[23.29,70.03],[23.32,70.03],[23.32,70.02],[23.38,70.02],[23.38,70.03],[23.45,70.03],[23.45,70.02],[23.509999999999998,70.02],[23.5,70.0],[23.479999999999997,70.0],[23.47,69.98],[23.409999999999997,69.98],[23.409999999999997,69.97],[23.4,69.97],[23.4,69.98],[23.299999999999997,69.98],[23.299999999999997,69.99],[23.25,69.99],[23.25,69.97],[23.24,69.97],[23.24,69.96],[23.209999999999997,69.96],[23.209999999999997,69.95],[23.15,69.95],[23.15,69.94],[23.119999999999997,69.94],[23.119999999999997,69.93],[23.11,69.93],[23.11,69.94],[23.08,69.94],[23.08,69.95],[23.089999999999996,69.95],[23.089999999999996,70.01],[23.08,70.01],[23.08,70.03],[23.029999999999998,70.03],[23.029999999999998,70.02],[23.02,70.02],[23.02,70.03],[22.99,70.03],[22.99,70.04],[22.97,70.04],[22.97,70.05],[22.979999999999997,70.05],[22.979999999999997,70.09],[23.0,70.09],[23.0,70.13],[22.99,70.13],[22.99,70.14],[22.939999999999998,70.14],[22.93,70.12],[22.9,70.12],[22.9,70.11],[22.869999999999997,70.11],[22.869999999999997,70.1],[22.84,70.1],[22.84,70.09],[22.72,70.09],[22.72,70.08],[22.7,70.08],[22.7,70.07],[22.58,70.07],[22.58,70.06],[22.439999999999998,70.06],[22.439999999999998,70.05],[22.369999999999997,70.05],[22.38,70.07],[22.43,70.07],[22.43,70.08],[22.459999999999997,70.08],[22.459999999999997,70.09],[22.47,70.09],[22.47,70.08],[22.61,70.08],[22.61,70.09],[22.7,70.09],[22.7,70.1],[22.75,70.1],[22.75,70.11],[22.83,70.11],[22.84,70.13],[22.9,70.14],[22.9,70.16],[22.909999999999997,70.16],[22.909999999999997,70.17],[22.919999999999998,70.17],[22.919999999999998,70.16],[22.95,70.16],[22.95,70.17],[22.959999999999997,70.17],[22.959999999999997,70.2],[22.83,70.2],[22.83,70.21],[22.709999999999997,70.21],[22.709999999999997,70.22],[22.619999999999997,70.22],[22.619999999999997,70.21],[22.61,70.21],[22.599999999999998,70.23],[22.52,70.23],[22.52,70.24],[22.479999999999997,70.24],[22.479999999999997,70.25],[22.45,70.25],[22.45,70.26],[22.409999999999997,70.26],[22.409999999999997,70.25],[22.349999999999998,70.25],[22.349999999999998,70.23],[22.33,70.23],[22.33,70.15],[22.36,70.15],[22.36,70.16],[22.4,70.16],[22.4,70.15],[22.459999999999997,70.15],[22.459999999999997,70.14],[22.52,70.13],[22.509999999999998,70.11],[22.5,70.11],[22.5,70.12],[22.47,70.12],[22.47,70.13],[22.22,70.13],[22.229999999999997,70.15],[22.24,70.15],[22.24,70.18],[22.259999999999998,70.18],[22.259999999999998,70.19],[22.27,70.19],[22.27,70.22],[22.25,70.22],[22.25,70.23],[22.27,70.23],[22.27,70.24],[22.279999999999998,70.24],[22.279999999999998,70.28],[22.209999999999997,70.28],[22.209999999999997,70.29],[22.13,70.29],[22.13,70.27],[22.119999999999997,70.27],[22.119999999999997,70.24],[22.08,70.24],[22.08,70.27],[22.07,70.27],[22.07,70.28],[22.099999999999998,70.28],[22.099999999999998,70.31],[22.029999999999998,70.31],[22.029999999999998,70.3],[21.99,70.3],[21.99,70.33],[21.93,70.33],[21.93,70.32],[21.889999999999997,70.31],[21.889999999999997,70.3],[21.86,70.3],[21.86,70.28],[21.83,70.28],[21.83,70.27],[21.79,70.27],[21.79,70.23],[21.83,70.22],[21.83,70.21],[21.82,70.21],[21.82,70.18],[21.849999999999998,70.18],[21.849999999999998,70.17],[21.869999999999997,70.17],[21.869999999999997,70.16],[21.79,70.17],[21.79,70.19],[21.77,70.19],[21.77,70.21],[21.75,70.21],[21.75,70.22],[21.72,70.22],[21.72,70.24],[21.689999999999998,70.24],[21.689999999999998,70.25],[21.65,70.25],[21.65,70.26],[21.59,70.27],[21.59,70.28],[21.57,70.28],[21.57,70.29],[21.549999999999997,70.29],[21.549999999999997,70.31],[21.49,70.31],[21.49,70.24],[21.479999999999997,70.24],[21.479999999999997,70.21],[21.5,70.21],[21.5,70.2],[21.459999999999997,70.2],[21.459999999999997,70.22],[21.43,70.22],[21.43,70.23],[21.419999999999998,70.23],[21.419999999999998,70.27],[21.369999999999997,70.27],[21.369999999999997,70.26],[21.36,70.26],[21.36,70.27],[21.33,70.27],[21.33,70.26],[21.29,70.26],[21.29,70.25],[21.259999999999998,70.25],[21.259999999999998,70.24],[21.2,70.24],[21.2,70.21],[21.22,70.21],[21.22,70.2],[21.259999999999998,70.2],[21.259999999999998,70.17],[21.279999999999998,70.17],[21.279999999999998,70.16],[21.409999999999997,70.16],[21.409999999999997,70.17],[21.479999999999997,70.17],[21.479999999999997,70.16],[21.439999999999998,70.15],[21.439999999999998,70.1],[21.47,70.1],[21.47,70.09],[21.509999999999998,70.09],[21.509999999999998,70.1],[21.57,70.1],[21.57,70.11],[21.58,70.11],[21.58,70.1],[21.599999999999998,70.1],[21.599999999999998,70.08],[21.619999999999997,70.08],[21.619999999999997,70.07],[21.68,70.07],[21.68,70.06],[21.709999999999997,70.06],[21.709999999999997,70.05],[21.74,70.05],[21.74,70.06],[21.81,70.06],[21.81,70.08],[21.959999999999997,70.08],[21.959999999999997,70.09],[21.99,70.09],[21.99,70.1],[22.009999999999998,70.1],[22.009999999999998,70.11],[22.04,70.11],[22.04,70.12],[22.049999999999997,70.12],[22.06,70.1],[22.029999999999998,70.1],[22.02,70.08],[21.99,70.08],[21.99,70.07],[21.959999999999997,70.07],[21.959999999999997,70.06],[21.84,70.06],[21.84,70.05],[21.82,70.05],[21.82,70.02],[21.84,70.02],[21.84,70.01],[21.869999999999997,70.01],[21.869999999999997,70.02],[21.97,70.02],[21.97,70.03],[22.029999999999998,70.03],[22.029999999999998,70.04],[22.04,70.04],[22.04,70.03],[22.06,70.03],[22.06,70.02],[22.029999999999998,70.02],[22.029999999999998,69.98],[22.049999999999997,69.98],[22.049999999999997,69.96],[22.04,69.96],[22.04,69.94],[22.029999999999998,69.94],[22.029999999999998,69.93],[22.02,69.93],[22.02,69.94],[22.0,69.94],[22.0,69.96],[22.009999999999998,69.96],[22.009999999999998,69.99],[21.9,69.99],[21.9,69.95],[21.88,69.94],[21.88,69.89],[21.9,69.89],[21.909999999999997,69.87],[21.979999999999997,69.87],[21.979999999999997,69.86],[22.009999999999998,69.86],[22.009999999999998,69.85],[22.02,69.85],[22.02,69.84],[21.97,69.84],[21.97,69.81],[22.0,69.81],[22.0,69.8],[22.029999999999998,69.8],[22.029999999999998,69.79],[22.06,69.79],[22.06,69.78],[22.08,69.78],[22.08,69.77],[21.99,69.77],[21.99,69.76],[21.979999999999997,69.76],[21.979999999999997,69.77],[21.95,69.77],[21.95,69.78],[21.93,69.78],[21.93,69.79],[21.909999999999997,69.79],[21.909999999999997,69.81],[21.88,69.81],[21.88,69.83],[21.86,69.83],[21.849999999999998,69.85],[21.81,69.85],[21.81,69.87],[21.779999999999998,69.87],[21.779999999999998,69.88],[21.72,69.88],[21.72,69.89],[21.65,69.89],[21.65,69.9],[21.59,69.91],[21.59,69.92],[21.57,69.92],[21.57,69.95],[21.549999999999997,69.95],[21.549999999999997,69.96],[21.52,69.96],[21.52,69.99],[21.5,69.99],[21.5,70.0],[21.47,70.0],[21.47,70.01],[21.389999999999997,70.01],[21.389999999999997,70.02],[21.27,70.02],[21.27,70.01],[21.22,70.01],[21.22,69.98],[21.209999999999997,69.98],[21.2,69.94],[21.169999999999998,69.94],[21.169999999999998,69.95],[21.139999999999997,69.95],[21.139999999999997,69.96],[21.099999999999998,69.96],[21.099999999999998,69.97],[21.07,69.97],[21.07,69.98],[21.049999999999997,69.98],[21.049999999999997,70.0],[21.0,70.0],[21.0,69.99],[20.99,69.99],[20.99,70.0],[20.97,70.0],[20.97,70.01],[20.979999999999997,70.01],[20.979999999999997,70.04],[20.939999999999998,70.04],[20.93,70.02],[20.889999999999997,70.02],[20.889999999999997,70.03],[20.86,70.03],[20.86,70.04],[20.82,70.04],[20.81,70.06],[20.77,70.07],[20.77,70.08],[20.75,70.08],[20.75,70.13],[20.759999999999998,70.13],[20.759999999999998,70.14],[20.77,70.14],[20.779999999999998,70.16],[20.799999999999997,70.16],[20.799999999999997,70.18],[20.81,70.18],[20.81,70.21],[20.79,70.21],[20.79,70.22],[20.77,70.22],[20.77,70.23],[20.72,70.23],[20.72,70.24],[20.669999999999998,70.24],[20.669999999999998,70.23],[20.529999999999998,70.23],[20.529999999999998,70.22],[20.52,70.22],[20.52,70.19],[20.43,70.19],[20.43,70.18],[20.4,70.18],[20.4,70.17],[20.369999999999997,70.17],[20.369999999999997,70.18],[20.31,70.19],[20.31,70.2],[20.27,70.2],[20.27,70.21],[20.24,70.21],[20.24,70.23],[20.25,70.23],[20.25,70.24],[20.27,70.24],[20.27,70.27],[20.24,70.27],[20.24,70.3],[20.2,70.3],[20.2,70.31],[20.169999999999998,70.31],[20.169999999999998,70.28],[20.189999999999998,70.28],[20.189999999999998,70.25],[20.2,70.25],[20.2,70.23],[20.169999999999998,70.23],[20.169999999999998,70.24],[20.139999999999997,70.24],[20.139999999999997,70.25],[20.11,70.25],[20.11,70.26],[20.07,70.26],[20.07,70.27],[20.04,70.27],[20.04,70.28],[20.0,70.28],[20.0,70.29],[19.95,70.29],[19.95,70.3],[19.919999999999998,70.3],[19.919999999999998,70.31],[19.889999999999997,70.31],[19.889999999999997,70.32],[19.849999999999998,70.32],[19.849999999999998,70.33],[19.82,70.33],[19.82,70.34],[19.779999999999998,70.34],[19.779999999999998,70.35],[19.75,70.35],[19.75,70.36],[19.72,70.36],[19.72,70.37],[19.68,70.37],[19.68,70.38],[19.65,70.38],[19.65,70.39],[19.61,70.39],[19.61,70.4],[19.56,70.4],[19.56,70.41],[19.529999999999998,70.41],[19.529999999999998,70.42],[19.49,70.42],[19.49,70.43],[19.459999999999997,70.43],[19.459999999999997,70.44],[19.419999999999998,70.44],[19.419999999999998,70.45],[19.36,70.46],[19.36,70.47],[19.319999999999997,70.47],[19.319999999999997,70.48],[19.29,70.48],[19.29,70.49],[19.229999999999997,70.49],[19.229999999999997,70.5],[19.2,70.5],[19.2,70.51],[19.16,70.51],[19.16,70.52],[19.13,70.52],[19.13,70.53],[19.099999999999998,70.53],[19.099999999999998,70.54],[19.06,70.54],[19.069999999999997,70.56],[19.13,70.57],[19.13,70.58],[19.15,70.58],[19.15,70.59],[19.169999999999998,70.59],[19.169999999999998,70.6],[19.2,70.6],[19.2,70.61],[19.22,70.61],[19.22,70.62],[19.24,70.62],[19.24,70.63],[19.299999999999997,70.64],[19.299999999999997,70.65],[19.34,70.66],[19.34,70.67],[19.4,70.68],[19.4,70.69],[19.419999999999998,70.69],[19.419999999999998,70.7],[19.439999999999998,70.7],[19.439999999999998,70.71],[19.47,70.71],[19.47,70.72],[19.49,70.72],[19.49,70.73],[19.549999999999997,70.74],[19.549999999999997,70.75],[19.569999999999997,70.75],[19.569999999999997,70.76],[19.59,70.76],[19.59,70.77],[19.65,70.78],[19.65,70.79],[19.68,70.79],[19.689999999999998,70.81],[19.72,70.81],[19.72,70.82],[19.75,70.82],[19.75,70.83],[19.779999999999998,70.83],[19.79,70.85],[19.82,70.85],[19.82,70.86],[19.849999999999998,70.86],[19.849999999999998,70.87],[19.88,70.87],[19.889999999999997,70.89],[19.919999999999998,70.89],[19.919999999999998,70.9],[19.979999999999997,70.91],[19.979999999999997,70.92],[20.0,70.92],[20.0,70.93],[20.06,70.94],[20.06,70.95],[20.099999999999998,70.96],[20.099999999999998,70.97],[20.13,70.97],[20.13,70.98],[20.189999999999998,70.99],[20.2,71.01],[20.259999999999998,71.02],[20.259999999999998,71.03],[20.29,71.03],[20.29,71.04],[20.31,71.04],[20.31,71.05],[20.34,71.05],[20.34,71.06],[20.369999999999997,71.06],[20.369999999999997,71.07],[20.4,71.07],[20.409999999999997,71.09],[20.439999999999998,71.09],[20.439999999999998,71.1],[20.47,71.1],[20.47,71.11],[20.5,71.11],[20.5,71.12],[20.52,71.12],[20.52,71.13],[20.58,71.14],[20.58,71.15],[20.61,71.15],[20.619999999999997,71.17],[20.65,71.17],[20.65,71.18],[20.709999999999997,71.19],[20.709999999999997,71.2],[20.729999999999997,71.2],[20.729999999999997,71.21],[20.759999999999998,71.21],[20.759999999999998,71.22],[20.79,71.22],[20.79,71.23],[20.849999999999998,71.24],[20.86,71.26],[20.919999999999998,71.27],[20.919999999999998,71.28],[20.959999999999997,71.28],[20.97,71.3],[21.0,71.3],[21.0,71.31],[21.06,71.32],[21.06,71.33],[21.08,71.33],[21.08,71.34],[21.139999999999997,71.35],[21.139999999999997,71.36],[21.169999999999998,71.36],[21.169999999999998,71.37],[21.2,71.37],[21.2,71.38],[21.22,71.38],[21.22,71.39],[21.25,71.39],[21.25,71.4],[21.279999999999998,71.4],[21.279999999999998,71.41],[21.31,71.41],[21.32,71.43],[21.36,71.43],[21.36,71.44],[21.389999999999997,71.44],[21.389999999999997,71.45],[21.45,71.46],[21.459999999999997,71.48],[21.5,71.48],[21.5,71.49],[21.529999999999998,71.49],[21.529999999999998,71.5],[21.56,71.5],[21.57,71.52],[21.61,71.52],[21.61,71.53],[21.639999999999997,71.53],[21.639999999999997,71.54],[21.7,71.55],[21.709999999999997,71.57],[21.75,71.57],[21.75,71.58],[21.779999999999998,71.58],[21.779999999999998,71.59],[21.84,71.6],[21.84,71.61],[21.86,71.61],[21.86,71.62],[21.889999999999997,71.62],[21.889999999999997,71.63],[21.919999999999998,71.63],[21.919999999999998,71.64],[21.95,71.64],[21.95,71.65],[21.979999999999997,71.65],[21.979999999999997,71.66],[22.0,71.66],[22.0,71.67],[22.029999999999998,71.67],[22.029999999999998,71.68],[22.06,71.68],[22.06,71.69],[22.099999999999998,71.69],[22.099999999999998,71.7],[22.13,71.7],[22.139999999999997,71.72],[22.18,71.72],[22.18,71.73],[22.24,71.74],[22.24,71.75],[22.27,71.75],[22.27,71.76],[22.29,71.76],[22.29,71.77],[22.349999999999998,71.78],[22.349999999999998,71.79],[22.38,71.79],[22.38,71.8],[22.419999999999998,71.8],[22.43,71.82],[22.47,71.82],[22.47,71.83],[22.5,71.83],[22.5,71.84],[22.56,71.85],[22.56,71.86],[22.58,71.86],[22.58,71.87],[22.61,71.87],[22.61,71.88],[22.639999999999997,71.88],[22.639999999999997,71.89],[22.68,71.89],[22.68,71.9],[22.74,71.91],[22.74,71.92],[22.759999999999998,71.92],[22.759999999999998,71.93],[22.82,71.94],[22.82,71.95],[22.86,71.95],[22.86,71.96],[22.889999999999997,71.96],[22.889999999999997,71.97],[22.909999999999997,71.97],[22.909999999999997,71.98],[22.97,71.99],[22.97,72.0],[23.009999999999998,72.0],[23.009999999999998,72.01],[23.04,72.01],[23.04,72.02],[23.07,72.02],[23.07,72.03],[23.089999999999996,72.03],[23.089999999999996,72.04],[23.119999999999997,72.04],[23.119999999999997,72.05],[23.159999999999997,72.05],[23.159999999999997,72.06],[23.22,72.07],[23.22,72.08],[23.259999999999998,72.08],[23.27,72.1],[23.31,72.1],[23.31,72.11],[23.34,72.11],[23.34,72.12],[23.369999999999997,72.12],[23.369999999999997,72.13],[23.409999999999997,72.13],[23.409999999999997,72.14],[23.439999999999998,72.14],[23.439999999999998,72.15],[23.459999999999997,72.15],[23.459999999999997,72.16],[23.49,72.16],[23.49,72.17],[23.52,72.17],[23.52,72.18],[23.56,72.18],[23.56,72.19],[23.59,72.19],[23.59,72.2],[23.619999999999997,72.2],[23.619999999999997,72.21],[23.64,72.21],[23.64,72.22],[23.68,72.22],[23.68,72.23],[23.74,72.24],[23.74,72.25],[23.779999999999998,72.25],[23.779999999999998,72.26],[23.81,72.26],[23.81,72.27],[23.83,72.27],[23.83,72.28],[23.86,72.28],[23.86,72.29],[23.9,72.29],[23.9,72.3],[23.93,72.3],[23.93,72.31],[23.97,72.31],[23.97,72.32],[24.0,72.32],[24.0,72.33],[24.029999999999998,72.33],[24.029999999999998,72.34],[24.049999999999997,72.34],[24.049999999999997,72.35],[24.09,72.35],[24.09,72.36],[24.119999999999997,72.36],[24.119999999999997,72.37],[24.15,72.37],[24.15,72.38],[24.189999999999998,72.38],[24.189999999999998,72.39],[24.22,72.39],[24.22,72.4],[24.259999999999998,72.4],[24.259999999999998,72.41],[24.279999999999998,72.41],[24.279999999999998,72.42],[24.31,72.42],[24.31,72.43],[24.34,72.43],[24.34,72.44],[24.38,72.44],[24.38,72.45],[24.409999999999997,72.45],[24.409999999999997,72.46],[24.45,72.46],[24.45,72.47],[24.479999999999997,72.47],[24.479999999999997,72.48],[24.5,72.48],[24.5,72.49],[24.54,72.49],[24.54,72.5],[24.57,72.5],[24.57,72.51],[24.61,72.51],[24.61,72.52],[24.64,72.52],[24.64,72.53],[24.68,72.53],[24.68,72.54],[24.709999999999997,72.54],[24.709999999999997,72.55],[24.75,72.55],[24.759999999999998,72.57],[24.84,72.58],[24.84,72.59],[24.869999999999997,72.59],[24.869999999999997,72.6],[24.909999999999997,72.6],[24.909999999999997,72.61],[24.939999999999998,72.61],[24.939999999999998,72.62],[24.979999999999997,72.62],[24.979999999999997,72.63],[25.009999999999998,72.63],[25.009999999999998,72.64],[25.049999999999997,72.64],[25.049999999999997,72.65],[25.07,72.65],[25.07,72.66],[25.099999999999998,72.66],[25.099999999999998,72.67],[25.14,72.67],[25.14,72.68],[25.169999999999998,72.68],[25.169999999999998,72.69],[25.209999999999997,72.69],[25.209999999999997,72.7],[25.24,72.7],[25.24,72.71],[25.279999999999998,72.71],[25.279999999999998,72.72],[25.32,72.72],[25.32,72.73],[25.349999999999998,72.73],[25.349999999999998,72.74],[25.369999999999997,72.74],[25.369999999999997,72.75],[25.409999999999997,72.75],[25.409999999999997,72.76],[25.439999999999998,72.76],[25.439999999999998,72.77],[25.479999999999997,72.77],[25.479999999999997,72.78],[25.52,72.78],[25.52,72.79],[25.549999999999997,72.79],[25.549999999999997,72.8],[25.59,72.8],[25.59,72.81],[25.619999999999997,72.81],[25.619999999999997,72.82],[25.7,72.83],[25.709999999999997,72.85],[25.75,72.85],[25.75,72.86],[25.79,72.86],[25.79,72.87],[25.82,72.87],[25.82,72.88],[25.86,72.88],[25.86,72.89],[25.9,72.89],[25.9,72.9],[25.93,72.9],[25.93,72.91],[26.009999999999998,72.92],[26.009999999999998,72.93],[26.04,72.93],[26.04,72.94],[26.08,72.94],[26.08,72.95],[26.099999999999998,72.95],[26.099999999999998,72.96],[26.14,72.96],[26.14,72.97],[26.169999999999998,72.97],[26.169999999999998,72.98],[26.22,72.98],[26.22,72.97]],[[25.659999999999997,71.12],[25.669999999999998,71.1],[25.689999999999998,71.1],[25.689999999999998,71.09],[25.72,71.09],[25.72,71.08],[25.74,71.08],[25.74,71.07],[25.659999999999997,71.08],[25.659999999999997,71.09],[25.57,71.09],[25.57,71.11],[25.459999999999997,71.11],[25.45,71.09],[25.439999999999998,71.09],[25.439999999999998,71.1],[25.349999999999998,71.1],[25.349999999999998,71.09],[25.34,71.09],[25.34,71.1],[25.31,71.1],[25.31,71.09],[25.299999999999997,71.09],[25.299999999999997,71.07],[25.279999999999998,71.07],[25.279999999999998,71.06],[25.25,71.06],[25.25,71.02],[25.279999999999998,71.02],[25.279999999999998,71.01],[25.369999999999997,71.01],[25.369999999999997,71.02],[25.43,71.02],[25.43,71.03],[25.54,71.03],[25.54,71.02],[25.52,71.02],[25.52,71.01],[25.459999999999997,71.01],[25.459999999999997,70.98],[25.47,70.98],[25.47,70.96],[25.49,70.96],[25.49,70.95],[25.52,70.95],[25.52,70.94],[25.549999999999997,70.94],[25.549999999999997,70.93],[25.58,70.93],[25.58,70.94],[25.64,70.94],[25.64,70.95],[25.65,70.95],[25.65,70.94],[25.709999999999997,70.94],[25.709999999999997,70.97],[25.72,70.97],[25.72,70.99],[25.77,70.99],[25.77,70.97],[25.84,70.97],[25.84,70.98],[25.849999999999998,70.98],[25.849999999999998,70.97],[25.93,70.97],[25.93,70.98],[25.939999999999998,70.98],[25.939999999999998,71.01],[25.9,71.01],[25.9,71.02],[25.909999999999997,71.02],[25.909999999999997,71.05],[25.869999999999997,71.05],[25.86,71.07],[25.919999999999998,71.07],[25.919999999999998,71.08],[25.93,71.08],[25.93,71.07],[25.959999999999997,71.07],[25.959999999999997,71.08],[25.99,71.08],[25.99,71.09],[26.009999999999998,71.09],[26.009999999999998,71.1],[26.02,71.1],[26.02,71.13],[25.939999999999998,71.13],[25.939999999999998,71.12],[25.93,71.12],[25.93,71.13],[25.9,71.13],[25.89,71.11],[25.869999999999997,71.11],[25.869999999999997,71.1],[25.86,71.1],[25.86,71.11],[25.84,71.11],[25.84,71.12],[25.81,71.12],[25.81,71.11],[25.759999999999998,71.11],[25.759999999999998,71.12],[25.799999999999997,71.13],[25.799999999999997,71.17],[25.729999999999997,71.17],[25.729999999999997,71.16],[25.68,71.16],[25.68,71.17],[25.59,71.17],[25.59,71.12],[25.659999999999997,71.12]],[[24.729999999999997,71.08],[24.729999999999997,71.07],[24.72,71.07],[24.72,71.08],[24.689999999999998,71.08],[24.689999999999998,71.09],[24.65,71.09],[24.65,71.08],[24.63,71.08],[24.63,71.04],[24.7,71.04],[24.7,71.03],[24.779999999999998,71.03],[24.779999999999998,71.1],[24.77,71.1],[24.77,71.11],[24.74,71.11],[24.74,71.08],[24.729999999999997,71.08]],[[26.11,71.05],[26.11,71.04],[26.09,71.04],[26.08,71.02],[26.04,71.02],[26.04,71.01],[25.979999999999997,71.01],[25.979999999999997,70.97],[26.029999999999998,70.97],[26.029999999999998,70.98],[26.06,70.98],[26.06,70.99],[26.07,70.99],[26.07,70.98],[26.099999999999998,70.98],[26.099999999999998,70.99],[26.13,70.99],[26.13,71.0],[26.159999999999997,71.0],[26.159999999999997,71.01],[26.2,71.01],[26.2,71.02],[26.229999999999997,71.02],[26.229999999999997,71.05],[26.169999999999998,71.05],[26.169999999999998,71.06],[26.11,71.05]],[[23.919999999999998,71.03],[23.919999999999998,71.01],[23.9,71.01],[23.9,70.98],[23.919999999999998,70.98],[23.919999999999998,70.95],[23.939999999999998,70.95],[23.939999999999998,70.93],[23.97,70.93],[23.97,70.92],[24.09,70.92],[24.09,70.93],[24.189999999999998,70.93],[24.189999999999998,70.94],[24.22,70.94],[24.22,70.98],[24.189999999999998,70.98],[24.18,70.96],[24.169999999999998,70.96],[24.169999999999998,70.97],[24.08,70.97],[24.08,70.96],[24.07,70.96],[24.06,70.98],[24.09,70.98],[24.09,71.01],[24.06,71.01],[24.06,71.0],[24.049999999999997,71.0],[24.049999999999997,71.01],[24.04,71.01],[24.04,71.03],[23.99,71.03],[23.99,71.04],[23.959999999999997,71.04],[23.959999999999997,71.03],[23.919999999999998,71.03]],[[24.959999999999997,71.01],[24.959999999999997,71.0],[25.029999999999998,71.0],[25.029999999999998,71.03],[25.009999999999998,71.03],[25.009999999999998,71.04],[24.939999999999998,71.04],[24.939999999999998,71.01],[24.959999999999997,71.01]],[[23.299999999999997,70.85],[23.299999999999997,70.82],[23.32,70.82],[23.32,70.79],[23.31,70.79],[23.31,70.77],[23.259999999999998,70.77],[23.259999999999998,70.79],[23.229999999999997,70.79],[23.229999999999997,70.81],[23.189999999999998,70.81],[23.189999999999998,70.8],[23.169999999999998,70.8],[23.169999999999998,70.79],[23.159999999999997,70.79],[23.159999999999997,70.8],[23.13,70.8],[23.13,70.81],[23.08,70.81],[23.08,70.8],[23.07,70.8],[23.07,70.77],[23.099999999999998,70.77],[23.099999999999998,70.76],[23.119999999999997,70.76],[23.13,70.74],[23.099999999999998,70.74],[23.099999999999998,70.72],[23.04,70.72],[23.04,70.69],[23.0,70.69],[23.0,70.66],[22.95,70.66],[22.95,70.68],[22.919999999999998,70.68],[22.919999999999998,70.69],[22.9,70.69],[22.9,70.7],[22.93,70.7],[22.93,70.73],[22.88,70.73],[22.88,70.72],[22.869999999999997,70.72],[22.869999999999997,70.73],[22.849999999999998,70.73],[22.849999999999998,70.75],[22.81,70.75],[22.81,70.74],[22.799999999999997,70.74],[22.79,70.76],[22.709999999999997,70.76],[22.709999999999997,70.75],[22.7,70.75],[22.7,70.72],[22.74,70.71],[22.75,70.69],[22.77,70.68],[22.77,70.67],[22.79,70.67],[22.79,70.66],[22.82,70.66],[22.81,70.64],[22.799999999999997,70.64],[22.799999999999997,70.65],[22.729999999999997,70.65],[22.729999999999997,70.62],[22.689999999999998,70.62],[22.689999999999998,70.66],[22.659999999999997,70.66],[22.659999999999997,70.65],[22.619999999999997,70.65],[22.619999999999997,70.64],[22.599999999999998,70.64],[22.599999999999998,70.63],[22.59,70.63],[22.59,70.64],[22.57,70.64],[22.57,70.66],[22.63,70.67],[22.63,70.7],[22.57,70.7],[22.57,70.71],[22.549999999999997,70.71],[22.549999999999997,70.72],[22.509999999999998,70.72],[22.509999999999998,70.71],[22.479999999999997,70.71],[22.479999999999997,70.68],[22.5,70.68],[22.5,70.67],[22.459999999999997,70.67],[22.459999999999997,70.68],[22.419999999999998,70.69],[22.409999999999997,70.71],[22.369999999999997,70.71],[22.369999999999997,70.7],[22.36,70.7],[22.36,70.67],[22.38,70.66],[22.38,70.64],[22.409999999999997,70.64],[22.409999999999997,70.63],[22.389999999999997,70.62],[22.389999999999997,70.63],[22.349999999999998,70.63],[22.349999999999998,70.64],[22.32,70.64],[22.32,70.65],[22.29,70.65],[22.29,70.66],[22.229999999999997,70.66],[22.229999999999997,70.64],[22.22,70.64],[22.22,70.61],[22.29,70.61],[22.299999999999997,70.59],[22.25,70.59],[22.25,70.56],[22.259999999999998,70.56],[22.259999999999998,70.55],[22.139999999999997,70.53],[22.139999999999997,70.52],[22.13,70.52],[22.13,70.47],[22.169999999999998,70.47],[22.169999999999998,70.48],[22.2,70.48],[22.2,70.49],[22.209999999999997,70.49],[22.209999999999997,70.48],[22.24,70.48],[22.24,70.52],[22.279999999999998,70.52],[22.279999999999998,70.51],[22.29,70.51],[22.29,70.49],[22.36,70.49],[22.369999999999997,70.51],[22.409999999999997,70.51],[22.409999999999997,70.49],[22.45,70.49],[22.45,70.52],[22.459999999999997,70.52],[22.459999999999997,70.53],[22.47,70.53],[22.47,70.52],[22.49,70.52],[22.49,70.51],[22.509999999999998,70.51],[22.509999999999998,70.5],[22.58,70.5],[22.58,70.51],[22.619999999999997,70.51],[22.619999999999997,70.54],[22.63,70.54],[22.63,70.55],[22.68,70.55],[22.68,70.53],[22.709999999999997,70.53],[22.709999999999997,70.54],[22.729999999999997,70.54],[22.729999999999997,70.55],[22.74,70.55],[22.74,70.54],[22.759999999999998,70.54],[22.759999999999998,70.52],[22.889999999999997,70.52],[22.889999999999997,70.53],[22.919999999999998,70.53],[22.919999999999998,70.56],[22.889999999999997,70.56],[22.9,70.58],[22.909999999999997,70.58],[22.909999999999997,70.57],[22.939999999999998,70.57],[22.939999999999998,70.56],[22.97,70.56],[22.97,70.57],[22.99,70.57],[22.99,70.59],[23.009999999999998,70.59],[23.009999999999998,70.6],[23.02,70.6],[23.02,70.59],[23.04,70.59],[23.04,70.57],[23.07,70.57],[23.07,70.59],[23.089999999999996,70.59],[23.089999999999996,70.62],[23.07,70.62],[23.07,70.63],[23.15,70.63],[23.15,70.64],[23.159999999999997,70.64],[23.159999999999997,70.68],[23.14,70.68],[23.14,70.69],[23.189999999999998,70.69],[23.189999999999998,70.68],[23.25,70.68],[23.25,70.7],[23.27,70.7],[23.27,70.71],[23.32,70.71],[23.32,70.74],[23.39,70.74],[23.39,70.76],[23.409999999999997,70.76],[23.419999999999998,70.78],[23.439999999999998,70.78],[23.439999999999998,70.79],[23.45,70.79],[23.45,70.82],[23.439999999999998,70.82],[23.439999999999998,70.83],[23.369999999999997,70.83],[23.369999999999997,70.85],[23.34,70.85],[23.34,70.87],[23.31,70.87],[23.31,70.85],[23.299999999999997,70.85]],[[27.2,70.78],[27.2,70.81],[27.169999999999998,70.81],[27.169999999999998,70.78],[27.2,70.78]],[[23.659999999999997,70.74],[23.659999999999997,70.72],[23.63,70.72],[23.63,70.68],[23.669999999999998,70.67],[23.669999999999998,70.63],[23.65,70.63],[23.65,70.6],[23.669999999999998,70.6],[23.669999999999998,70.58],[23.689999999999998,70.58],[23.689999999999998,70.55],[23.72,70.55],[23.72,70.53],[23.74,70.53],[23.74,70.52],[23.759999999999998,70.52],[23.759999999999998,70.51],[23.939999999999998,70.51],[23.939999999999998,70.52],[24.0,70.52],[24.0,70.53],[24.009999999999998,70.53],[24.009999999999998,70.56],[24.04,70.56],[24.04,70.57],[24.08,70.57],[24.08,70.58],[24.14,70.59],[24.14,70.63],[24.099999999999998,70.64],[24.099999999999998,70.65],[24.09,70.65],[24.09,70.67],[24.07,70.67],[24.07,70.68],[24.049999999999997,70.68],[24.049999999999997,70.69],[24.009999999999998,70.69],[24.009999999999998,70.7],[23.909999999999997,70.7],[23.909999999999997,70.71],[23.849999999999998,70.71],[23.849999999999998,70.7],[23.81,70.7],[23.81,70.71],[23.83,70.71],[23.83,70.74],[23.81,70.74],[23.81,70.75],[23.72,70.75],[23.72,70.74],[23.659999999999997,70.74]],[[25.79,70.7],[25.79,70.67],[25.869999999999997,70.67],[25.869999999999997,70.71],[25.82,70.71],[25.82,70.7],[25.79,70.7]],[[21.979999999999997,70.63],[21.979999999999997,70.66],[21.95,70.66],[21.95,70.63],[21.979999999999997,70.63]],[[22.029999999999998,70.62],[22.029999999999998,70.59],[22.08,70.59],[22.08,70.58],[22.11,70.58],[22.11,70.59],[22.169999999999998,70.6],[22.169999999999998,70.61],[22.209999999999997,70.61],[22.209999999999997,70.64],[22.13,70.63],[22.13,70.65],[22.049999999999997,70.65],[22.049999999999997,70.62],[22.029999999999998,70.62]],[[23.419999999999998,70.6],[23.419999999999998,70.63],[23.369999999999997,70.63],[23.369999999999997,70.6],[23.419999999999998,70.6]],[[23.45,70.6],[23.45,70.58],[23.47,70.58],[23.47,70.57],[23.45,70.57],[23.45,70.56],[23.39,70.56],[23.39,70.53],[23.349999999999998,70.53],[23.349999999999998,70.54],[23.32,70.54],[23.32,70.55],[23.259999999999998,70.55],[23.259999999999998,70.52],[23.279999999999998,70.52],[23.279999999999998,70.48],[23.27,70.48],[23.27,70.47],[23.25,70.47],[23.25,70.46],[23.229999999999997,70.47],[23.229999999999997,70.48],[23.24,70.48],[23.24,70.52],[23.22,70.52],[23.22,70.54],[23.189999999999998,70.54],[23.189999999999998,70.51],[23.159999999999997,70.51],[23.159999999999997,70.5],[23.15,70.5],[23.15,70.51],[23.029999999999998,70.51],[23.029999999999998,70.5],[23.0,70.5],[23.0,70.49],[22.979999999999997,70.49],[22.979999999999997,70.48],[22.95,70.48],[22.95,70.46],[22.889999999999997,70.46],[22.889999999999997,70.45],[22.86,70.45],[22.86,70.42],[22.9,70.42],[22.9,70.41],[22.93,70.41],[22.93,70.4],[22.909999999999997,70.4],[22.909999999999997,70.39],[22.9,70.39],[22.9,70.36],[22.93,70.36],[22.93,70.35],[22.97,70.35],[22.97,70.34],[23.02,70.34],[23.02,70.35],[23.049999999999997,70.35],[23.049999999999997,70.36],[23.08,70.36],[23.08,70.37],[23.089999999999996,70.37],[23.089999999999996,70.36],[23.11,70.36],[23.11,70.35],[23.049999999999997,70.34],[23.049999999999997,70.29],[23.08,70.29],[23.08,70.28],[23.119999999999997,70.28],[23.119999999999997,70.27],[23.2,70.27],[23.209999999999997,70.29],[23.22,70.29],[23.22,70.28],[23.25,70.28],[23.25,70.29],[23.279999999999998,70.29],[23.279999999999998,70.3],[23.34,70.3],[23.34,70.33],[23.29,70.33],[23.299999999999997,70.35],[23.31,70.35],[23.31,70.34],[23.349999999999998,70.34],[23.349999999999998,70.35],[23.43,70.35],[23.43,70.36],[23.439999999999998,70.36],[23.439999999999998,70.39],[23.529999999999998,70.39],[23.529999999999998,70.4],[23.549999999999997,70.4],[23.549999999999997,70.41],[23.58,70.41],[23.58,70.43],[23.64,70.43],[23.64,70.46],[23.619999999999997,70.46],[23.619999999999997,70.5],[23.599999999999998,70.5],[23.599999999999998,70.51],[23.54,70.51],[23.54,70.54],[23.549999999999997,70.54],[23.549999999999997,70.56],[23.57,70.56],[23.57,70.57],[23.58,70.57],[23.58,70.6],[23.549999999999997,70.6],[23.549999999999997,70.61],[23.52,70.61],[23.52,70.62],[23.479999999999997,70.62],[23.479999999999997,70.63],[23.43,70.63],[23.43,70.6],[23.45,70.6]],[[25.189999999999998,70.52],[25.189999999999998,70.49],[25.25,70.5],[25.25,70.53],[25.209999999999997,70.53],[25.209999999999997,70.52],[25.189999999999998,70.52]],[[25.25,70.38],[25.25,70.41],[25.22,70.41],[25.22,70.38],[25.25,70.38]],[[22.59,70.38],[22.59,70.37],[22.56,70.37],[22.56,70.36],[22.459999999999997,70.37],[22.459999999999997,70.35],[22.349999999999998,70.35],[22.349999999999998,70.32],[22.38,70.32],[22.38,70.3],[22.409999999999997,70.3],[22.409999999999997,70.29],[22.47,70.29],[22.47,70.28],[22.54,70.28],[22.54,70.27],[22.57,70.27],[22.57,70.26],[22.659999999999997,70.26],[22.659999999999997,70.25],[22.959999999999997,70.25],[22.959999999999997,70.24],[23.0,70.24],[23.0,70.28],[22.959999999999997,70.29],[22.95,70.31],[22.939999999999998,70.31],[22.939999999999998,70.32],[22.909999999999997,70.32],[22.909999999999997,70.31],[22.9,70.31],[22.9,70.32],[22.88,70.32],[22.88,70.34],[22.84,70.34],[22.84,70.33],[22.799999999999997,70.33],[22.799999999999997,70.34],[22.779999999999998,70.34],[22.779999999999998,70.35],[22.799999999999997,70.35],[22.799999999999997,70.38],[22.779999999999998,70.38],[22.779999999999998,70.39],[22.74,70.39],[22.74,70.38],[22.729999999999997,70.38],[22.729999999999997,70.36],[22.709999999999997,70.36],[22.709999999999997,70.35],[22.689999999999998,70.36],[22.689999999999998,70.39],[22.65,70.39],[22.65,70.38],[22.59,70.38]],[[21.4,70.37],[21.4,70.33],[21.45,70.33],[21.45,70.37],[21.439999999999998,70.37],[21.439999999999998,70.38],[21.409999999999997,70.38],[21.409999999999997,70.37],[21.4,70.37]],[[21.7,70.37],[21.7,70.33],[21.689999999999998,70.33],[21.689999999999998,70.31],[21.68,70.31],[21.68,70.27],[21.689999999999998,70.27],[21.689999999999998,70.26],[21.729999999999997,70.26],[21.729999999999997,70.27],[21.759999999999998,70.27],[21.759999999999998,70.29],[21.779999999999998,70.3],[21.779999999999998,70.32],[21.799999999999997,70.32],[21.799999999999997,70.33],[21.81,70.33],[21.81,70.36],[21.79,70.36],[21.79,70.37],[21.759999999999998,70.37],[21.759999999999998,70.38],[21.709999999999997,70.38],[21.709999999999997,70.37],[21.7,70.37]],[[25.32,70.25],[25.32,70.26],[25.34,70.26],[25.34,70.29],[25.29,70.29],[25.29,70.25],[25.32,70.25]],[[23.36,70.24],[23.36,70.27],[23.33,70.27],[23.33,70.24],[23.36,70.24]],[[20.799999999999997,70.14],[20.799999999999997,70.13],[20.79,70.13],[20.79,70.08],[20.81,70.08],[20.81,70.07],[20.88,70.07],[20.88,70.08],[20.909999999999997,70.08],[20.909999999999997,70.11],[20.889999999999997,70.11],[20.889999999999997,70.12],[20.88,70.12],[20.88,70.14],[20.849999999999998,70.14],[20.849999999999998,70.15],[20.81,70.15],[20.81,70.14],[20.799999999999997,70.14]],[[21.65,70.01],[21.65,70.0],[21.709999999999997,69.99],[21.709999999999997,70.02],[21.689999999999998,70.02],[21.68,70.04],[21.59,70.04],[21.59,70.01],[21.65,70.01]],[[29.799999999999997,69.9],[29.799999999999997,69.86],[29.81,69.86],[29.81,69.84],[29.82,69.84],[29.82,69.83],[29.799999999999997,69.83],[29.79,69.81],[29.769999999999996,69.81],[29.769999999999996,69.8],[29.729999999999997,69.79],[29.729999999999997,69.76],[29.849999999999998,69.76],[29.849999999999998,69.77],[29.9,69.77],[29.9,69.78],[29.939999999999998,69.78],[29.939999999999998,69.79],[30.0,69.79],[30.0,69.82],[29.95,69.82],[29.96,69.84],[30.0,69.84],[30.0,69.87],[29.99,69.87],[29.99,69.89],[29.96,69.89],[29.96,69.9],[29.86,69.9],[29.86,69.91],[29.81,69.91],[29.81,69.9],[29.799999999999997,69.9]]]]}}]}