{"type":"FeatureCollection","name":"tidal_model_domain","features":[{"type":"Feature","properties":{"kind":"domain","atlases":["NORKYST_ROGALAND"],"source_file":"norkyst_rogaland_20250919.nc","wet_cells":60438,"grid_deg":0.01,"area_deg2":6.01},"geometry":{"type":"MultiPolygon","coordinates":[[[[4.96,60.5],[5.04,60.49],[5.04,60.480000000000004],[5.0600000000000005,60.480000000000004],[5.0600000000000005,60.47],[5.09,60.47],[5.09,60.45],[5.15,60.45],[5.15,60.44],[5.16,60.44],[5.16,60.4],[5.21,60.4],[5.21,60.410000000000004],[5.23,60.410000000000004],[5.23,60.44],[5.2700000000000005,60.44],[5.2700000000000005,60.43],[5.29,60.43],[5.29,60.42],[5.3100000000000005,60.42],[5.3100000000000005,60.4],[5.32,60.4],[5.3100000000000005,60.38],[5.3,60.38],[5.3,60.39],[5.21,60.39],[5.21,60.38],[5.19,60.38],[5.19,60.370000000000005],[5.18,60.370000000000005],[5.18,60.33],[5.21,60.33],[5.21,60.34],[5.25,60.34],[5.25,60.33],[5.2700000000000005,60.33],[5.2700000000000005,60.32],[5.21,60.32],[5.21,60.28],[5.22,60.28],[5.22,60.27],[5.24,60.27],[5.24,60.25],[5.28,60.25],[5.28,60.26],[5.3,60.26],[5.3,60.27],[5.3100000000000005,60.27],[5.3100000000000005,60.26],[5.33,60.26],[5.33,60.230000000000004],[5.37,60.230000000000004],[5.37,60.21],[5.35,60.21],[5.35,60.18],[5.34,60.18],[5.34,60.15],[5.35,60.15],[5.35,60.14],[5.39,60.14],[5.39,60.15],[5.41,60.15],[5.41,60.14],[5.45,60.14],[5.45,60.15],[5.46,60.15],[5.46,60.18],[5.47,60.18],[5.47,60.19],[5.53,60.19],[5.53,60.2],[5.54,60.2],[5.55,60.22],[5.5600000000000005,60.22],[5.57,60.26],[5.58,60.26],[5.59,60.28],[5.61,60.28],[5.61,60.300000000000004],[5.63,60.31],[5.63,60.34],[5.64,60.34],[5.64,60.35],[5.66,60.34],[5.66,60.31],[5.64,60.300000000000004],[5.64,60.25],[5.66,60.25],[5.66,60.24],[5.69,60.24],[5.69,60.25],[5.73,60.25],[5.74,60.230000000000004],[5.65,60.230000000000004],[5.65,60.22],[5.64,60.22],[5.63,60.2],[5.6,60.2],[5.6,60.18],[5.59,60.18],[5.59,60.15],[5.66,60.15],[5.66,60.160000000000004],[5.69,60.160000000000004],[5.69,60.18],[5.7,60.18],[5.7,60.19],[5.74,60.19],[5.74,60.18],[5.73,60.18],[5.73,60.15],[5.75,60.15],[5.75,60.14],[5.76,60.14],[5.76,60.13],[5.74,60.120000000000005],[5.74,60.08],[5.76,60.08],[5.75,60.06],[5.69,60.06],[5.69,60.08],[5.65,60.08],[5.65,60.07],[5.64,60.07],[5.63,60.050000000000004],[5.62,60.050000000000004],[5.61,60.07],[5.5600000000000005,60.07],[5.5600000000000005,60.06],[5.54,60.06],[5.54,60.050000000000004],[5.48,60.050000000000004],[5.48,60.04],[5.47,60.04],[5.47,60.0],[5.49,60.0],[5.49,59.980000000000004],[5.48,59.980000000000004],[5.48,59.99],[5.44,59.99],[5.44,60.0],[5.41,60.0],[5.42,60.02],[5.44,60.02],[5.43,60.08],[5.36,60.08],[5.36,60.050000000000004],[5.35,60.050000000000004],[5.35,60.01],[5.36,60.01],[5.36,59.99],[5.38,59.99],[5.38,59.980000000000004],[5.39,59.980000000000004],[5.39,59.97],[5.43,59.97],[5.43,59.96],[5.46,59.96],[5.46,59.95],[5.49,59.95],[5.49,59.96],[5.51,59.96],[5.51,59.93],[5.53,59.92],[5.53,59.9],[5.57,59.9],[5.57,59.89],[5.59,59.88],[5.59,59.870000000000005],[5.57,59.870000000000005],[5.57,59.84],[5.61,59.84],[5.62,59.9],[5.66,59.9],[5.66,59.93],[5.63,59.93],[5.63,59.96],[5.65,59.97],[5.65,59.980000000000004],[5.68,59.980000000000004],[5.68,59.99],[5.69,59.99],[5.7,60.03],[5.73,60.03],[5.73,60.01],[5.74,60.01],[5.74,60.0],[5.76,60.0],[5.76,59.99],[5.8,59.99],[5.8,60.0],[5.8100000000000005,60.0],[5.8100000000000005,59.99],[5.86,59.99],[5.87,60.01],[5.9,60.01],[5.9,60.02],[5.92,60.03],[5.92,60.1],[5.9,60.11],[5.9,60.17],[5.96,60.17],[5.96,60.21],[5.97,60.21],[5.97,60.22],[5.99,60.22],[5.99,60.230000000000004],[6.010000000000001,60.24],[6.010000000000001,60.25],[6.07,60.25],[6.07,60.24],[6.13,60.230000000000004],[6.13,60.22],[6.1000000000000005,60.22],[6.1000000000000005,60.17],[6.11,60.17],[6.11,60.160000000000004],[6.13,60.160000000000004],[6.13,60.14],[6.15,60.14],[6.15,60.13],[6.16,60.13],[6.16,60.11],[6.19,60.11],[6.19,60.120000000000005],[6.21,60.120000000000005],[6.21,60.13],[6.260000000000001,60.13],[6.260000000000001,60.160000000000004],[6.29,60.160000000000004],[6.29,60.120000000000005],[6.2700000000000005,60.120000000000005],[6.2700000000000005,60.11],[6.220000000000001,60.11],[6.220000000000001,60.1],[6.180000000000001,60.1],[6.180000000000001,60.09],[6.09,60.09],[6.09,60.08],[6.07,60.08],[6.07,60.07],[6.0200000000000005,60.07],[6.0200000000000005,60.04],[6.010000000000001,60.04],[6.010000000000001,60.03],[5.99,60.02],[5.99,59.99],[6.010000000000001,59.99],[6.010000000000001,59.980000000000004],[6.0,59.980000000000004],[6.0,59.97],[5.99,59.97],[5.98,59.95],[5.89,59.95],[5.89,59.94],[5.87,59.94],[5.87,59.93],[5.84,59.93],[5.84,59.94],[5.8,59.94],[5.8,59.93],[5.79,59.93],[5.78,59.910000000000004],[5.7700000000000005,59.910000000000004],[5.7700000000000005,59.88],[5.78,59.88],[5.78,59.870000000000005],[5.73,59.870000000000005],[5.73,59.83],[5.79,59.83],[5.8,59.81],[5.8100000000000005,59.81],[5.8100000000000005,59.79],[5.84,59.79],[5.84,59.78],[5.86,59.78],[5.86,59.77],[5.89,59.77],[5.89,59.78],[5.91,59.78],[5.91,59.79],[5.92,59.79],[5.92,59.800000000000004],[5.95,59.800000000000004],[5.95,59.81],[5.96,59.81],[5.96,59.85],[5.97,59.85],[5.97,59.86],[5.99,59.86],[5.99,59.81],[5.97,59.800000000000004],[5.97,59.77],[5.98,59.77],[5.98,59.76],[6.0,59.76],[6.0,59.75],[6.03,59.75],[6.03,59.76],[6.08,59.76],[6.08,59.77],[6.1000000000000005,59.77],[6.1000000000000005,59.79],[6.15,59.79],[6.15,59.800000000000004],[6.17,59.800000000000004],[6.180000000000001,59.82],[6.2,59.82],[6.2,59.83],[6.23,59.83],[6.23,59.84],[6.2700000000000005,59.84],[6.2700000000000005,59.85],[6.33,59.85],[6.33,59.86],[6.36,59.86],[6.3500000000000005,59.84],[6.33,59.84],[6.33,59.83],[6.25,59.83],[6.25,59.82],[6.23,59.82],[6.23,59.81],[6.19,59.800000000000004],[6.19,59.79],[6.16,59.79],[6.16,59.78],[6.140000000000001,59.78],[6.13,59.76],[6.12,59.76],[6.11,59.74],[6.09,59.74],[6.09,59.730000000000004],[6.08,59.730000000000004],[6.08,59.74],[6.0200000000000005,59.74],[6.0200000000000005,59.730000000000004],[5.98,59.730000000000004],[5.98,59.74],[5.96,59.74],[5.96,59.75],[5.93,59.75],[5.93,59.730000000000004],[5.86,59.730000000000004],[5.86,59.71],[5.85,59.71],[5.85,59.7],[5.8100000000000005,59.7],[5.8100000000000005,59.69],[5.8,59.69],[5.8,59.660000000000004],[5.88,59.660000000000004],[5.88,59.67],[5.9,59.67],[5.9,59.68],[5.91,59.68],[5.92,59.660000000000004],[5.9,59.660000000000004],[5.9,59.64],[5.8100000000000005,59.64],[5.8100000000000005,59.61],[5.8,59.61],[5.8,59.6],[5.78,59.6],[5.78,59.59],[5.76,59.6],[5.76,59.61],[5.7700000000000005,59.61],[5.7700000000000005,59.65],[5.73,59.65],[5.73,59.660000000000004],[5.65,59.660000000000004],[5.65,59.67],[5.62,59.67],[5.62,59.68],[5.5600000000000005,59.67],[5.5600000000000005,59.58],[5.57,59.58],[5.57,59.550000000000004],[5.54,59.550000000000004],[5.54,59.54],[5.53,59.54],[5.5200000000000005,59.52],[5.49,59.52],[5.49,59.53],[5.51,59.54],[5.51,59.550000000000004],[5.5200000000000005,59.550000000000004],[5.5200000000000005,59.64],[5.53,59.64],[5.53,59.67],[5.54,59.67],[5.54,59.72],[5.5,59.72],[5.5,59.71],[5.47,59.71],[5.47,59.7],[5.45,59.7],[5.45,59.69],[5.44,59.69],[5.44,59.64],[5.45,59.64],[5.45,59.63],[5.48,59.63],[5.47,59.61],[5.46,59.61],[5.46,59.6],[5.43,59.6],[5.43,59.620000000000005],[5.42,59.620000000000005],[5.41,59.64],[5.36,59.64],[5.36,59.63],[5.32,59.620000000000005],[5.32,59.6],[5.3100000000000005,59.6],[5.3100000000000005,59.59],[5.29,59.59],[5.29,59.57],[5.28,59.57],[5.2700000000000005,59.550000000000004],[5.24,59.550000000000004],[5.24,59.54],[5.23,59.54],[5.23,59.480000000000004],[5.24,59.480000000000004],[5.24,59.43],[5.26,59.43],[5.26,59.410000000000004],[5.28,59.410000000000004],[5.28,59.4],[5.3,59.4],[5.3,59.39],[5.3100000000000005,59.39],[5.3100000000000005,59.36],[5.32,59.36],[5.32,59.34],[5.36,59.34],[5.36,59.4],[5.37,59.4],[5.37,59.410000000000004],[5.39,59.410000000000004],[5.39,59.4],[5.4,59.4],[5.4,59.32],[5.41,59.32],[5.41,59.300000000000004],[5.45,59.300000000000004],[5.45,59.33],[5.44,59.33],[5.44,59.34],[5.45,59.34],[5.46,59.36],[5.49,59.36],[5.48,59.34],[5.47,59.34],[5.47,59.28],[5.57,59.28],[5.57,59.300000000000004],[5.59,59.300000000000004],[5.59,59.32],[5.61,59.33],[5.61,59.4],[5.59,59.4],[5.59,59.42],[5.6,59.42],[5.6,59.46],[5.59,59.46],[5.59,59.47],[5.5600000000000005,59.47],[5.5600000000000005,59.46],[5.54,59.45],[5.53,59.43],[5.49,59.43],[5.49,59.44],[5.47,59.44],[5.47,59.46],[5.48,59.46],[5.48,59.45],[5.5200000000000005,59.45],[5.5200000000000005,59.46],[5.54,59.47],[5.54,59.480000000000004],[5.5600000000000005,59.480000000000004],[5.5600000000000005,59.49],[5.58,59.49],[5.58,59.5],[5.62,59.5],[5.62,59.46],[5.63,59.46],[5.63,59.39],[5.64,59.39],[5.64,59.34],[5.68,59.34],[5.68,59.33],[5.67,59.33],[5.67,59.300000000000004],[5.71,59.300000000000004],[5.71,59.32],[5.74,59.32],[5.74,59.33],[5.76,59.33],[5.76,59.34],[5.7700000000000005,59.34],[5.7700000000000005,59.33],[5.83,59.33],[5.83,59.34],[5.85,59.34],[5.85,59.35],[5.89,59.35],[5.89,59.38],[5.88,59.38],[5.87,59.4],[5.86,59.4],[5.86,59.42],[5.85,59.42],[5.85,59.43],[5.7700000000000005,59.43],[5.7700000000000005,59.42],[5.75,59.42],[5.75,59.410000000000004],[5.69,59.4],[5.7,59.42],[5.72,59.42],[5.72,59.43],[5.73,59.43],[5.73,59.46],[5.74,59.46],[5.74,59.47],[5.76,59.47],[5.76,59.44],[5.79,59.44],[5.79,59.45],[5.85,59.46],[5.85,59.49],[5.84,59.49],[5.84,59.51],[5.82,59.51],[5.82,59.53],[5.85,59.53],[5.85,59.54],[5.87,59.54],[5.87,59.5],[5.9,59.5],[5.9,59.480000000000004],[6.03,59.480000000000004],[6.03,59.47],[6.07,59.47],[6.07,59.480000000000004],[6.13,59.480000000000004],[6.13,59.49],[6.2,59.49],[6.21,59.51],[6.24,59.51],[6.24,59.52],[6.260000000000001,59.53],[6.260000000000001,59.550000000000004],[6.28,59.550000000000004],[6.28,59.57],[6.29,59.57],[6.29,59.63],[6.3100000000000005,59.63],[6.3100000000000005,59.65],[6.3500000000000005,59.65],[6.3500000000000005,59.63],[6.33,59.620000000000005],[6.33,59.58],[6.32,59.58],[6.3100000000000005,59.56],[6.300000000000001,59.56],[6.300000000000001,59.53],[6.36,59.54],[6.36,59.550000000000004],[6.430000000000001,59.550000000000004],[6.430000000000001,59.56],[6.49,59.56],[6.49,59.57],[6.510000000000001,59.57],[6.510000000000001,59.56],[6.54,59.56],[6.53,59.54],[6.42,59.54],[6.42,59.53],[6.390000000000001,59.53],[6.390000000000001,59.52],[6.33,59.52],[6.33,59.51],[6.3100000000000005,59.51],[6.3100000000000005,59.5],[6.260000000000001,59.5],[6.260000000000001,59.47],[6.25,59.47],[6.25,59.46],[6.23,59.45],[6.23,59.44],[6.21,59.44],[6.21,59.43],[6.180000000000001,59.43],[6.180000000000001,59.42],[6.16,59.42],[6.16,59.410000000000004],[6.13,59.410000000000004],[6.13,59.4],[6.11,59.4],[6.11,59.39],[6.0600000000000005,59.39],[6.050000000000001,59.370000000000005],[6.04,59.370000000000005],[6.04,59.36],[6.03,59.36],[6.03,59.33],[6.08,59.33],[6.08,59.34],[6.09,59.34],[6.1000000000000005,59.32],[6.13,59.32],[6.13,59.33],[6.140000000000001,59.33],[6.140000000000001,59.32],[6.220000000000001,59.32],[6.220000000000001,59.36],[6.23,59.36],[6.24,59.34],[6.260000000000001,59.34],[6.260000000000001,59.33],[6.28,59.32],[6.28,59.300000000000004],[6.33,59.300000000000004],[6.33,59.31],[6.3500000000000005,59.31],[6.3500000000000005,59.32],[6.38,59.32],[6.38,59.33],[6.45,59.33],[6.46,59.31],[6.41,59.31],[6.41,59.300000000000004],[6.3500000000000005,59.300000000000004],[6.3500000000000005,59.29],[6.33,59.29],[6.33,59.28],[6.300000000000001,59.28],[6.300000000000001,59.27],[6.24,59.27],[6.24,59.26],[6.19,59.26],[6.180000000000001,59.24],[6.15,59.24],[6.140000000000001,59.22],[6.11,59.22],[6.11,59.2],[6.08,59.2],[6.08,59.19],[6.07,59.19],[6.07,59.17],[6.04,59.17],[6.04,59.14],[6.07,59.14],[6.07,59.15],[6.17,59.15],[6.17,59.13],[6.16,59.13],[6.16,59.14],[6.13,59.14],[6.13,59.13],[6.0600000000000005,59.13],[6.0600000000000005,59.120000000000005],[6.0200000000000005,59.120000000000005],[6.0200000000000005,59.11],[6.010000000000001,59.11],[6.010000000000001,59.120000000000005],[5.96,59.120000000000005],[5.96,59.11],[5.94,59.11],[5.94,59.1],[5.91,59.1],[5.91,59.09],[5.89,59.09],[5.89,59.06],[5.92,59.06],[5.92,59.04],[5.94,59.04],[5.95,59.02],[6.010000000000001,59.02],[6.010000000000001,59.03],[6.0200000000000005,59.03],[6.0200000000000005,59.02],[6.04,59.02],[6.04,59.01],[6.07,59.01],[6.0600000000000005,58.99],[6.0200000000000005,58.99],[6.0200000000000005,58.980000000000004],[6.010000000000001,58.980000000000004],[6.010000000000001,58.94],[6.03,58.94],[6.04,58.92],[6.09,58.92],[6.09,58.93],[6.11,58.94],[6.12,58.96],[6.15,58.96],[6.15,58.97],[6.17,58.97],[6.180000000000001,58.99],[6.2,58.99],[6.2,59.0],[6.23,59.0],[6.23,59.01],[6.25,59.01],[6.25,59.02],[6.390000000000001,59.02],[6.390000000000001,59.03],[6.44,59.03],[6.44,59.04],[6.5,59.04],[6.5,59.050000000000004],[6.58,59.050000000000004],[6.58,59.06],[6.63,59.06],[6.640000000000001,59.04],[6.61,59.04],[6.61,59.03],[6.5600000000000005,59.03],[6.5600000000000005,59.02],[6.45,59.02],[6.45,59.01],[6.4,59.01],[6.4,59.0],[6.3100000000000005,59.0],[6.3100000000000005,58.99],[6.25,58.99],[6.25,58.980000000000004],[6.23,58.980000000000004],[6.23,58.97],[6.2,58.97],[6.2,58.96],[6.180000000000001,58.96],[6.180000000000001,58.95],[6.16,58.95],[6.16,58.94],[6.13,58.94],[6.13,58.93],[6.11,58.92],[6.11,58.88],[6.12,58.88],[6.12,58.870000000000005],[6.15,58.870000000000005],[6.15,58.86],[6.260000000000001,58.86],[6.260000000000001,58.85],[6.2700000000000005,58.85],[6.2700000000000005,58.84],[6.19,58.84],[6.19,58.83],[6.180000000000001,58.83],[6.180000000000001,58.84],[6.140000000000001,58.84],[6.140000000000001,58.85],[6.1000000000000005,58.86],[6.1000000000000005,58.870000000000005],[6.08,58.870000000000005],[6.07,58.89],[6.04,58.89],[6.04,58.9],[6.010000000000001,58.9],[6.010000000000001,58.89],[6.0,58.89],[6.0,58.9],[5.97,58.9],[5.97,58.94],[5.96,58.94],[5.96,58.95],[5.92,58.95],[5.92,58.96],[5.89,58.96],[5.89,58.97],[5.86,58.97],[5.86,58.94],[5.85,58.94],[5.85,58.93],[5.83,58.93],[5.83,58.92],[5.82,58.92],[5.82,58.93],[5.78,58.93],[5.78,58.89],[5.7700000000000005,58.89],[5.7700000000000005,58.870000000000005],[5.74,58.870000000000005],[5.74,58.92],[5.75,58.92],[5.75,58.94],[5.76,58.94],[5.76,58.97],[5.71,58.97],[5.71,58.980000000000004],[5.7,58.980000000000004],[5.69,59.0],[5.66,59.0],[5.66,59.01],[5.64,59.01],[5.64,59.02],[5.61,59.02],[5.61,59.03],[5.58,59.03],[5.58,59.02],[5.57,59.02],[5.57,58.99],[5.59,58.99],[5.59,58.980000000000004],[5.6,58.980000000000004],[5.6,58.96],[5.62,58.96],[5.63,58.94],[5.68,58.94],[5.68,58.93],[5.67,58.93],[5.66,58.910000000000004],[5.64,58.910000000000004],[5.64,58.9],[5.62,58.9],[5.62,58.92],[5.59,58.92],[5.59,58.88],[5.58,58.88],[5.58,58.870000000000005],[5.5600000000000005,58.870000000000005],[5.55,58.79],[5.51,58.77],[5.51,58.730000000000004],[5.5200000000000005,58.730000000000004],[5.5200000000000005,58.71],[5.53,58.71],[5.54,58.69],[5.55,58.69],[5.55,58.660000000000004],[5.5600000000000005,58.660000000000004],[5.5600000000000005,58.65],[5.58,58.65],[5.58,58.63],[5.59,58.63],[5.59,58.620000000000005],[5.61,58.620000000000005],[5.61,58.61],[5.62,58.61],[5.63,58.59],[5.64,58.59],[5.64,58.57],[5.65,58.57],[5.66,58.550000000000004],[5.69,58.550000000000004],[5.69,58.54],[5.73,58.54],[5.73,58.53],[5.7700000000000005,58.53],[5.7700000000000005,58.52],[5.8,58.52],[5.8,58.49],[5.84,58.49],[5.84,58.480000000000004],[5.86,58.480000000000004],[5.86,58.47],[5.88,58.47],[5.88,58.46],[5.92,58.46],[5.92,58.45],[5.94,58.45],[5.94,58.43],[5.95,58.43],[5.95,58.42],[6.010000000000001,58.42],[6.010000000000001,58.4],[6.0200000000000005,58.4],[6.0200000000000005,58.39],[6.04,58.39],[6.04,58.38],[6.08,58.38],[6.08,58.370000000000005],[6.1000000000000005,58.370000000000005],[6.1000000000000005,58.36],[6.13,58.36],[6.13,58.35],[6.15,58.35],[6.15,58.34],[6.21,58.34],[6.21,58.33],[6.25,58.33],[6.25,58.32],[6.32,58.32],[6.340000000000001,58.28],[6.38,58.28],[6.38,58.27],[6.45,58.27],[6.45,58.26],[6.58,58.26],[6.58,58.25],[6.61,58.25],[6.61,58.24],[6.66,58.24],[6.66,58.26],[6.7,58.26],[6.7,58.24],[6.71,58.24],[6.71,58.230000000000004],[6.75,58.230000000000004],[6.75,58.24],[6.7700000000000005,58.24],[6.7700000000000005,58.25],[6.800000000000001,58.25],[6.800000000000001,58.26],[6.840000000000001,58.26],[6.83,58.24],[6.79,58.24],[6.79,58.230000000000004],[6.760000000000001,58.230000000000004],[6.760000000000001,58.21],[6.71,58.21],[6.71,58.2],[6.69,58.2],[6.69,58.19],[6.67,58.18],[6.67,58.17],[6.66,58.17],[6.66,58.18],[6.62,58.18],[6.62,58.15],[6.61,58.15],[6.61,58.13],[6.58,58.13],[6.58,58.1],[6.590000000000001,58.1],[6.590000000000001,58.09],[6.61,58.09],[6.62,58.07],[6.66,58.07],[6.66,58.08],[6.680000000000001,58.08],[6.680000000000001,58.07],[6.79,58.07],[6.79,58.120000000000005],[6.83,58.120000000000005],[6.83,58.15],[6.8100000000000005,58.15],[6.8100000000000005,58.18],[6.82,58.18],[6.82,58.19],[6.840000000000001,58.19],[6.840000000000001,58.160000000000004],[6.86,58.160000000000004],[6.86,58.15],[6.9,58.15],[6.9,58.14],[7.010000000000001,58.14],[7.010000000000001,58.15],[7.0200000000000005,58.15],[7.0200000000000005,58.14],[7.03,58.14],[7.03,58.11],[7.050000000000001,58.11],[7.050000000000001,58.1],[7.03,58.1],[7.0200000000000005,58.08],[7.0,58.07],[7.0,58.04],[7.03,58.04],[7.04,58.06],[7.08,58.06],[7.08,58.07],[7.11,58.07],[7.11,58.08],[7.13,58.08],[7.13,58.07],[7.12,58.07],[7.12,58.050000000000004],[7.07,58.050000000000004],[7.07,58.04],[7.050000000000001,58.04],[7.050000000000001,58.03],[7.04,58.03],[7.04,57.99],[7.090000000000001,57.99],[7.090000000000001,58.0],[7.11,58.0],[7.12,58.04],[7.17,58.04],[7.17,58.050000000000004],[7.19,58.050000000000004],[7.19,58.04],[7.25,58.04],[7.25,58.03],[7.23,58.02],[7.23,58.01],[7.220000000000001,58.01],[7.220000000000001,58.0],[7.21,58.0],[7.21,57.99],[7.19,57.980000000000004],[7.19,57.97],[7.180000000000001,57.97],[7.180000000000001,57.96],[7.16,57.95],[7.16,57.94],[7.15,57.94],[7.140000000000001,57.92],[7.12,57.910000000000004],[7.12,57.9],[7.11,57.9],[7.11,57.89],[7.090000000000001,57.88],[7.090000000000001,57.870000000000005],[7.08,57.870000000000005],[7.08,57.86],[7.07,57.86],[7.0600000000000005,57.84],[7.050000000000001,57.84],[7.050000000000001,57.83],[7.04,57.83],[7.04,57.82],[7.0200000000000005,57.81],[7.0200000000000005,57.79],[7.0,57.79],[7.0,57.77],[6.99,57.77],[6.99,57.76],[6.970000000000001,57.76],[6.970000000000001,57.74],[6.96,57.74],[6.95,57.72],[6.94,57.72],[6.930000000000001,57.7],[6.92,57.7],[6.92,57.69],[6.91,57.69],[6.91,57.68],[6.890000000000001,57.67],[6.890000000000001,57.660000000000004],[6.88,57.660000000000004],[6.88,57.65],[6.87,57.65],[6.87,57.64],[6.8500000000000005,57.63],[6.8500000000000005,57.620000000000005],[6.840000000000001,57.620000000000005],[6.840000000000001,57.6],[6.82,57.6],[6.82,57.58],[6.8100000000000005,57.58],[6.8100000000000005,57.57],[6.79,57.57],[6.79,57.550000000000004],[6.78,57.550000000000004],[6.78,57.54],[6.7700000000000005,57.54],[6.760000000000001,57.52],[6.75,57.52],[6.75,57.51],[6.74,57.51],[6.74,57.5],[6.720000000000001,57.49],[6.720000000000001,57.480000000000004],[6.71,57.480000000000004],[6.71,57.46],[6.69,57.46],[6.69,57.44],[6.680000000000001,57.44],[6.680000000000001,57.43],[6.66,57.43],[6.66,57.410000000000004],[6.65,57.410000000000004],[6.65,57.4],[6.640000000000001,57.4],[6.640000000000001,57.39],[6.63,57.39],[6.63,57.38],[6.61,57.370000000000005],[6.61,57.36],[6.6000000000000005,57.36],[6.590000000000001,57.34],[6.58,57.34],[6.58,57.32],[6.5600000000000005,57.32],[6.5600000000000005,57.31],[6.550000000000001,57.31],[6.550000000000001,57.29],[6.53,57.29],[6.53,57.27],[6.5200000000000005,57.27],[6.5200000000000005,57.28],[6.48,57.28],[6.48,57.29],[6.45,57.29],[6.45,57.300000000000004],[6.41,57.300000000000004],[6.41,57.31],[6.33,57.32],[6.33,57.33],[6.300000000000001,57.33],[6.300000000000001,57.34],[6.260000000000001,57.34],[6.260000000000001,57.35],[6.23,57.35],[6.23,57.36],[6.180000000000001,57.36],[6.180000000000001,57.370000000000005],[6.140000000000001,57.370000000000005],[6.140000000000001,57.38],[6.11,57.38],[6.11,57.39],[6.07,57.39],[6.07,57.4],[6.04,57.4],[6.04,57.410000000000004],[5.99,57.410000000000004],[5.99,57.42],[5.95,57.42],[5.95,57.43],[5.92,57.43],[5.92,57.44],[5.88,57.44],[5.88,57.45],[5.85,57.45],[5.85,57.46],[5.8,57.46],[5.8,57.47],[5.76,57.47],[5.76,57.480000000000004],[5.73,57.480000000000004],[5.73,57.49],[5.69,57.49],[5.69,57.5],[5.61,57.51],[5.61,57.52],[5.57,57.52],[5.57,57.53],[5.54,57.53],[5.54,57.54],[5.49,57.54],[5.49,57.550000000000004],[5.46,57.550000000000004],[5.46,57.56],[5.42,57.56],[5.42,57.57],[5.37,57.57],[5.37,57.58],[5.34,57.58],[5.34,57.59],[5.3,57.59],[5.3,57.6],[5.22,57.61],[5.22,57.620000000000005],[5.18,57.620000000000005],[5.18,57.63],[5.14,57.63],[5.14,57.64],[5.0600000000000005,57.65],[5.0600000000000005,57.660000000000004],[5.0200000000000005,57.660000000000004],[5.0200000000000005,57.67],[4.98,57.67],[4.98,57.68],[4.94,57.68],[4.94,57.69],[4.9,57.69],[4.9,57.7],[4.86,57.7],[4.86,57.71],[4.78,57.72],[4.78,57.730000000000004],[4.74,57.730000000000004],[4.74,57.74],[4.7,57.74],[4.7,57.75],[4.66,57.75],[4.66,57.76],[4.62,57.76],[4.62,57.77],[4.58,57.77],[4.58,57.78],[4.53,57.78],[4.53,57.79],[4.49,57.79],[4.49,57.800000000000004],[4.46,57.800000000000004],[4.46,57.81],[4.41,57.81],[4.41,57.82],[4.37,57.82],[4.37,57.83],[4.32,57.83],[4.32,57.84],[4.29,57.84],[4.29,57.85],[4.25,57.85],[4.25,57.86],[4.2,57.86],[4.2,57.870000000000005],[4.17,57.870000000000005],[4.17,57.88],[4.12,57.88],[4.12,57.89],[4.08,57.89],[4.08,57.9],[4.03,57.9],[4.03,57.910000000000004],[4.0,57.910000000000004],[4.0,57.92],[3.95,57.92],[3.95,57.93],[3.91,57.93],[3.91,57.94],[3.8600000000000003,57.94],[3.8600000000000003,57.95],[3.8200000000000003,57.95],[3.8200000000000003,57.96],[3.79,57.96],[3.79,57.97],[3.74,57.97],[3.74,57.980000000000004],[3.7,57.980000000000004],[3.7,57.99],[3.6500000000000004,57.99],[3.6500000000000004,58.0],[3.62,58.0],[3.62,58.01],[3.52,58.02],[3.52,58.03],[3.48,58.03],[3.48,58.04],[3.4299999999999997,58.04],[3.4299999999999997,58.050000000000004],[3.35,58.06],[3.35,58.07],[3.31,58.07],[3.31,58.08],[3.26,58.08],[3.26,58.09],[3.2199999999999998,58.09],[3.2199999999999998,58.1],[3.17,58.1],[3.17,58.11],[3.14,58.11],[3.14,58.120000000000005],[3.09,58.120000000000005],[3.09,58.13],[3.04,58.13],[3.04,58.14],[3.0,58.14],[3.0,58.15],[2.95,58.15],[2.95,58.160000000000004],[2.92,58.160000000000004],[2.92,58.17],[2.93,58.17],[2.94,58.19],[2.95,58.19],[2.95,58.2],[2.96,58.2],[2.96,58.22],[2.9699999999999998,58.22],[2.9699999999999998,58.230000000000004],[2.98,58.230000000000004],[2.98,58.24],[3.0,58.25],[3.0,58.27],[3.01,58.27],[3.01,58.28],[3.0300000000000002,58.29],[3.0300000000000002,58.300000000000004],[3.05,58.31],[3.05,58.33],[3.06,58.33],[3.06,58.34],[3.08,58.35],[3.08,58.370000000000005],[3.09,58.370000000000005],[3.09,58.38],[3.1,58.38],[3.1,58.39],[3.12,58.4],[3.12,58.410000000000004],[3.13,58.410000000000004],[3.13,58.43],[3.14,58.43],[3.15,58.45],[3.17,58.46],[3.17,58.480000000000004],[3.1799999999999997,58.480000000000004],[3.1799999999999997,58.49],[3.19,58.49],[3.19,58.5],[3.21,58.51],[3.21,58.52],[3.2199999999999998,58.52],[3.2199999999999998,58.54],[3.23,58.54],[3.23,58.550000000000004],[3.25,58.56],[3.25,58.58],[3.27,58.58],[3.27,58.6],[3.2800000000000002,58.6],[3.29,58.620000000000005],[3.3,58.620000000000005],[3.3,58.64],[3.31,58.64],[3.3200000000000003,58.660000000000004],[3.33,58.660000000000004],[3.34,58.68],[3.35,58.68],[3.35,58.69],[3.3600000000000003,58.69],[3.3600000000000003,58.71],[3.38,58.72],[3.38,58.730000000000004],[3.39,58.730000000000004],[3.4,58.75],[3.41,58.75],[3.41,58.77],[3.42,58.77],[3.4299999999999997,58.79],[3.44,58.79],[3.44,58.81],[3.46,58.81],[3.46,58.83],[3.4699999999999998,58.83],[3.4699999999999998,58.84],[3.48,58.84],[3.48,58.85],[3.5,58.86],[3.51,58.88],[3.52,58.88],[3.52,58.9],[3.5300000000000002,58.9],[3.5300000000000002,58.910000000000004],[3.55,58.92],[3.55,58.94],[3.5700000000000003,58.94],[3.5700000000000003,58.96],[3.59,58.97],[3.59,58.980000000000004],[3.6,58.980000000000004],[3.6,59.0],[3.62,59.0],[3.62,59.02],[3.64,59.03],[3.64,59.04],[3.6500000000000004,59.04],[3.6500000000000004,59.050000000000004],[3.66,59.050000000000004],[3.67,59.07],[3.6799999999999997,59.07],[3.6799999999999997,59.09],[3.69,59.09],[3.69,59.1],[3.71,59.11],[3.71,59.120000000000005],[3.73,59.13],[3.73,59.15],[3.74,59.15],[3.74,59.160000000000004],[3.75,59.160000000000004],[3.76,59.18],[3.7800000000000002,59.19],[3.7800000000000002,59.2],[3.79,59.2],[3.79,59.22],[3.81,59.22],[3.81,59.24],[3.8200000000000003,59.24],[3.8200000000000003,59.25],[3.84,59.26],[3.84,59.27],[3.8600000000000003,59.28],[3.8600000000000003,59.300000000000004],[3.87,59.300000000000004],[3.88,59.32],[3.9000000000000004,59.33],[3.9000000000000004,59.34],[3.91,59.34],[3.91,59.36],[3.92,59.36],[3.92,59.370000000000005],[3.9299999999999997,59.370000000000005],[3.9299999999999997,59.38],[3.94,59.38],[3.94,59.39],[3.96,59.4],[3.96,59.410000000000004],[3.98,59.42],[3.98,59.43],[3.99,59.43],[3.99,59.45],[4.0,59.45],[4.01,59.47],[4.0200000000000005,59.47],[4.0200000000000005,59.480000000000004],[4.04,59.49],[4.04,59.51],[4.06,59.51],[4.06,59.53],[4.07,59.53],[4.08,59.550000000000004],[4.09,59.550000000000004],[4.1,59.57],[4.12,59.58],[4.13,59.6],[4.14,59.6],[4.14,59.620000000000005],[4.15,59.620000000000005],[4.15,59.63],[4.16,59.63],[4.17,59.65],[4.18,59.65],[4.18,59.660000000000004],[4.19,59.660000000000004],[4.19,59.68],[4.21,59.68],[4.21,59.7],[4.22,59.7],[4.22,59.71],[4.24,59.72],[4.24,59.730000000000004],[4.25,59.730000000000004],[4.26,59.75],[4.28,59.76],[4.28,59.77],[4.29,59.77],[4.29,59.79],[4.31,59.79],[4.31,59.81],[4.32,59.81],[4.32,59.82],[4.34,59.83],[4.34,59.84],[4.36,59.85],[4.36,59.870000000000005],[4.38,59.870000000000005],[4.38,59.89],[4.39,59.89],[4.39,59.9],[4.41,59.9],[4.41,59.92],[4.42,59.92],[4.43,59.94],[4.44,59.94],[4.44,59.95],[4.45,59.95],[4.46,59.97],[4.47,59.97],[4.47,59.980000000000004],[4.48,59.980000000000004],[4.48,60.0],[4.5,60.01],[4.5,60.02],[4.51,60.02],[4.51,60.03],[4.53,60.04],[4.53,60.050000000000004],[4.54,60.050000000000004],[4.54,60.06],[4.56,60.07],[4.56,60.08],[4.57,60.08],[4.57,60.09],[4.58,60.09],[4.58,60.11],[4.6,60.11],[4.6,60.13],[4.61,60.13],[4.61,60.14],[4.63,60.15],[4.63,60.160000000000004],[4.64,60.160000000000004],[4.64,60.17],[4.65,60.17],[4.65,60.18],[4.67,60.19],[4.67,60.21],[4.69,60.21],[4.69,60.22],[4.7,60.22],[4.7,60.24],[4.72,60.24],[4.72,60.26],[4.73,60.26],[4.73,60.27],[4.74,60.27],[4.74,60.28],[4.76,60.29],[4.76,60.300000000000004],[4.7700000000000005,60.300000000000004],[4.7700000000000005,60.31],[4.78,60.31],[4.79,60.33],[4.8,60.33],[4.8,60.34],[4.81,60.34],[4.81,60.36],[4.83,60.36],[4.83,60.38],[4.84,60.38],[4.84,60.39],[4.86,60.39],[4.86,60.410000000000004],[4.87,60.410000000000004],[4.87,60.42],[4.89,60.43],[4.89,60.44],[4.92,60.44],[4.92,60.46],[4.93,60.46],[4.93,60.45],[4.96,60.45],[4.96,60.5]],[[4.96,60.39],[4.95,60.39],[4.94,60.370000000000005],[4.93,60.370000000000005],[4.93,60.34],[4.94,60.34],[4.94,60.33],[4.96,60.33],[4.96,60.32],[4.95,60.32],[4.95,60.26],[4.99,60.25],[4.99,60.22],[5.0,60.22],[5.01,60.2],[5.05,60.2],[5.05,60.17],[5.11,60.17],[5.11,60.18],[5.15,60.18],[5.15,60.19],[5.16,60.19],[5.16,60.22],[5.14,60.22],[5.14,60.25],[5.1,60.26],[5.11,60.28],[5.13,60.28],[5.13,60.34],[5.15,60.34],[5.15,60.39],[5.11,60.39],[5.11,60.36],[5.09,60.36],[5.09,60.370000000000005],[5.0600000000000005,60.370000000000005],[5.0600000000000005,60.38],[5.05,60.38],[5.05,60.4],[5.03,60.4],[5.03,60.410000000000004],[5.0,60.410000000000004],[5.0,60.45],[4.96,60.45],[4.96,60.39]],[[5.97,60.15],[5.96,60.15],[5.96,60.14],[5.94,60.14],[5.94,60.11],[5.95,60.11],[5.95,60.09],[5.97,60.09],[5.97,60.08],[6.0,60.08],[6.010000000000001,60.1],[6.050000000000001,60.11],[6.050000000000001,60.160000000000004],[5.97,60.160000000000004],[5.97,60.15]],[[5.13,60.1],[5.16,60.1],[5.16,60.13],[5.13,60.13],[5.13,60.1]],[[5.25,60.050000000000004],[5.23,60.04],[5.23,60.050000000000004],[5.22,60.050000000000004],[5.22,60.07],[5.18,60.07],[5.18,60.04],[5.2,60.04],[5.2,60.01],[5.19,60.01],[5.19,60.02],[5.16,60.02],[5.16,60.01],[5.12,60.0],[5.12,59.97],[5.2,59.97],[5.2,59.980000000000004],[5.21,59.980000000000004],[5.21,60.01],[5.25,60.01],[5.25,60.0],[5.28,60.0],[5.28,60.01],[5.3,60.01],[5.3,60.08],[5.25,60.08],[5.25,60.050000000000004]],[[5.32,59.94],[5.33,59.94],[5.33,59.93],[5.32,59.93],[5.3100000000000005,59.910000000000004],[5.28,59.910000000000004],[5.28,59.88],[5.3,59.88],[5.3100000000000005,59.82],[5.33,59.81],[5.33,59.79],[5.34,59.79],[5.34,59.78],[5.36,59.78],[5.36,59.77],[5.39,59.77],[5.39,59.76],[5.42,59.76],[5.42,59.75],[5.47,59.75],[5.47,59.76],[5.5,59.76],[5.5,59.79],[5.53,59.79],[5.53,59.88],[5.51,59.89],[5.51,59.910000000000004],[5.47,59.92],[5.46,59.94],[5.41,59.94],[5.41,59.95],[5.39,59.95],[5.39,59.96],[5.36,59.96],[5.36,59.97],[5.32,59.97],[5.32,59.94]],[[5.22,59.88],[5.25,59.88],[5.25,59.92],[5.22,59.92],[5.22,59.88]],[[5.09,59.9],[5.08,59.9],[5.08,59.83],[5.14,59.83],[5.14,59.86],[5.12,59.86],[5.12,59.910000000000004],[5.09,59.910000000000004],[5.09,59.9]],[[5.17,59.84],[5.19,59.84],[5.19,59.83],[5.16,59.83],[5.16,59.82],[5.12,59.81],[5.12,59.79],[5.11,59.79],[5.11,59.76],[5.13,59.76],[5.13,59.74],[5.21,59.75],[5.2,59.730000000000004],[5.18,59.730000000000004],[5.18,59.72],[5.17,59.72],[5.17,59.69],[5.16,59.69],[5.16,59.63],[5.18,59.63],[5.18,59.59],[5.19,59.59],[5.19,59.58],[5.22,59.58],[5.22,59.59],[5.24,59.6],[5.24,59.64],[5.23,59.64],[5.23,59.65],[5.25,59.660000000000004],[5.25,59.730000000000004],[5.24,59.730000000000004],[5.24,59.75],[5.25,59.75],[5.25,59.74],[5.2700000000000005,59.74],[5.2700000000000005,59.730000000000004],[5.34,59.730000000000004],[5.34,59.76],[5.33,59.76],[5.33,59.77],[5.3100000000000005,59.78],[5.3100000000000005,59.800000000000004],[5.3,59.800000000000004],[5.3,59.81],[5.28,59.81],[5.28,59.82],[5.25,59.82],[5.25,59.85],[5.23,59.85],[5.23,59.86],[5.17,59.870000000000005],[5.17,59.84]],[[5.74,59.730000000000004],[5.78,59.730000000000004],[5.78,59.75],[5.8,59.76],[5.8,59.79],[5.74,59.79],[5.74,59.730000000000004]],[[5.67,59.74],[5.65,59.74],[5.65,59.71],[5.72,59.71],[5.72,59.74],[5.71,59.74],[5.71,59.75],[5.67,59.75],[5.67,59.74]],[[5.33,59.68],[5.36,59.68],[5.36,59.71],[5.33,59.71],[5.33,59.68]],[[6.12,59.46],[6.07,59.46],[6.07,59.45],[6.010000000000001,59.45],[6.010000000000001,59.44],[5.97,59.44],[5.97,59.45],[5.92,59.45],[5.92,59.4],[5.94,59.39],[5.94,59.36],[5.98,59.36],[5.99,59.38],[6.010000000000001,59.38],[6.010000000000001,59.4],[6.0200000000000005,59.4],[6.0200000000000005,59.410000000000004],[6.11,59.410000000000004],[6.12,59.43],[6.16,59.43],[6.16,59.44],[6.17,59.44],[6.17,59.47],[6.12,59.47],[6.12,59.46]],[[5.23,59.370000000000005],[5.22,59.370000000000005],[5.22,59.36],[5.2,59.35],[5.2,59.32],[5.22,59.32],[5.22,59.31],[5.21,59.31],[5.21,59.28],[5.19,59.28],[5.19,59.25],[5.18,59.25],[5.18,59.18],[5.19,59.18],[5.19,59.15],[5.21,59.15],[5.21,59.14],[5.25,59.14],[5.25,59.15],[5.3,59.15],[5.3,59.160000000000004],[5.3100000000000005,59.160000000000004],[5.3100000000000005,59.2],[5.32,59.2],[5.32,59.29],[5.3,59.300000000000004],[5.3,59.32],[5.29,59.32],[5.29,59.36],[5.28,59.36],[5.28,59.38],[5.2700000000000005,59.38],[5.2700000000000005,59.39],[5.23,59.39],[5.23,59.370000000000005]],[[5.34,59.28],[5.37,59.28],[5.37,59.32],[5.34,59.32],[5.34,59.28]],[[6.220000000000001,59.28],[6.25,59.28],[6.25,59.31],[6.220000000000001,59.31],[6.220000000000001,59.28]],[[6.140000000000001,59.27],[6.19,59.27],[6.19,59.300000000000004],[6.140000000000001,59.300000000000004],[6.140000000000001,59.27]],[[5.95,59.28],[5.93,59.28],[5.93,59.230000000000004],[6.0,59.230000000000004],[6.0,59.24],[6.1000000000000005,59.25],[6.1000000000000005,59.28],[6.07,59.28],[6.07,59.29],[5.95,59.29],[5.95,59.28]],[[5.84,59.25],[5.88,59.25],[5.88,59.28],[5.84,59.28],[5.84,59.25]],[[5.38,59.2],[5.39,59.2],[5.39,59.18],[5.42,59.18],[5.42,59.17],[5.46,59.17],[5.46,59.230000000000004],[5.43,59.230000000000004],[5.43,59.24],[5.38,59.24],[5.38,59.2]],[[6.010000000000001,59.19],[6.050000000000001,59.19],[6.050000000000001,59.22],[6.010000000000001,59.22],[6.010000000000001,59.19]],[[5.82,59.19],[5.8100000000000005,59.19],[5.8100000000000005,59.18],[5.79,59.17],[5.79,59.14],[5.85,59.14],[5.85,59.15],[5.87,59.15],[5.87,59.19],[5.86,59.19],[5.86,59.2],[5.82,59.2],[5.82,59.19]],[[5.71,59.09],[5.73,59.09],[5.73,59.07],[5.78,59.07],[5.78,59.1],[5.7700000000000005,59.1],[5.7700000000000005,59.120000000000005],[5.71,59.120000000000005],[5.71,59.09]],[[6.54,58.21],[6.58,58.21],[6.58,58.24],[6.54,58.24],[6.54,58.21]],[[6.590000000000001,58.2],[6.62,58.2],[6.62,58.230000000000004],[6.590000000000001,58.230000000000004],[6.590000000000001,58.2]],[[6.88,58.1],[6.86,58.1],[6.86,58.07],[6.9,58.07],[6.9,58.09],[6.91,58.09],[6.91,58.120000000000005],[6.88,58.120000000000005],[6.88,58.1]],[[6.94,58.050000000000004],[6.970000000000001,58.050000000000004],[6.970000000000001,58.07],[6.99,58.07],[6.99,58.11],[6.94,58.11],[6.94,58.050000000000004]]],[[[6.54,60.120000000000005],[6.5600000000000005,60.120000000000005],[6.5600000000000005,60.08],[6.53,60.08],[6.53,60.13],[6.54,60.13],[6.54,60.120000000000005]]],[[[4.96,60.5],[4.95,60.5],[4.95,60.51],[4.96,60.51],[4.96,60.5]]]]}}]}