{"type":"FeatureCollection","name":"tidal_model_domain","features":[{"type":"Feature","properties":{"kind":"domain","atlases":["NORKYST_SKAGERRAK"],"source_file":"norkyst_skagerrak_20250919.nc","wet_cells":82628,"grid_deg":0.01,"area_deg2":7.95},"geometry":{"type":"MultiPolygon","coordinates":[[[[10.73,59.9],[10.760000000000002,59.9],[10.760000000000002,59.88],[10.780000000000001,59.88],[10.780000000000001,59.87],[10.79,59.87],[10.79,59.86],[10.780000000000001,59.86],[10.780000000000001,59.83],[10.760000000000002,59.83],[10.760000000000002,59.82],[10.74,59.81],[10.74,59.78],[10.73,59.78],[10.73,59.77],[10.72,59.77],[10.71,59.79],[10.7,59.79],[10.7,59.83],[10.690000000000001,59.83],[10.690000000000001,59.85],[10.67,59.85],[10.67,59.86],[10.64,59.86],[10.64,59.83],[10.629999999999999,59.83],[10.620000000000001,59.81],[10.61,59.81],[10.61,59.79],[10.59,59.78],[10.59,59.72],[10.61,59.72],[10.61,59.71],[10.629999999999999,59.7],[10.629999999999999,59.64],[10.64,59.64],[10.64,59.62],[10.65,59.62],[10.65,59.6],[10.66,59.6],[10.66,59.58],[10.65,59.58],[10.65,59.55],[10.66,59.55],[10.66,59.53],[10.68,59.52],[10.68,59.5],[10.65,59.5],[10.64,59.48],[10.629999999999999,59.48],[10.629999999999999,59.45],[10.61,59.45],[10.61,59.42],[10.66,59.42],[10.66,59.41],[10.65,59.41],[10.65,59.38],[10.66,59.38],[10.66,59.339999999999996],[10.67,59.339999999999996],[10.67,59.32],[10.7,59.32],[10.7,59.33],[10.72,59.339999999999996],[10.72,59.33],[10.73,59.33],[10.73,59.31],[10.760000000000002,59.31],[10.75,59.29],[10.73,59.29],[10.73,59.23],[10.760000000000002,59.23],[10.77,59.19],[10.79,59.19],[10.79,59.18],[10.82,59.18],[10.82,59.17],[10.850000000000001,59.17],[10.850000000000001,59.18],[10.9,59.18],[10.9,59.15],[10.91,59.15],[10.91,59.14],[10.95,59.14],[10.95,59.18],[10.98,59.18],[10.98,59.19],[10.99,59.19],[11.0,59.17],[11.02,59.17],[11.02,59.15],[11.04,59.15],[11.04,59.14],[11.09,59.14],[11.09,59.18],[11.120000000000001,59.18],[11.120000000000001,59.15],[11.18,59.16],[11.18,59.15],[11.190000000000001,59.15],[11.190000000000001,59.12],[11.21,59.12],[11.21,59.1],[11.25,59.1],[11.25,59.08],[11.190000000000001,59.08],[11.190000000000001,59.07],[11.17,59.06],[11.17,59.05],[11.15,59.05],[11.15,59.04],[11.13,59.03],[11.13,59.0],[11.15,58.99],[11.15,58.98],[11.14,58.98],[11.14,58.94],[11.18,58.94],[11.18,58.93],[11.17,58.93],[11.17,58.92],[11.120000000000001,58.92],[11.120000000000001,58.88],[11.13,58.88],[11.13,58.86],[11.15,58.85],[11.15,58.839999999999996],[11.18,58.839999999999996],[11.18,58.83],[11.190000000000001,58.83],[11.190000000000001,58.82],[11.15,58.81],[11.15,58.77],[11.16,58.77],[11.16,58.75],[11.18,58.74],[11.18,58.71],[11.190000000000001,58.71],[11.190000000000001,58.69],[11.2,58.69],[11.2,58.66],[11.21,58.66],[11.21,58.64],[11.22,58.64],[11.22,58.62],[11.23,58.62],[11.23,58.61],[11.25,58.61],[11.24,58.589999999999996],[11.23,58.589999999999996],[11.23,58.56],[11.24,58.56],[11.24,58.55],[11.23,58.55],[11.23,58.52],[11.24,58.52],[11.24,58.51],[11.27,58.51],[11.280000000000001,58.49],[11.3,58.49],[11.3,58.48],[11.32,58.48],[11.32,58.47],[11.3,58.47],[11.3,58.45],[11.29,58.45],[11.29,58.44],[11.27,58.44],[11.27,58.45],[11.24,58.45],[11.24,58.44],[11.23,58.44],[11.23,58.38],[11.22,58.38],[11.22,58.35],[11.24,58.35],[11.24,58.339999999999996],[11.29,58.339999999999996],[11.29,58.35],[11.32,58.35],[11.32,58.339999999999996],[11.350000000000001,58.339999999999996],[11.350000000000001,58.35],[11.41,58.35],[11.41,58.339999999999996],[11.4,58.339999999999996],[11.4,58.31],[11.440000000000001,58.3],[11.440000000000001,58.28],[11.49,58.28],[11.49,58.29],[11.510000000000002,58.3],[11.510000000000002,58.31],[11.530000000000001,58.32],[11.530000000000001,58.33],[11.55,58.33],[11.55,58.35],[11.57,58.35],[11.57,58.36],[11.600000000000001,58.36],[11.59,58.339999999999996],[11.58,58.339999999999996],[11.58,58.33],[11.56,58.33],[11.55,58.31],[11.54,58.31],[11.54,58.3],[11.52,58.29],[11.52,58.28],[11.5,58.28],[11.5,58.269999999999996],[11.48,58.269999999999996],[11.48,58.26],[11.46,58.26],[11.46,58.25],[11.42,58.25],[11.42,58.24],[11.41,58.24],[11.41,58.2],[11.42,58.2],[11.42,58.18],[11.41,58.18],[11.41,58.19],[11.38,58.19],[11.38,58.15],[11.4,58.15],[11.4,58.14],[11.41,58.14],[11.41,58.12],[11.42,58.12],[11.42,58.11],[11.45,58.11],[11.45,58.06],[11.48,58.06],[11.48,58.05],[11.49,58.05],[11.49,58.01],[11.530000000000001,58.01],[11.530000000000001,58.0],[11.52,58.0],[11.52,57.95],[11.54,57.95],[11.55,57.93],[11.57,57.93],[11.57,57.91],[11.58,57.91],[11.58,57.9],[11.57,57.9],[11.57,57.86],[11.58,57.86],[11.58,57.85],[11.63,57.85],[11.63,57.87],[11.64,57.87],[11.64,57.88],[11.66,57.89],[11.67,57.87],[11.68,57.87],[11.68,57.81],[11.7,57.81],[11.71,57.79],[11.77,57.79],[11.77,57.8],[11.81,57.8],[11.81,57.79],[11.82,57.79],[11.81,57.769999999999996],[11.780000000000001,57.769999999999996],[11.77,57.75],[11.74,57.75],[11.73,57.73],[11.72,57.73],[11.72,57.7],[11.74,57.7],[11.74,57.69],[11.780000000000001,57.69],[11.780000000000001,57.7],[11.79,57.7],[11.79,57.69],[11.870000000000001,57.69],[11.870000000000001,57.68],[11.850000000000001,57.67],[11.850000000000001,57.62],[11.88,57.62],[11.88,57.61],[11.92,57.61],[11.92,57.6],[11.9,57.59],[11.9,57.55],[11.92,57.55],[11.92,57.47],[11.91,57.47],[11.91,57.44],[11.9,57.44],[11.9,57.4],[11.89,57.4],[11.89,57.38],[11.870000000000001,57.38],[11.870000000000001,57.37],[11.86,57.37],[11.850000000000001,57.35],[11.83,57.34],[11.82,57.32],[11.8,57.32],[11.8,57.31],[11.79,57.31],[11.79,57.3],[11.77,57.29],[11.760000000000002,57.269999999999996],[11.74,57.26],[11.74,57.25],[11.72,57.25],[11.72,57.23],[11.7,57.23],[11.690000000000001,57.21],[11.67,57.2],[11.67,57.19],[11.65,57.19],[11.65,57.17],[11.63,57.17],[11.63,57.16],[11.61,57.15],[11.600000000000001,57.13],[11.59,57.13],[11.58,57.11],[11.56,57.11],[11.56,57.1],[11.54,57.09],[11.54,57.08],[11.52,57.07],[11.52,57.06],[11.510000000000002,57.06],[11.5,57.04],[11.48,57.04],[11.48,57.019999999999996],[11.46,57.019999999999996],[11.46,57.0],[11.440000000000001,57.0],[11.440000000000001,56.99],[11.43,56.99],[11.43,56.98],[11.42,56.98],[11.42,56.97],[11.4,56.96],[11.4,56.95],[11.39,56.95],[11.38,56.93],[11.36,56.93],[11.350000000000001,56.91],[11.34,56.91],[11.34,56.9],[11.33,56.9],[11.32,56.88],[11.31,56.88],[11.31,56.87],[11.29,56.87],[11.29,56.85],[11.27,56.85],[11.260000000000002,56.83],[11.25,56.83],[11.25,56.82],[11.23,56.81],[11.23,56.8],[11.21,56.79],[11.21,56.78],[11.190000000000001,56.78],[11.190000000000001,56.76],[11.17,56.76],[11.17,56.74],[11.15,56.74],[11.15,56.73],[11.14,56.73],[11.14,56.72],[11.120000000000001,56.71],[11.120000000000001,56.7],[11.11,56.7],[11.11,56.69],[11.09,56.68],[11.09,56.67],[11.07,56.67],[11.07,56.65],[11.05,56.65],[11.05,56.64],[11.030000000000001,56.63],[11.030000000000001,56.62],[11.02,56.62],[11.010000000000002,56.6],[10.99,56.59],[10.99,56.58],[10.98,56.58],[10.97,56.56],[10.96,56.56],[10.96,56.55],[10.940000000000001,56.55],[10.940000000000001,56.53],[10.92,56.53],[10.92,56.51],[10.9,56.51],[10.89,56.49],[10.879999999999999,56.49],[10.879999999999999,56.48],[10.870000000000001,56.48],[10.870000000000001,56.49],[10.850000000000001,56.49],[10.850000000000001,56.5],[10.79,56.51],[10.79,56.519999999999996],[10.75,56.519999999999996],[10.75,56.53],[10.64,56.53],[10.64,56.519999999999996],[10.57,56.519999999999996],[10.57,56.51],[10.49,56.51],[10.49,56.519999999999996],[10.43,56.519999999999996],[10.43,56.53],[10.4,56.53],[10.39,56.55],[10.370000000000001,56.55],[10.370000000000001,56.56],[10.36,56.56],[10.350000000000001,56.58],[10.34,56.58],[10.34,56.6],[10.3,56.6],[10.3,56.59],[10.29,56.59],[10.280000000000001,56.57],[10.25,56.57],[10.25,56.58],[10.260000000000002,56.58],[10.260000000000002,56.59],[10.280000000000001,56.6],[10.29,56.62],[10.350000000000001,56.62],[10.350000000000001,56.63],[10.36,56.63],[10.36,56.68],[10.350000000000001,56.68],[10.350000000000001,56.69],[10.280000000000001,56.69],[10.280000000000001,56.7],[10.23,56.7],[10.22,56.68],[10.190000000000001,56.68],[10.18,56.7],[10.15,56.7],[10.15,56.71],[10.129999999999999,56.71],[10.14,56.73],[10.15,56.73],[10.15,56.72],[10.17,56.72],[10.17,56.71],[10.22,56.71],[10.22,56.72],[10.3,56.72],[10.3,56.76],[10.29,56.76],[10.29,56.78],[10.280000000000001,56.78],[10.280000000000001,56.81],[10.27,56.81],[10.27,56.89],[10.260000000000002,56.89],[10.260000000000002,56.91],[10.27,56.91],[10.27,56.94],[10.29,56.94],[10.29,56.95],[10.3,56.95],[10.3,56.98],[10.31,56.98],[10.31,56.99],[10.34,56.99],[10.34,57.0],[10.36,57.01],[10.36,57.03],[10.379999999999999,57.04],[10.379999999999999,57.08],[10.39,57.08],[10.39,57.1],[10.41,57.11],[10.41,57.14],[10.43,57.14],[10.43,57.17],[10.440000000000001,57.17],[10.440000000000001,57.18],[10.47,57.18],[10.48,57.2],[10.5,57.2],[10.5,57.21],[10.52,57.21],[10.52,57.22],[10.54,57.22],[10.54,57.24],[10.55,57.24],[10.55,57.269999999999996],[10.54,57.269999999999996],[10.54,57.29],[10.530000000000001,57.29],[10.530000000000001,57.34],[10.52,57.34],[10.52,57.41],[10.530000000000001,57.41],[10.530000000000001,57.43],[10.55,57.43],[10.55,57.46],[10.530000000000001,57.46],[10.530000000000001,57.47],[10.510000000000002,57.48],[10.510000000000002,57.49],[10.5,57.49],[10.5,57.51],[10.47,57.51],[10.46,57.53],[10.45,57.53],[10.440000000000001,57.55],[10.43,57.55],[10.42,57.59],[10.43,57.59],[10.43,57.62],[10.45,57.62],[10.45,57.63],[10.46,57.63],[10.46,57.64],[10.47,57.64],[10.48,57.66],[10.49,57.66],[10.49,57.67],[10.52,57.67],[10.52,57.69],[10.54,57.69],[10.54,57.7],[10.56,57.7],[10.56,57.71],[10.59,57.71],[10.59,57.74],[10.54,57.74],[10.54,57.73],[10.48,57.72],[10.47,57.7],[10.440000000000001,57.7],[10.440000000000001,57.69],[10.42,57.69],[10.41,57.67],[10.350000000000001,57.66],[10.350000000000001,57.64],[10.31,57.64],[10.31,57.63],[10.29,57.63],[10.29,57.62],[10.27,57.62],[10.27,57.61],[10.17,57.6],[10.17,57.59],[9.940000000000001,57.59],[9.940000000000001,57.58],[9.93,57.58],[9.93,57.57],[9.91,57.56],[9.91,57.55],[9.9,57.55],[9.89,57.53],[9.879999999999999,57.53],[9.870000000000001,57.51],[9.84,57.51],[9.83,57.49],[9.79,57.48],[9.780000000000001,57.46],[9.760000000000002,57.45],[9.75,57.41],[9.73,57.41],[9.73,57.39],[9.71,57.39],[9.71,57.38],[9.7,57.38],[9.690000000000001,57.36],[9.68,57.36],[9.68,57.35],[9.66,57.34],[9.66,57.33],[9.65,57.33],[9.64,57.31],[9.629999999999999,57.31],[9.620000000000001,57.29],[9.600000000000001,57.28],[9.600000000000001,57.269999999999996],[9.58,57.269999999999996],[9.58,57.25],[9.56,57.24],[9.56,57.23],[9.530000000000001,57.23],[9.52,57.21],[9.5,57.21],[9.5,57.2],[9.47,57.2],[9.46,57.18],[9.440000000000001,57.18],[9.440000000000001,57.17],[9.41,57.17],[9.41,57.16],[9.379999999999999,57.16],[9.379999999999999,57.15],[9.3,57.15],[9.3,57.14],[9.17,57.14],[9.17,57.13],[9.129999999999999,57.13],[9.129999999999999,57.14],[9.08,57.14],[9.08,57.15],[9.04,57.15],[9.04,57.16],[9.010000000000002,57.16],[9.010000000000002,57.15],[8.940000000000001,57.15],[8.93,57.13],[8.91,57.13],[8.91,57.12],[8.86,57.12],[8.86,57.11],[8.81,57.11],[8.81,57.1],[8.73,57.1],[8.73,57.11],[8.66,57.11],[8.66,57.12],[8.58,57.12],[8.58,57.11],[8.57,57.11],[8.56,57.09],[8.55,57.09],[8.55,57.08],[8.540000000000001,57.08],[8.530000000000001,57.06],[8.51,57.06],[8.51,57.07],[8.47,57.07],[8.47,57.08],[8.440000000000001,57.08],[8.440000000000001,57.09],[8.41,57.09],[8.41,57.1],[8.370000000000001,57.1],[8.370000000000001,57.11],[8.34,57.11],[8.34,57.12],[8.3,57.12],[8.3,57.13],[8.27,57.13],[8.27,57.14],[8.23,57.14],[8.23,57.15],[8.2,57.15],[8.2,57.16],[8.16,57.16],[8.16,57.17],[8.1,57.18],[8.1,57.19],[8.06,57.19],[8.06,57.2],[8.030000000000001,57.2],[8.030000000000001,57.21],[7.99,57.21],[7.99,57.22],[7.960000000000001,57.22],[7.960000000000001,57.23],[7.92,57.23],[7.92,57.24],[7.890000000000001,57.24],[7.890000000000001,57.25],[7.85,57.25],[7.85,57.26],[7.82,57.26],[7.82,57.269999999999996],[7.78,57.269999999999996],[7.78,57.28],[7.75,57.28],[7.75,57.29],[7.710000000000001,57.29],[7.710000000000001,57.3],[7.68,57.3],[7.68,57.31],[7.640000000000001,57.31],[7.640000000000001,57.32],[7.61,57.32],[7.61,57.33],[7.57,57.33],[7.57,57.34],[7.540000000000001,57.34],[7.540000000000001,57.35],[7.5,57.35],[7.5,57.36],[7.470000000000001,57.36],[7.470000000000001,57.37],[7.42,57.37],[7.42,57.38],[7.390000000000001,57.38],[7.390000000000001,57.39],[7.35,57.39],[7.35,57.4],[7.32,57.4],[7.32,57.41],[7.28,57.41],[7.28,57.42],[7.25,57.42],[7.25,57.43],[7.210000000000001,57.43],[7.210000000000001,57.44],[7.18,57.44],[7.18,57.45],[7.140000000000001,57.45],[7.140000000000001,57.46],[7.11,57.46],[7.11,57.47],[7.07,57.47],[7.07,57.48],[7.04,57.48],[7.04,57.49],[6.99,57.49],[6.99,57.5],[6.96,57.5],[6.96,57.51],[6.880000000000001,57.519999999999996],[6.880000000000001,57.53],[6.8500000000000005,57.53],[6.8500000000000005,57.54],[6.8100000000000005,57.54],[6.8100000000000005,57.55],[6.78,57.55],[6.78,57.56],[6.74,57.56],[6.74,57.57],[6.71,57.57],[6.71,57.58],[6.66,57.58],[6.66,57.59],[6.630000000000001,57.59],[6.630000000000001,57.6],[6.59,57.6],[6.59,57.61],[6.550000000000001,57.61],[6.550000000000001,57.62],[6.5200000000000005,57.62],[6.5200000000000005,57.63],[6.48,57.63],[6.48,57.64],[6.44,57.64],[6.44,57.65],[6.4,57.65],[6.4,57.66],[6.36,57.66],[6.36,57.67],[6.33,57.67],[6.33,57.68],[6.29,57.68],[6.29,57.69],[6.26,57.69],[6.26,57.7],[6.21,57.7],[6.21,57.71],[6.17,57.71],[6.17,57.72],[6.140000000000001,57.72],[6.140000000000001,57.73],[6.1000000000000005,57.73],[6.1000000000000005,57.74],[6.07,57.74],[6.07,57.75],[6.0200000000000005,57.75],[6.0200000000000005,57.76],[5.98,57.76],[5.98,57.769999999999996],[5.95,57.769999999999996],[5.95,57.78],[5.91,57.78],[5.91,57.79],[5.88,57.79],[5.88,57.8],[5.83,57.8],[5.83,57.81],[5.79,57.81],[5.79,57.82],[5.76,57.82],[5.76,57.83],[5.720000000000001,57.83],[5.720000000000001,57.84],[5.67,57.84],[5.67,57.85],[5.640000000000001,57.85],[5.640000000000001,57.86],[5.5600000000000005,57.87],[5.5600000000000005,57.88],[5.5200000000000005,57.88],[5.5200000000000005,57.89],[5.48,57.89],[5.48,57.9],[5.44,57.9],[5.44,57.91],[5.41,57.91],[5.41,57.92],[5.36,57.92],[5.36,57.93],[5.32,57.93],[5.32,57.94],[5.29,57.94],[5.29,57.95],[5.24,57.95],[5.24,57.96],[5.2,57.96],[5.2,57.97],[5.16,57.97],[5.16,57.98],[5.12,57.98],[5.12,57.99],[5.09,57.99],[5.09,58.0],[5.11,58.01],[5.11,58.03],[5.13,58.03],[5.13,58.05],[5.140000000000001,58.05],[5.140000000000001,58.06],[5.15,58.06],[5.15,58.07],[5.17,58.08],[5.17,58.089999999999996],[5.180000000000001,58.089999999999996],[5.180000000000001,58.1],[5.19,58.1],[5.19,58.12],[5.21,58.12],[5.21,58.14],[5.220000000000001,58.14],[5.220000000000001,58.15],[5.24,58.16],[5.24,58.17],[5.25,58.17],[5.26,58.19],[5.2700000000000005,58.19],[5.2700000000000005,58.2],[5.29,58.21],[5.29,58.23],[5.3,58.23],[5.3,58.24],[5.3100000000000005,58.24],[5.3100000000000005,58.25],[5.32,58.25],[5.33,58.269999999999996],[5.34,58.269999999999996],[5.34,58.28],[5.3500000000000005,58.28],[5.3500000000000005,58.29],[5.37,58.3],[5.37,58.32],[5.38,58.32],[5.38,58.33],[5.4,58.339999999999996],[5.4,58.35],[5.41,58.35],[5.42,58.37],[5.430000000000001,58.37],[5.430000000000001,58.38],[5.45,58.39],[5.45,58.41],[5.470000000000001,58.41],[5.470000000000001,58.43],[5.49,58.44],[5.49,58.45],[5.5,58.45],[5.51,58.47],[5.5200000000000005,58.47],[5.5200000000000005,58.48],[5.53,58.48],[5.54,58.5],[5.550000000000001,58.5],[5.550000000000001,58.52],[5.57,58.52],[5.57,58.54],[5.58,58.54],[5.58,58.55],[5.6000000000000005,58.55],[5.6000000000000005,58.57],[5.61,58.57],[5.62,58.589999999999996],[5.640000000000001,58.589999999999996],[5.640000000000001,58.57],[5.66,58.56],[5.66,58.55],[5.69,58.55],[5.69,58.54],[5.73,58.54],[5.73,58.53],[5.7700000000000005,58.53],[5.7700000000000005,58.52],[5.800000000000001,58.52],[5.800000000000001,58.49],[5.84,58.49],[5.84,58.48],[5.86,58.48],[5.86,58.47],[5.88,58.47],[5.88,58.46],[5.92,58.46],[5.92,58.45],[5.94,58.45],[5.94,58.43],[5.95,58.43],[5.95,58.42],[6.01,58.42],[6.01,58.4],[6.0200000000000005,58.4],[6.0200000000000005,58.39],[6.04,58.39],[6.04,58.38],[6.08,58.38],[6.08,58.37],[6.1000000000000005,58.37],[6.1000000000000005,58.36],[6.130000000000001,58.36],[6.130000000000001,58.35],[6.15,58.35],[6.15,58.339999999999996],[6.21,58.339999999999996],[6.21,58.33],[6.25,58.33],[6.25,58.32],[6.32,58.32],[6.34,58.28],[6.380000000000001,58.28],[6.380000000000001,58.269999999999996],[6.45,58.269999999999996],[6.45,58.26],[6.58,58.26],[6.58,58.25],[6.61,58.25],[6.61,58.24],[6.66,58.24],[6.66,58.26],[6.7,58.26],[6.7,58.24],[6.71,58.24],[6.71,58.23],[6.75,58.23],[6.75,58.24],[6.7700000000000005,58.24],[6.7700000000000005,58.25],[6.800000000000001,58.25],[6.800000000000001,58.26],[6.84,58.26],[6.83,58.24],[6.79,58.24],[6.79,58.23],[6.76,58.23],[6.76,58.21],[6.71,58.21],[6.71,58.2],[6.69,58.2],[6.69,58.19],[6.68,58.19],[6.67,58.17],[6.66,58.17],[6.66,58.18],[6.62,58.18],[6.62,58.15],[6.61,58.15],[6.61,58.13],[6.58,58.13],[6.58,58.1],[6.59,58.1],[6.59,58.089999999999996],[6.61,58.089999999999996],[6.62,58.07],[6.66,58.07],[6.66,58.08],[6.68,58.08],[6.68,58.07],[6.79,58.07],[6.79,58.12],[6.83,58.12],[6.83,58.15],[6.8100000000000005,58.15],[6.8100000000000005,58.18],[6.82,58.18],[6.82,58.19],[6.84,58.19],[6.84,58.16],[6.86,58.16],[6.86,58.15],[6.9,58.15],[6.9,58.14],[7.01,58.14],[7.01,58.15],[7.0200000000000005,58.15],[7.0200000000000005,58.14],[7.03,58.14],[7.03,58.11],[7.050000000000001,58.11],[7.050000000000001,58.1],[7.03,58.1],[7.03,58.089999999999996],[7.0200000000000005,58.089999999999996],[7.0200000000000005,58.08],[7.0,58.07],[7.0,58.04],[7.03,58.04],[7.04,58.06],[7.08,58.06],[7.08,58.07],[7.11,58.07],[7.11,58.08],[7.130000000000001,58.08],[7.130000000000001,58.07],[7.12,58.07],[7.12,58.05],[7.07,58.05],[7.07,58.04],[7.050000000000001,58.04],[7.050000000000001,58.03],[7.04,58.03],[7.04,57.99],[7.09,57.99],[7.09,58.0],[7.11,58.0],[7.12,58.04],[7.17,58.04],[7.17,58.05],[7.19,58.05],[7.19,58.04],[7.26,58.04],[7.26,58.03],[7.32,58.03],[7.32,58.04],[7.33,58.04],[7.34,58.019999999999996],[7.4,58.019999999999996],[7.4,58.01],[7.44,58.01],[7.44,58.019999999999996],[7.49,58.019999999999996],[7.49,58.01],[7.6,58.01],[7.6,58.019999999999996],[7.68,58.019999999999996],[7.68,58.05],[7.720000000000001,58.05],[7.720000000000001,58.06],[7.790000000000001,58.06],[7.800000000000001,58.08],[7.890000000000001,58.08],[7.890000000000001,58.07],[7.92,58.07],[7.93,58.089999999999996],[7.94,58.089999999999996],[7.94,58.08],[7.970000000000001,58.08],[7.970000000000001,58.1],[7.99,58.1],[7.99,58.13],[7.970000000000001,58.13],[7.970000000000001,58.14],[8.02,58.14],[8.02,58.15],[8.040000000000001,58.15],[8.040000000000001,58.21],[8.05,58.21],[8.05,58.22],[8.07,58.22],[8.07,58.21],[8.08,58.21],[8.08,58.17],[8.07,58.17],[8.07,58.12],[8.11,58.12],[8.11,58.11],[8.16,58.11],[8.16,58.12],[8.17,58.12],[8.17,58.13],[8.190000000000001,58.14],[8.190000000000001,58.15],[8.21,58.14],[8.21,58.12],[8.24,58.12],[8.24,58.15],[8.25,58.15],[8.25,58.16],[8.27,58.16],[8.27,58.17],[8.3,58.17],[8.3,58.2],[8.290000000000001,58.2],[8.290000000000001,58.22],[8.3,58.22],[8.3,58.21],[8.34,58.21],[8.34,58.2],[8.38,58.2],[8.38,58.23],[8.42,58.25],[8.42,58.28],[8.440000000000001,58.28],[8.440000000000001,58.26],[8.5,58.26],[8.5,58.269999999999996],[8.52,58.269999999999996],[8.52,58.29],[8.530000000000001,58.29],[8.530000000000001,58.3],[8.56,58.3],[8.56,58.31],[8.58,58.32],[8.58,58.339999999999996],[8.65,58.339999999999996],[8.65,58.36],[8.68,58.36],[8.68,58.37],[8.7,58.37],[8.7,58.38],[8.71,58.38],[8.71,58.4],[8.72,58.4],[8.72,58.41],[8.74,58.41],[8.74,58.43],[8.76,58.43],[8.76,58.46],[8.77,58.46],[8.77,58.47],[8.790000000000001,58.47],[8.790000000000001,58.48],[8.82,58.48],[8.82,58.49],[8.84,58.49],[8.84,58.5],[8.870000000000001,58.5],[8.870000000000001,58.51],[8.9,58.51],[8.9,58.52],[8.98,58.53],[8.98,58.56],[8.96,58.57],[8.96,58.589999999999996],[8.95,58.589999999999996],[8.96,58.61],[9.08,58.62],[9.08,58.63],[9.100000000000001,58.64],[9.100000000000001,58.65],[9.14,58.65],[9.14,58.68],[9.129999999999999,58.68],[9.129999999999999,58.69],[9.11,58.69],[9.11,58.71],[9.100000000000001,58.71],[9.100000000000001,58.72],[9.07,58.72],[9.07,58.74],[9.08,58.74],[9.09,58.76],[9.14,58.76],[9.14,58.75],[9.18,58.75],[9.18,58.76],[9.190000000000001,58.76],[9.190000000000001,58.75],[9.33,58.75],[9.33,58.76],[9.350000000000001,58.76],[9.350000000000001,58.77],[9.379999999999999,58.77],[9.39,58.79],[9.42,58.79],[9.42,58.85],[9.39,58.85],[9.39,58.839999999999996],[9.32,58.839999999999996],[9.32,58.83],[9.31,58.83],[9.31,58.839999999999996],[9.3,58.839999999999996],[9.31,58.88],[9.32,58.88],[9.32,58.87],[9.41,58.87],[9.43,58.91],[9.440000000000001,58.91],[9.440000000000001,58.9],[9.47,58.9],[9.47,58.89],[9.52,58.89],[9.52,58.92],[9.5,58.92],[9.5,58.93],[9.61,58.93],[9.61,58.94],[9.629999999999999,58.94],[9.629999999999999,58.95],[9.64,58.95],[9.65,58.97],[9.67,58.97],[9.67,58.98],[9.68,58.98],[9.68,59.0],[9.72,59.0],[9.72,59.03],[9.7,59.03],[9.7,59.04],[9.66,59.04],[9.66,59.05],[9.629999999999999,59.05],[9.629999999999999,59.06],[9.620000000000001,59.06],[9.620000000000001,59.08],[9.61,59.08],[9.61,59.1],[9.57,59.1],[9.57,59.11],[9.55,59.11],[9.55,59.13],[9.56,59.13],[9.56,59.12],[9.600000000000001,59.12],[9.600000000000001,59.13],[9.61,59.13],[9.61,59.12],[9.629999999999999,59.12],[9.629999999999999,59.11],[9.65,59.1],[9.66,59.06],[9.690000000000001,59.06],[9.690000000000001,59.089999999999996],[9.7,59.089999999999996],[9.7,59.1],[9.72,59.1],[9.72,59.07],[9.760000000000002,59.07],[9.760000000000002,59.06],[9.81,59.06],[9.82,59.02],[9.83,59.02],[9.83,59.01],[9.850000000000001,59.01],[9.850000000000001,58.98],[9.879999999999999,58.98],[9.879999999999999,58.97],[9.98,58.97],[9.98,58.98],[9.99,58.98],[9.99,58.97],[10.02,58.97],[10.02,58.98],[10.04,58.98],[10.04,59.02],[10.02,59.02],[10.02,59.04],[10.030000000000001,59.04],[10.030000000000001,59.05],[10.05,59.05],[10.05,59.04],[10.07,59.03],[10.07,59.01],[10.100000000000001,59.01],[10.100000000000001,59.03],[10.11,59.03],[10.11,59.04],[10.14,59.04],[10.14,59.01],[10.17,59.01],[10.17,59.02],[10.2,59.02],[10.2,59.03],[10.22,59.03],[10.22,59.04],[10.23,59.04],[10.23,59.07],[10.22,59.07],[10.22,59.089999999999996],[10.23,59.089999999999996],[10.23,59.1],[10.25,59.1],[10.25,59.089999999999996],[10.260000000000002,59.089999999999996],[10.260000000000002,59.07],[10.31,59.07],[10.31,59.11],[10.3,59.11],[10.3,59.12],[10.280000000000001,59.12],[10.280000000000001,59.13],[10.29,59.13],[10.29,59.14],[10.31,59.14],[10.31,59.13],[10.34,59.13],[10.34,59.17],[10.33,59.17],[10.33,59.2],[10.350000000000001,59.21],[10.350000000000001,59.22],[10.370000000000001,59.22],[10.370000000000001,59.17],[10.41,59.17],[10.41,59.18],[10.42,59.18],[10.42,59.17],[10.46,59.17],[10.46,59.18],[10.47,59.18],[10.47,59.21],[10.46,59.21],[10.46,59.22],[10.47,59.22],[10.47,59.26],[10.5,59.26],[10.5,59.29],[10.510000000000002,59.29],[10.510000000000002,59.32],[10.5,59.32],[10.5,59.33],[10.48,59.339999999999996],[10.48,59.35],[10.46,59.35],[10.46,59.36],[10.47,59.36],[10.47,59.43],[10.45,59.43],[10.45,59.44],[10.370000000000001,59.44],[10.370000000000001,59.46],[10.36,59.46],[10.36,59.47],[10.33,59.47],[10.33,59.48],[10.32,59.48],[10.31,59.5],[10.29,59.5],[10.29,59.52],[10.27,59.53],[10.27,59.54],[10.25,59.54],[10.25,59.55],[10.24,59.55],[10.24,59.57],[10.25,59.57],[10.25,59.56],[10.280000000000001,59.56],[10.280000000000001,59.55],[10.3,59.55],[10.3,59.54],[10.34,59.53],[10.34,59.52],[10.370000000000001,59.52],[10.379999999999999,59.54],[10.39,59.54],[10.39,59.58],[10.4,59.58],[10.4,59.62],[10.41,59.62],[10.41,59.65],[10.39,59.66],[10.379999999999999,59.68],[10.36,59.68],[10.36,59.69],[10.280000000000001,59.7],[10.27,59.72],[10.25,59.72],[10.25,59.73],[10.24,59.73],[10.24,59.75],[10.280000000000001,59.75],[10.280000000000001,59.74],[10.3,59.74],[10.31,59.72],[10.33,59.72],[10.33,59.71],[10.370000000000001,59.71],[10.370000000000001,59.7],[10.4,59.7],[10.4,59.69],[10.41,59.69],[10.42,59.67],[10.46,59.66],[10.46,59.65],[10.45,59.65],[10.45,59.62],[10.440000000000001,59.62],[10.440000000000001,59.58],[10.45,59.58],[10.45,59.57],[10.43,59.56],[10.43,59.55],[10.42,59.55],[10.42,59.52],[10.49,59.52],[10.49,59.53],[10.52,59.53],[10.52,59.54],[10.56,59.54],[10.56,59.55],[10.59,59.55],[10.59,59.56],[10.61,59.56],[10.61,59.62],[10.600000000000001,59.62],[10.600000000000001,59.66],[10.58,59.66],[10.58,59.67],[10.56,59.67],[10.56,59.68],[10.52,59.68],[10.52,59.74],[10.510000000000002,59.74],[10.510000000000002,59.76],[10.5,59.76],[10.5,59.8],[10.49,59.8],[10.49,59.82],[10.48,59.82],[10.48,59.83],[10.49,59.83],[10.49,59.85],[10.5,59.85],[10.5,59.86],[10.530000000000001,59.86],[10.530000000000001,59.88],[10.54,59.88],[10.54,59.89],[10.629999999999999,59.89],[10.64,59.91],[10.73,59.91],[10.73,59.9]],[[10.379999999999999,59.15],[10.379999999999999,59.1],[10.39,59.1],[10.39,59.07],[10.440000000000001,59.07],[10.440000000000001,59.1],[10.43,59.1],[10.42,59.16],[10.39,59.16],[10.39,59.15],[10.379999999999999,59.15]],[[10.84,59.11],[10.84,59.08],[10.89,59.08],[10.89,59.06],[10.92,59.06],[10.92,59.04],[10.96,59.04],[10.96,59.08],[10.93,59.08],[10.93,59.1],[10.92,59.1],[10.92,59.11],[10.89,59.11],[10.89,59.12],[10.850000000000001,59.12],[10.850000000000001,59.11],[10.84,59.11]],[[11.06,59.03],[11.06,59.05],[11.08,59.05],[11.08,59.08],[11.06,59.08],[11.06,59.089999999999996],[10.99,59.089999999999996],[10.99,59.03],[11.06,59.03]],[[10.98,58.91],[10.98,58.88],[10.99,58.88],[10.99,58.87],[11.06,58.87],[11.06,58.9],[11.030000000000001,58.9],[11.030000000000001,58.92],[11.0,58.92],[11.0,58.91],[10.98,58.91]],[[8.81,58.47],[8.81,58.44],[8.85,58.44],[8.85,58.45],[8.88,58.45],[8.88,58.48],[8.84,58.48],[8.84,58.47],[8.81,58.47]],[[6.58,58.21],[6.58,58.24],[6.54,58.24],[6.54,58.21],[6.58,58.21]],[[6.62,58.2],[6.62,58.23],[6.59,58.23],[6.59,58.2],[6.62,58.2]],[[6.86,58.1],[6.86,58.07],[6.9,58.07],[6.9,58.089999999999996],[6.91,58.089999999999996],[6.91,58.12],[6.880000000000001,58.12],[6.880000000000001,58.1],[6.86,58.1]],[[6.970000000000001,58.05],[6.970000000000001,58.07],[6.99,58.07],[6.99,58.11],[6.94,58.11],[6.94,58.05],[6.970000000000001,58.05]],[[11.67,57.66],[11.67,57.7],[11.64,57.7],[11.64,57.66],[11.67,57.66]],[[11.75,57.61],[11.75,57.57],[11.760000000000002,57.57],[11.760000000000002,57.55],[11.79,57.55],[11.79,57.57],[11.8,57.57],[11.8,57.65],[11.74,57.65],[11.74,57.61],[11.75,57.61]],[[11.0,57.31],[11.0,57.3],[10.92,57.3],[10.92,57.29],[10.9,57.28],[10.9,57.269999999999996],[10.879999999999999,57.269999999999996],[10.879999999999999,57.24],[10.91,57.24],[10.91,57.25],[10.92,57.25],[10.92,57.24],[10.96,57.24],[10.96,57.23],[10.97,57.23],[10.97,57.21],[10.99,57.21],[10.99,57.2],[11.02,57.2],[11.02,57.22],[11.030000000000001,57.22],[11.030000000000001,57.23],[11.05,57.23],[11.05,57.24],[11.07,57.24],[11.07,57.25],[11.09,57.25],[11.08,57.31],[11.06,57.31],[11.06,57.32],[11.02,57.32],[11.02,57.31],[11.0,57.31]]],[[[6.630000000000001,59.05],[6.640000000000001,59.05],[6.640000000000001,59.04],[6.61,59.04],[6.61,59.03],[6.5600000000000005,59.03],[6.5600000000000005,59.02],[6.45,59.02],[6.45,59.01],[6.4,59.01],[6.4,59.0],[6.3100000000000005,59.0],[6.3100000000000005,58.99],[6.25,58.99],[6.25,58.98],[6.23,58.98],[6.23,58.97],[6.2,58.97],[6.2,58.96],[6.16,58.95],[6.16,58.94],[6.130000000000001,58.94],[6.130000000000001,58.93],[6.11,58.92],[6.11,58.88],[6.12,58.88],[6.12,58.87],[6.15,58.87],[6.15,58.86],[6.26,58.86],[6.2700000000000005,58.839999999999996],[6.19,58.839999999999996],[6.19,58.83],[6.18,58.83],[6.18,58.839999999999996],[6.140000000000001,58.839999999999996],[6.140000000000001,58.85],[6.12,58.85],[6.12,58.86],[6.1000000000000005,58.86],[6.1000000000000005,58.87],[6.08,58.87],[6.07,58.89],[6.04,58.89],[6.04,58.9],[6.01,58.9],[6.01,58.89],[6.0,58.89],[6.0,58.9],[5.970000000000001,58.9],[5.970000000000001,58.94],[5.96,58.94],[5.96,58.95],[5.970000000000001,58.95],[5.970000000000001,58.97],[6.0,58.97],[6.0,59.0],[6.0200000000000005,59.01],[6.0200000000000005,59.02],[6.04,59.02],[6.04,59.01],[6.07,59.01],[6.07,59.0],[6.0600000000000005,59.0],[6.0600000000000005,58.99],[6.0200000000000005,58.99],[6.0200000000000005,58.98],[6.01,58.98],[6.01,58.94],[6.03,58.94],[6.04,58.92],[6.09,58.92],[6.09,58.93],[6.11,58.94],[6.12,58.96],[6.15,58.96],[6.15,58.97],[6.17,58.97],[6.17,58.98],[6.18,58.98],[6.18,58.99],[6.2,58.99],[6.2,59.0],[6.23,59.0],[6.23,59.01],[6.25,59.01],[6.25,59.02],[6.390000000000001,59.02],[6.390000000000001,59.03],[6.44,59.03],[6.44,59.04],[6.5,59.04],[6.5,59.05],[6.58,59.05],[6.58,59.06],[6.630000000000001,59.06],[6.630000000000001,59.05]]],[[[6.17,59.13],[6.16,59.13],[6.16,59.14],[6.140000000000001,59.14],[6.140000000000001,59.15],[6.17,59.15],[6.17,59.13]]],[[[6.45,59.32],[6.46,59.32],[6.46,59.31],[6.41,59.31],[6.41,59.3],[6.3500000000000005,59.3],[6.3500000000000005,59.29],[6.33,59.29],[6.33,59.28],[6.2700000000000005,59.27],[6.28,59.29],[6.300000000000001,59.29],[6.300000000000001,59.3],[6.33,59.3],[6.33,59.31],[6.3500000000000005,59.31],[6.3500000000000005,59.32],[6.380000000000001,59.32],[6.380000000000001,59.33],[6.45,59.33],[6.45,59.32]]]]}}]}