{"type":"FeatureCollection","name":"tidal_model_domain","features":[{"type":"Feature","properties":{"kind":"domain","atlases":["CMEMS_IBI"],"source_file":"ibi_2025-09.nc","wet_cells":321722,"grid_deg":0.05,"area_deg2":250.69},"geometry":{"type":"MultiPolygon","coordinates":[[[[-8.85,42.4],[-8.75,42.4],[-8.75,42.25],[-8.7,42.25],[-8.7,42.2],[-8.8,42.2],[-8.8,42.15],[-8.9,42.1],[-8.9,41.7],[-8.8,41.65],[-8.8,41.35],[-8.75,41.35],[-8.75,41.25],[-8.7,41.25],[-8.7,41.15],[-8.65,41.15],[-8.65,40.85],[-8.7,40.85],[-8.7,40.7],[-8.8,40.65],[-8.8,40.4],[-8.85,40.4],[-8.85,40.1],[-8.9,40.1],[-8.9,39.95],[-8.95,39.95],[-8.95,39.85],[-9.0,39.85],[-9.0,39.8],[-9.05,39.8],[-9.05,39.7],[-9.1,39.7],[-9.1,39.55],[-9.15,39.55],[-9.2,39.45],[-9.25,39.45],[-9.25,39.4],[-9.35,39.4],[-9.35,39.15],[-9.4,39.15],[-9.4,38.95],[-9.45,38.95],[-9.45,38.85],[-9.5,38.85],[-9.5,38.7],[-9.3,38.7],[-9.3,38.65],[-9.2,38.65],[-9.2,38.45],[-8.85,38.45],[-8.85,38.4],[-8.8,38.4],[-8.8,37.4],[-8.9,37.35],[-8.9,37.05],[-8.75,37.05],[-8.75,37.1],[-8.1,37.1],[-8.1,37.0],[-7.75,37.0],[-7.699999999999999,37.1],[-7.6,37.1],[-7.6,37.15],[-7.35,37.15],[-7.35,37.2],[-6.949999999999999,37.2],[-6.949999999999999,37.15],[-6.85,37.15],[-6.85,37.1],[-6.699999999999999,37.1],[-6.65,37.0],[-6.449999999999999,36.95],[-6.449999999999999,36.85],[-6.4,36.85],[-6.4,36.65],[-6.199999999999999,36.6],[-6.199999999999999,36.55],[-6.25,36.55],[-6.25,36.4],[-6.15,36.35],[-6.15,36.3],[-6.1,36.3],[-6.1,36.2],[-5.9,36.2],[-5.9,36.15],[-5.85,36.15],[-5.85,36.1],[-5.75,36.1],[-5.75,36.05],[-5.449999999999999,36.05],[-5.449999999999999,36.15],[-5.35,36.15],[-5.35,36.2],[-5.25,36.25],[-5.25,36.35],[-5.15,36.4],[-5.15,36.45],[-4.949999999999999,36.45],[-4.949999999999999,36.5],[-4.65,36.5],[-4.6,36.6],[-4.5,36.6],[-4.5,36.65],[-4.449999999999999,36.65],[-4.449999999999999,36.7],[-4.1,36.7],[-4.1,36.75],[-3.5999999999999996,36.75],[-3.5999999999999996,36.7],[-3.3499999999999996,36.7],[-3.3499999999999996,36.75],[-2.8500000000000014,36.75],[-2.8500000000000014,36.7],[-2.6000000000000014,36.7],[-2.6000000000000014,36.85],[-2.3000000000000007,36.85],[-2.25,36.75],[-2.0500000000000007,36.75],[-2.0500000000000007,36.8],[-2.0,36.8],[-2.0,36.9],[-1.9499999999999993,36.9],[-1.9499999999999993,36.95],[-1.8999999999999986,36.95],[-1.8999999999999986,37.05],[-1.8500000000000014,37.05],[-1.8500000000000014,37.2],[-1.8000000000000007,37.2],[-1.75,37.3],[-1.6999999999999993,37.3],[-1.6499999999999986,37.4],[-1.5500000000000007,37.4],[-1.5500000000000007,37.45],[-1.4499999999999993,37.45],[-1.4499999999999993,37.5],[-1.3500000000000014,37.5],[-1.3500000000000014,37.55],[-1.1999999999999993,37.55],[-1.1999999999999993,37.6],[-0.6999999999999993,37.6],[-0.6999999999999993,37.8],[-0.75,37.8],[-0.75,37.9],[-0.6499999999999986,37.95],[-0.6499999999999986,38.15],[-0.6000000000000014,38.15],[-0.6000000000000014,38.2],[-0.5,38.2],[-0.5,38.35],[-0.3999999999999986,38.35],[-0.3999999999999986,38.45],[-0.25,38.45],[-0.25,38.5],[-0.05000000000000071,38.55],[0.0,38.65],[0.1999999999999993,38.7],[0.1999999999999993,38.85],[0.0,38.85],[0.0,38.9],[-0.10000000000000142,38.9],[-0.10000000000000142,38.95],[-0.1999999999999993,39.0],[-0.1999999999999993,39.2],[-0.25,39.2],[-0.25,39.3],[-0.3000000000000007,39.3],[-0.3000000000000007,39.35],[-0.3500000000000014,39.35],[-0.3500000000000014,39.5],[-0.3000000000000007,39.5],[-0.3000000000000007,39.6],[-0.1999999999999993,39.65],[-0.1999999999999993,39.75],[-0.10000000000000142,39.8],[-0.10000000000000142,39.9],[0.0,39.9],[0.0,39.95],[0.05000000000000071,39.95],[0.05000000000000071,40.05],[0.15000000000000213,40.05],[0.15000000000000213,40.15],[0.1999999999999993,40.15],[0.25,40.25],[0.3500000000000014,40.25],[0.3500000000000014,40.35],[0.4499999999999993,40.4],[0.4499999999999993,40.45],[0.5,40.45],[0.5500000000000007,40.55],[0.6999999999999993,40.55],[0.6999999999999993,40.6],[0.8000000000000007,40.65],[0.8000000000000007,40.9],[0.8500000000000014,40.9],[0.9000000000000021,41.0],[1.1000000000000014,41.05],[1.1000000000000014,41.1],[1.5,41.15],[1.5,41.2],[1.8000000000000007,41.2],[1.8000000000000007,41.25],[2.1000000000000014,41.25],[2.1000000000000014,41.3],[2.150000000000002,41.3],[2.150000000000002,41.4],[2.25,41.4],[2.25,41.45],[2.4499999999999993,41.5],[2.4499999999999993,41.550000000000004],[2.5500000000000007,41.550000000000004],[2.5500000000000007,41.6],[2.650000000000002,41.6],[2.650000000000002,41.65],[2.8000000000000007,41.65],[2.8000000000000007,41.7],[2.9499999999999993,41.7],[2.9499999999999993,41.75],[3.0500000000000007,41.75],[3.0500000000000007,41.85],[3.150000000000002,41.85],[3.150000000000002,41.9],[3.1999999999999993,41.9],[3.1999999999999993,42.1],[3.1000000000000014,42.1],[3.1000000000000014,42.25],[3.150000000000002,42.25],[3.150000000000002,42.5],[3.0500000000000007,42.550000000000004],[3.0500000000000007,43.050000000000004],[3.150000000000002,43.1],[3.1999999999999993,43.2],[3.3000000000000007,43.2],[3.3000000000000007,43.25],[3.5500000000000007,43.25],[3.5500000000000007,43.35],[3.650000000000002,43.35],[3.650000000000002,43.4],[3.8000000000000007,43.4],[3.8500000000000014,43.5],[3.9499999999999993,43.5],[3.9499999999999993,43.550000000000004],[4.100000000000001,43.550000000000004],[4.150000000000002,43.45],[4.600000000000001,43.45],[4.600000000000001,43.35],[4.900000000000002,43.35],[4.900000000000002,43.45],[4.949999999999999,43.45],[4.949999999999999,43.4],[5.0,43.4],[5.0,36.8],[4.949999999999999,36.8],[4.949999999999999,36.85],[4.800000000000001,36.85],[4.800000000000001,36.9],[3.6999999999999993,36.9],[3.6999999999999993,36.85],[3.6000000000000014,36.85],[3.6000000000000014,36.8],[3.5,36.8],[3.5,36.75],[3.400000000000002,36.75],[3.400000000000002,36.8],[3.1999999999999993,36.8],[3.1999999999999993,36.75],[3.0500000000000007,36.75],[3.0500000000000007,36.8],[2.8500000000000014,36.8],[2.8500000000000014,36.7],[2.75,36.7],[2.75,36.65],[2.650000000000002,36.65],[2.650000000000002,36.6],[2.400000000000002,36.6],[2.400000000000002,36.65],[2.25,36.65],[2.25,36.6],[2.1000000000000014,36.6],[2.1000000000000014,36.55],[2.0500000000000007,36.55],[2.0500000000000007,36.6],[1.8500000000000014,36.6],[1.8500000000000014,36.55],[1.1500000000000021,36.55],[1.1000000000000014,36.45],[0.9000000000000021,36.45],[0.9000000000000021,36.35],[0.6500000000000021,36.35],[0.6500000000000021,36.3],[0.5500000000000007,36.3],[0.5,36.2],[0.3500000000000014,36.2],[0.3500000000000014,36.15],[0.15000000000000213,36.1],[0.15000000000000213,36.05],[0.10000000000000142,36.05],[0.10000000000000142,35.9],[0.05000000000000071,35.9],[0.05000000000000071,35.85],[-0.05000000000000071,35.85],[-0.05000000000000071,35.8],[-0.3000000000000007,35.8],[-0.3000000000000007,35.9],[-0.5,35.9],[-0.5,35.8],[-0.6000000000000014,35.8],[-0.6000000000000014,35.7],[-1.0,35.7],[-1.0,35.65],[-1.1999999999999993,35.6],[-1.1999999999999993,35.45],[-1.25,35.45],[-1.25,35.35],[-1.5500000000000007,35.3],[-1.6000000000000014,35.2],[-1.6999999999999993,35.2],[-1.6999999999999993,35.15],[-1.8500000000000014,35.15],[-1.8500000000000014,35.1],[-2.3000000000000007,35.1],[-2.3000000000000007,35.15],[-2.4499999999999993,35.15],[-2.4499999999999993,35.1],[-2.6999999999999993,35.1],[-2.6999999999999993,35.15],[-2.8000000000000007,35.15],[-2.8000000000000007,35.2],[-2.8999999999999986,35.2],[-2.8999999999999986,35.3],[-3.1500000000000004,35.3],[-3.1500000000000004,35.2],[-3.5500000000000007,35.2],[-3.5500000000000007,35.25],[-3.8000000000000007,35.25],[-3.8000000000000007,35.2],[-3.9000000000000004,35.2],[-3.9000000000000004,35.25],[-4.050000000000001,35.25],[-4.050000000000001,35.2],[-4.25,35.2],[-4.25,35.15],[-4.65,35.15],[-4.65,35.2],[-4.800000000000001,35.2],[-4.85,35.3],[-4.949999999999999,35.3],[-4.949999999999999,35.35],[-5.050000000000001,35.4],[-5.050000000000001,35.45],[-5.15,35.5],[-5.15,35.55],[-5.25,35.55],[-5.25,35.7],[-5.35,35.7],[-5.35,35.9],[-5.550000000000001,35.9],[-5.550000000000001,35.85],[-5.699999999999999,35.85],[-5.699999999999999,35.8],[-5.949999999999999,35.8],[-5.949999999999999,35.6],[-6.0,35.6],[-6.0,35.5],[-6.1,35.45],[-6.1,35.35],[-6.15,35.35],[-6.15,35.15],[-6.199999999999999,35.15],[-6.25,34.95],[-6.300000000000001,34.95],[-6.300000000000001,34.85],[-6.35,34.85],[-6.35,34.7],[-6.449999999999999,34.65],[-6.5,34.45],[-6.550000000000001,34.45],[-6.6,34.35],[-6.65,34.35],[-6.699999999999999,34.15],[-6.800000000000001,34.1],[-6.800000000000001,34.05],[-6.85,34.05],[-6.85,34.0],[-6.949999999999999,33.95],[-6.949999999999999,33.9],[-7.15,33.85],[-7.15,33.8],[-7.300000000000001,33.8],[-7.300000000000001,33.7],[-7.449999999999999,33.7],[-7.449999999999999,33.65],[-7.550000000000001,33.65],[-7.550000000000001,33.6],[-7.85,33.55],[-7.9,33.45],[-8.15,33.45],[-8.15,33.4],[-8.3,33.4],[-8.35,33.3],[-8.45,33.3],[-8.45,33.25],[-8.65,33.2],[-8.65,33.1],[-8.7,33.1],[-8.7,33.05],[-8.75,33.05],[-8.75,33.0],[-8.85,32.95],[-8.85,32.9],[-8.95,32.85],[-8.95,32.8],[-9.05,32.8],[-9.05,32.7],[-9.1,32.7],[-9.1,32.65],[-9.2,32.65],[-9.2,32.6],[-9.25,32.6],[-9.25,32.4],[-9.3,32.4],[-9.3,32.1],[-9.4,32.05],[-9.4,31.950000000000003],[-9.45,31.950000000000003],[-9.45,31.9],[-9.55,31.9],[-9.55,31.8],[-9.6,31.8],[-9.65,31.700000000000003],[-9.700000000000001,31.700000000000003],[-9.700000000000001,31.55],[-9.8,31.55],[-9.8,31.25],[-9.85,31.25],[-9.85,30.65],[-9.75,30.6],[-9.700000000000001,30.5],[-9.65,30.5],[-9.6,30.3],[-9.65,30.3],[-9.65,30.1],[-9.700000000000001,30.1],[-9.700000000000001,29.95],[-9.8,29.900000000000002],[-9.8,29.8],[-9.85,29.8],[-9.85,29.75],[-9.9,29.75],[-9.9,29.7],[-9.950000000000001,29.7],[-10.0,29.6],[-10.1,29.55],[-10.1,29.400000000000002],[-10.200000000000001,29.400000000000002],[-10.200000000000001,29.3],[-10.3,29.25],[-10.35,29.150000000000002],[-10.4,29.150000000000002],[-10.450000000000001,29.05],[-10.55,29.05],[-10.55,29.0],[-10.6,29.0],[-10.65,28.900000000000002],[-10.8,28.900000000000002],[-10.8,28.85],[-10.9,28.85],[-10.9,28.8],[-11.05,28.8],[-11.05,28.7],[-11.100000000000001,28.7],[-11.100000000000001,28.650000000000002],[-11.2,28.650000000000002],[-11.2,28.55],[-11.3,28.55],[-11.3,28.5],[-11.350000000000001,28.5],[-11.350000000000001,28.400000000000002],[-11.4,28.400000000000002],[-11.45,28.3],[-11.55,28.3],[-11.55,28.25],[-11.7,28.25],[-11.7,28.2],[-11.850000000000001,28.2],[-11.850000000000001,28.150000000000002],[-11.95,28.150000000000002],[-11.95,28.1],[-12.100000000000001,28.1],[-12.100000000000001,28.05],[-12.5,28.05],[-12.5,28.0],[-12.7,28.0],[-12.7,27.95],[-12.9,27.95],[-12.95,27.85],[-13.0,27.85],[-13.0,27.8],[-13.05,27.8],[-13.05,27.7],[-13.15,27.7],[-13.15,27.650000000000002],[-13.2,27.650000000000002],[-13.2,27.5],[-13.25,27.5],[-13.25,27.400000000000002],[-13.3,27.400000000000002],[-13.3,27.3],[-13.350000000000001,27.3],[-13.350000000000001,27.2],[-13.4,27.2],[-13.4,27.05],[-13.45,27.05],[-13.45,26.75],[-13.55,26.75],[-13.55,26.7],[-13.600000000000001,26.7],[-13.600000000000001,26.6],[-13.7,26.6],[-13.7,26.55],[-13.850000000000001,26.55],[-13.850000000000001,26.45],[-14.100000000000001,26.45],[-14.100000000000001,26.4],[-14.2,26.4],[-14.2,26.3],[-14.3,26.3],[-14.3,26.25],[-14.350000000000001,26.25],[-14.350000000000001,26.15],[-19.05,26.15],[-19.05,46.0],[-1.3999999999999986,46.0],[-1.3999999999999986,45.95],[-1.25,45.95],[-1.25,46.0],[-1.1499999999999986,46.0],[-1.1499999999999986,45.95],[-1.1000000000000014,45.95],[-1.1000000000000014,45.85],[-1.25,45.85],[-1.25,45.7],[-1.1499999999999986,45.7],[-1.1499999999999986,45.65],[-1.0500000000000007,45.65],[-1.0500000000000007,45.6],[-0.9499999999999993,45.6],[-0.8999999999999986,45.5],[-0.8000000000000007,45.5],[-0.8000000000000007,45.45],[-0.75,45.45],[-0.75,45.35],[-0.6999999999999993,45.35],[-0.6999999999999993,45.2],[-0.6499999999999986,45.2],[-0.6499999999999986,45.15],[-0.75,45.15],[-0.75,45.300000000000004],[-0.8500000000000014,45.35],[-0.8999999999999986,45.45],[-1.0,45.45],[-1.0,45.5],[-1.1499999999999986,45.5],[-1.1499999999999986,45.15],[-1.1999999999999993,45.15],[-1.25,44.550000000000004],[-1.3000000000000007,44.550000000000004],[-1.3000000000000007,44.15],[-1.3500000000000014,44.15],[-1.3500000000000014,43.85],[-1.4499999999999993,43.800000000000004],[-1.4499999999999993,43.550000000000004],[-1.5500000000000007,43.550000000000004],[-1.5500000000000007,43.5],[-1.6000000000000014,43.5],[-1.6000000000000014,43.4],[-1.8500000000000014,43.4],[-1.8500000000000014,43.35],[-1.9499999999999993,43.35],[-1.9499999999999993,43.300000000000004],[-2.3999999999999986,43.300000000000004],[-2.3999999999999986,43.35],[-2.5,43.35],[-2.5,43.4],[-3.0500000000000007,43.4],[-3.0500000000000007,43.35],[-3.1999999999999993,43.35],[-3.1999999999999993,43.4],[-3.4499999999999993,43.4],[-3.5,43.5],[-3.6999999999999993,43.5],[-3.6999999999999993,43.45],[-4.1,43.45],[-4.1,43.4],[-4.75,43.4],[-4.75,43.45],[-5.15,43.45],[-5.15,43.5],[-5.25,43.5],[-5.25,43.550000000000004],[-5.699999999999999,43.550000000000004],[-5.75,43.65],[-5.9,43.65],[-5.9,43.6],[-6.1,43.6],[-6.1,43.550000000000004],[-7.199999999999999,43.550000000000004],[-7.199999999999999,43.6],[-7.300000000000001,43.6],[-7.300000000000001,43.65],[-7.449999999999999,43.65],[-7.449999999999999,43.7],[-7.6,43.7],[-7.6,43.75],[-7.800000000000001,43.75],[-7.800000000000001,43.7],[-8.1,43.7],[-8.15,43.6],[-8.25,43.6],[-8.25,43.550000000000004],[-8.3,43.550000000000004],[-8.3,43.4],[-8.45,43.4],[-8.45,43.35],[-8.65,43.35],[-8.65,43.300000000000004],[-9.0,43.300000000000004],[-9.0,43.2],[-9.2,43.2],[-9.2,43.1],[-9.25,43.1],[-9.25,42.9],[-9.15,42.9],[-9.15,42.800000000000004],[-9.0,42.800000000000004],[-9.0,42.6],[-8.85,42.6],[-8.85,42.4]],[[4.050000000000001,39.9],[4.100000000000001,39.9],[4.100000000000001,39.85],[4.25,39.85],[4.25,40.05],[4.050000000000001,40.05],[4.050000000000001,39.9]],[[2.8500000000000014,39.85],[2.6999999999999993,39.85],[2.6999999999999993,39.8],[2.6000000000000014,39.75],[2.6000000000000014,39.7],[2.4499999999999993,39.7],[2.4499999999999993,39.65],[2.400000000000002,39.65],[2.400000000000002,39.5],[2.6999999999999993,39.55],[2.6999999999999993,39.5],[2.75,39.5],[2.75,39.4],[2.8000000000000007,39.4],[2.8000000000000007,39.35],[2.9499999999999993,39.35],[2.9499999999999993,39.3],[3.25,39.35],[3.25,39.4],[3.3000000000000007,39.4],[3.3000000000000007,39.5],[3.400000000000002,39.55],[3.400000000000002,39.75],[3.150000000000002,39.75],[3.150000000000002,39.8],[3.1000000000000014,39.8],[3.1000000000000014,39.9],[2.8500000000000014,39.9],[2.8500000000000014,39.85]],[[1.4000000000000021,39.05],[1.3000000000000007,39.05],[1.3000000000000007,38.9],[1.5,38.9],[1.5,38.95],[1.5500000000000007,38.95],[1.5500000000000007,39.1],[1.4000000000000021,39.1],[1.4000000000000021,39.05]],[[-17.05,32.65],[-16.8,32.65],[-16.8,32.8],[-16.85,32.8],[-16.85,32.85],[-17.05,32.85],[-17.05,32.65]],[[-13.600000000000001,29.1],[-13.8,29.05],[-13.8,28.900000000000002],[-13.600000000000001,28.900000000000002],[-13.600000000000001,28.95],[-13.5,28.95],[-13.5,29.0],[-13.45,29.0],[-13.45,29.150000000000002],[-13.600000000000001,29.150000000000002],[-13.600000000000001,29.1]],[[-17.95,28.650000000000002],[-17.900000000000002,28.650000000000002],[-17.900000000000002,28.55],[-17.75,28.55],[-17.75,28.85],[-17.95,28.85],[-17.95,28.650000000000002]],[[-14.0,28.650000000000002],[-14.05,28.650000000000002],[-14.05,28.5],[-14.100000000000001,28.5],[-14.100000000000001,28.45],[-14.15,28.45],[-14.15,28.35],[-14.2,28.35],[-14.2,28.2],[-13.9,28.2],[-13.9,28.3],[-13.850000000000001,28.3],[-13.8,28.7],[-14.0,28.7],[-14.0,28.650000000000002]],[[-16.4,28.400000000000002],[-16.7,28.400000000000002],[-16.7,28.35],[-16.85,28.35],[-16.85,28.2],[-16.8,28.2],[-16.8,28.1],[-16.7,28.1],[-16.7,28.0],[-16.5,28.0],[-16.5,28.1],[-16.45,28.1],[-16.45,28.150000000000002],[-16.4,28.150000000000002],[-16.4,28.25],[-16.35,28.25],[-16.35,28.400000000000002],[-16.25,28.400000000000002],[-16.25,28.55],[-16.4,28.55],[-16.4,28.400000000000002]],[[-17.3,28.05],[-17.150000000000002,28.05],[-17.150000000000002,28.2],[-17.3,28.2],[-17.3,28.05]],[[-15.700000000000001,28.05],[-15.8,28.05],[-15.8,27.85],[-15.75,27.85],[-15.700000000000001,27.75],[-15.450000000000001,27.75],[-15.450000000000001,27.8],[-15.350000000000001,27.85],[-15.350000000000001,28.05],[-15.4,28.05],[-15.4,28.150000000000002],[-15.700000000000001,28.150000000000002],[-15.700000000000001,28.05]]],[[[-8.85,42.65],[-8.8,42.65],[-8.8,42.6],[-8.85,42.6],[-8.85,42.65]]]]}}]}