{"type":"FeatureCollection","name":"tidal_model_domain","features":[{"type":"Feature","properties":{"kind":"domain","atlases":["NORKYST_HELGELAND"],"source_file":"norkyst_helgeland_20250919.nc","wet_cells":51796,"grid_deg":0.01,"area_deg2":3.39},"geometry":{"type":"Polygon","coordinates":[[[10.5,65.5],[10.5,66.9],[13.64,66.89999999999999],[13.64,66.89],[13.66,66.89],[13.66,66.88],[13.690000000000001,66.88],[13.690000000000001,66.86999999999999],[13.71,66.86999999999999],[13.71,66.83999999999999],[13.74,66.83999999999999],[13.74,66.85],[13.75,66.85],[13.75,66.83999999999999],[13.760000000000002,66.83999999999999],[13.760000000000002,66.82],[13.79,66.82],[13.79,66.80999999999999],[14.0,66.80999999999999],[14.0,66.8],[13.99,66.8],[13.99,66.78999999999999],[13.98,66.78999999999999],[13.98,66.8],[13.940000000000001,66.8],[13.940000000000001,66.78999999999999],[13.91,66.78999999999999],[13.91,66.8],[13.879999999999999,66.8],[13.879999999999999,66.78999999999999],[13.84,66.78999999999999],[13.84,66.8],[13.81,66.8],[13.81,66.78999999999999],[13.8,66.78999999999999],[13.8,66.8],[13.77,66.8],[13.77,66.80999999999999],[13.74,66.80999999999999],[13.74,66.8],[13.73,66.8],[13.73,66.80999999999999],[13.600000000000001,66.80999999999999],[13.600000000000001,66.8],[13.58,66.8],[13.58,66.77],[13.64,66.77],[13.64,66.75999999999999],[13.629999999999999,66.75999999999999],[13.629999999999999,66.75],[13.620000000000001,66.75],[13.620000000000001,66.75999999999999],[13.56,66.75999999999999],[13.56,66.72999999999999],[13.57,66.72999999999999],[13.57,66.71],[13.629999999999999,66.71],[13.629999999999999,66.72],[13.690000000000001,66.72],[13.690000000000001,66.72999999999999],[13.75,66.72999999999999],[13.74,66.71],[13.7,66.71],[13.7,66.69999999999999],[13.68,66.69999999999999],[13.68,66.69],[13.67,66.69],[13.67,66.69999999999999],[13.620000000000001,66.69999999999999],[13.620000000000001,66.69],[13.61,66.69],[13.61,66.69999999999999],[13.54,66.69999999999999],[13.530000000000001,66.72],[13.46,66.72],[13.46,66.72999999999999],[13.280000000000001,66.72999999999999],[13.280000000000001,66.69999999999999],[13.34,66.69999999999999],[13.34,66.69],[13.370000000000001,66.69],[13.370000000000001,66.69999999999999],[13.379999999999999,66.69999999999999],[13.379999999999999,66.69],[13.45,66.69],[13.45,66.67999999999999],[13.52,66.67999999999999],[13.52,66.66999999999999],[13.54,66.66999999999999],[13.54,66.66],[13.52,66.64999999999999],[13.52,66.66],[13.379999999999999,66.66],[13.379999999999999,66.66999999999999],[13.32,66.66999999999999],[13.32,66.64],[13.34,66.64],[13.34,66.63],[13.280000000000001,66.63],[13.280000000000001,66.61999999999999],[13.24,66.61999999999999],[13.24,66.6],[13.23,66.6],[13.23,66.58999999999999],[13.21,66.58999999999999],[13.21,66.55999999999999],[13.24,66.55999999999999],[13.24,66.55],[13.3,66.55],[13.3,66.55999999999999],[13.42,66.55999999999999],[13.42,66.57],[13.47,66.57],[13.47,66.58],[13.49,66.58999999999999],[13.49,66.58],[13.5,66.58],[13.5,66.55999999999999],[13.57,66.55999999999999],[13.57,66.55],[13.600000000000001,66.55],[13.600000000000001,66.53999999999999],[13.65,66.53999999999999],[13.65,66.53],[13.64,66.53],[13.64,66.52],[13.61,66.52],[13.61,66.53],[13.58,66.53],[13.58,66.53999999999999],[13.510000000000002,66.53999999999999],[13.510000000000002,66.55],[13.48,66.55],[13.48,66.53999999999999],[13.47,66.53999999999999],[13.47,66.55],[13.43,66.55],[13.43,66.53999999999999],[13.33,66.53999999999999],[13.33,66.53],[13.3,66.53],[13.3,66.5],[13.280000000000001,66.5],[13.280000000000001,66.47],[13.32,66.47],[13.32,66.47999999999999],[13.33,66.47999999999999],[13.33,66.47],[13.350000000000001,66.47],[13.350000000000001,66.46],[13.3,66.46],[13.3,66.44999999999999],[13.25,66.44999999999999],[13.25,66.46],[13.24,66.46],[13.24,66.47999999999999],[13.23,66.47999999999999],[13.22,66.5],[13.21,66.5],[13.21,66.52],[13.2,66.52],[13.2,66.53],[13.14,66.53],[13.129999999999999,66.55],[13.08,66.55],[13.08,66.53999999999999],[13.04,66.53999999999999],[13.04,66.53],[13.02,66.53],[13.02,66.5],[13.100000000000001,66.5],[13.100000000000001,66.47999999999999],[13.129999999999999,66.47999999999999],[13.129999999999999,66.47],[13.15,66.47],[13.15,66.46],[13.14,66.46],[13.14,66.41999999999999],[13.15,66.41999999999999],[13.15,66.39999999999999],[13.129999999999999,66.39],[13.129999999999999,66.39999999999999],[13.11,66.39999999999999],[13.11,66.42999999999999],[13.09,66.42999999999999],[13.09,66.44],[13.06,66.44],[13.06,66.42999999999999],[13.04,66.42999999999999],[13.04,66.41999999999999],[13.02,66.41999999999999],[13.02,66.41],[13.010000000000002,66.41],[13.010000000000002,66.38],[13.04,66.38],[13.04,66.39],[13.100000000000001,66.39],[13.100000000000001,66.38],[13.09,66.38],[13.09,66.36999999999999],[13.030000000000001,66.36999999999999],[13.030000000000001,66.36],[13.0,66.36],[13.0,66.33],[13.04,66.33],[13.04,66.32],[13.07,66.32],[13.07,66.30999999999999],[13.100000000000001,66.30999999999999],[13.100000000000001,66.32],[13.120000000000001,66.32],[13.120000000000001,66.33],[13.129999999999999,66.33],[13.129999999999999,66.32],[13.15,66.32],[13.15,66.30999999999999],[13.3,66.30999999999999],[13.3,66.32],[13.33,66.32],[13.33,66.33],[13.379999999999999,66.33],[13.379999999999999,66.33999999999999],[13.42,66.33999999999999],[13.42,66.35],[13.43,66.35],[13.43,66.33999999999999],[13.440000000000001,66.33999999999999],[13.440000000000001,66.32],[13.530000000000001,66.32],[13.52,66.3],[13.3,66.3],[13.3,66.28999999999999],[13.27,66.28999999999999],[13.27,66.28],[13.18,66.28],[13.17,66.25999999999999],[13.129999999999999,66.25999999999999],[13.120000000000001,66.24],[13.100000000000001,66.24],[13.100000000000001,66.22999999999999],[13.09,66.22999999999999],[13.09,66.22],[13.07,66.22],[13.07,66.21],[13.030000000000001,66.21],[13.030000000000001,66.17999999999999],[13.15,66.19],[13.15,66.19999999999999],[13.18,66.19999999999999],[13.18,66.21],[13.23,66.21],[13.23,66.22],[13.27,66.22],[13.280000000000001,66.24],[13.32,66.24],[13.32,66.25],[13.370000000000001,66.25],[13.370000000000001,66.24],[13.45,66.24],[13.45,66.25],[13.49,66.25],[13.49,66.25999999999999],[13.52,66.25999999999999],[13.52,66.27],[13.57,66.27],[13.58,66.28999999999999],[13.61,66.28999999999999],[13.61,66.28],[13.600000000000001,66.28],[13.600000000000001,66.25],[13.690000000000001,66.25],[13.690000000000001,66.25999999999999],[13.77,66.25999999999999],[13.77,66.27],[13.81,66.27],[13.81,66.28],[13.82,66.28],[13.82,66.27],[13.850000000000001,66.27],[13.850000000000001,66.28],[13.91,66.27],[13.91,66.28999999999999],[13.93,66.28999999999999],[13.93,66.3],[13.96,66.3],[13.96,66.30999999999999],[14.05,66.30999999999999],[14.05,66.32],[14.09,66.32],[14.09,66.33],[14.120000000000001,66.33],[14.120000000000001,66.33999999999999],[14.13,66.33999999999999],[14.13,66.33],[14.15,66.33],[14.14,66.30999999999999],[14.120000000000001,66.30999999999999],[14.120000000000001,66.3],[14.08,66.3],[14.08,66.28999999999999],[14.030000000000001,66.28999999999999],[14.02,66.27],[13.97,66.27],[13.97,66.25],[13.95,66.25],[13.95,66.24],[13.91,66.24],[13.91,66.22999999999999],[13.850000000000001,66.22999999999999],[13.850000000000001,66.22],[13.83,66.22],[13.83,66.21],[13.81,66.22],[13.81,66.24],[13.66,66.24],[13.66,66.22999999999999],[13.629999999999999,66.22999999999999],[13.629999999999999,66.21],[13.620000000000001,66.21],[13.620000000000001,66.17999999999999],[13.65,66.17999999999999],[13.65,66.19],[13.66,66.19],[13.66,66.17999999999999],[13.72,66.17999999999999],[13.72,66.19],[13.8,66.19],[13.8,66.16999999999999],[13.83,66.16999999999999],[13.83,66.16],[13.84,66.16],[13.83,66.14],[13.82,66.14],[13.82,66.14999999999999],[13.8,66.14999999999999],[13.8,66.16],[13.77,66.16],[13.77,66.16999999999999],[13.73,66.16999999999999],[13.73,66.16],[13.620000000000001,66.16],[13.620000000000001,66.14999999999999],[13.59,66.14999999999999],[13.59,66.14],[13.57,66.14],[13.57,66.11999999999999],[13.54,66.11999999999999],[13.54,66.14999999999999],[13.58,66.16],[13.58,66.19999999999999],[13.55,66.19999999999999],[13.55,66.19],[13.530000000000001,66.19],[13.54,66.21],[13.55,66.21],[13.55,66.24],[13.52,66.24],[13.52,66.22999999999999],[13.43,66.22999999999999],[13.43,66.22],[13.36,66.22],[13.36,66.22999999999999],[13.33,66.22999999999999],[13.33,66.22],[13.29,66.22],[13.29,66.21],[13.25,66.21],[13.24,66.19],[13.22,66.19],[13.22,66.17999999999999],[13.18,66.17999999999999],[13.18,66.16999999999999],[13.120000000000001,66.16999999999999],[13.120000000000001,66.16],[13.08,66.16],[13.08,66.14999999999999],[12.97,66.14999999999999],[12.97,66.14],[12.9,66.14],[12.9,66.13],[12.83,66.13],[12.82,66.11],[12.780000000000001,66.11],[12.780000000000001,66.1],[12.75,66.1],[12.75,66.08999999999999],[12.7,66.08999999999999],[12.7,66.05999999999999],[12.71,66.05999999999999],[12.71,66.03999999999999],[12.74,66.03999999999999],[12.74,66.05],[12.79,66.05],[12.79,66.05999999999999],[12.83,66.05999999999999],[12.83,66.05],[12.86,66.05],[12.86,66.05999999999999],[12.870000000000001,66.05999999999999],[12.870000000000001,66.05],[12.92,66.05],[12.92,66.05999999999999],[12.97,66.05999999999999],[12.97,66.07],[12.99,66.08],[13.0,66.05999999999999],[12.96,66.05],[12.96,66.02],[12.95,66.02],[12.95,66.00999999999999],[12.93,66.0],[12.93,65.97],[12.940000000000001,65.97],[12.940000000000001,65.96],[12.97,65.96],[12.97,65.94999999999999],[13.11,65.94],[13.11,65.92999999999999],[13.129999999999999,65.92999999999999],[13.129999999999999,65.91999999999999],[13.16,65.91999999999999],[13.16,65.91],[13.17,65.91],[13.17,65.88],[13.190000000000001,65.86999999999999],[13.190000000000001,65.85],[13.18,65.85],[13.18,65.83999999999999],[13.16,65.83999999999999],[13.16,65.85],[13.15,65.85],[13.15,65.86999999999999],[13.129999999999999,65.88],[13.129999999999999,65.89],[13.07,65.89],[13.07,65.89999999999999],[13.05,65.89999999999999],[13.05,65.91999999999999],[13.030000000000001,65.91999999999999],[13.030000000000001,65.92999999999999],[13.0,65.92999999999999],[13.0,65.91999999999999],[12.96,65.91999999999999],[12.95,65.94],[12.91,65.94],[12.9,65.96],[12.870000000000001,65.96],[12.870000000000001,65.97],[12.79,65.97],[12.780000000000001,65.94999999999999],[12.75,65.94999999999999],[12.75,65.94],[12.71,65.94],[12.71,65.92999999999999],[12.67,65.92999999999999],[12.67,65.91999999999999],[12.65,65.91999999999999],[12.65,65.89],[12.64,65.89],[12.64,65.88],[12.620000000000001,65.86999999999999],[12.620000000000001,65.83],[12.68,65.83],[12.68,65.82],[12.71,65.82],[12.72,65.8],[12.690000000000001,65.8],[12.690000000000001,65.80999999999999],[12.629999999999999,65.80999999999999],[12.629999999999999,65.8],[12.600000000000001,65.8],[12.600000000000001,65.78],[12.58,65.78],[12.58,65.77],[12.57,65.77],[12.57,65.74],[12.58,65.74],[12.58,65.72999999999999],[12.620000000000001,65.72],[12.620000000000001,65.71],[12.64,65.71],[12.64,65.69999999999999],[12.67,65.69999999999999],[12.67,65.67999999999999],[12.66,65.67999999999999],[12.65,65.66],[12.620000000000001,65.66],[12.620000000000001,65.69],[12.600000000000001,65.69],[12.59,65.71],[12.58,65.71],[12.58,65.72],[12.56,65.72],[12.56,65.72999999999999],[12.49,65.72999999999999],[12.49,65.72],[12.47,65.72],[12.47,65.71],[12.46,65.71],[12.46,65.72],[12.41,65.72],[12.41,65.71],[12.39,65.71],[12.379999999999999,65.69],[12.34,65.69],[12.34,65.67999999999999],[12.33,65.67999999999999],[12.33,65.64999999999999],[12.36,65.64999999999999],[12.36,65.63],[12.370000000000001,65.63],[12.370000000000001,65.58999999999999],[12.379999999999999,65.58999999999999],[12.379999999999999,65.58],[12.4,65.58],[12.4,65.53999999999999],[12.42,65.53999999999999],[12.42,65.53],[12.47,65.53],[12.47,65.50999999999999],[12.530000000000001,65.50999999999999],[12.530000000000001,65.52],[12.54,65.52],[12.54,65.55],[12.55,65.55],[12.55,65.55999999999999],[12.57,65.55999999999999],[12.57,65.55],[12.58,65.55],[12.58,65.5],[12.39,65.5],[12.39,65.52],[12.36,65.52],[12.350000000000001,65.53999999999999],[12.32,65.53999999999999],[12.32,65.58],[12.25,65.58],[12.25,65.50999999999999],[12.24,65.50999999999999],[12.24,65.5],[12.14,65.5],[12.14,65.50999999999999],[12.11,65.50999999999999],[12.11,65.5],[10.5,65.5]],[[13.530000000000001,66.8],[13.510000000000002,66.8],[13.510000000000002,66.77],[13.57,66.77],[13.57,66.80999999999999],[13.530000000000001,66.80999999999999],[13.530000000000001,66.8]],[[13.41,66.78],[13.370000000000001,66.78],[13.370000000000001,66.78999999999999],[13.34,66.78999999999999],[13.34,66.78],[13.32,66.78],[13.32,66.75],[13.41,66.75],[13.41,66.75999999999999],[13.47,66.75999999999999],[13.47,66.78999999999999],[13.46,66.78999999999999],[13.46,66.8],[13.41,66.8],[13.41,66.78]],[[13.05,66.64999999999999],[13.08,66.64999999999999],[13.08,66.66],[13.100000000000001,66.66],[13.100000000000001,66.69],[13.05,66.69],[13.05,66.64999999999999]],[[13.2,66.64],[13.25,66.64],[13.25,66.66999999999999],[13.23,66.66999999999999],[13.23,66.67999999999999],[13.2,66.67999999999999],[13.2,66.64]],[[13.260000000000002,66.64],[13.29,66.64],[13.29,66.66999999999999],[13.260000000000002,66.66999999999999],[13.260000000000002,66.64]],[[13.0,66.61],[13.010000000000002,66.61],[13.010000000000002,66.6],[13.05,66.6],[13.05,66.64],[13.0,66.64],[13.0,66.61]],[[13.09,66.58999999999999],[13.129999999999999,66.58999999999999],[13.129999999999999,66.61999999999999],[13.120000000000001,66.61999999999999],[13.120000000000001,66.63],[13.09,66.63],[13.09,66.58999999999999]],[[12.61,66.55999999999999],[12.620000000000001,66.55999999999999],[12.620000000000001,66.55],[12.66,66.55],[12.66,66.55999999999999],[12.67,66.55999999999999],[12.67,66.6],[12.61,66.6],[12.61,66.55999999999999]],[[12.83,66.55],[12.81,66.55],[12.81,66.52],[12.83,66.52],[12.83,66.50999999999999],[12.870000000000001,66.50999999999999],[12.870000000000001,66.55999999999999],[12.83,66.55999999999999],[12.83,66.55]],[[12.84,66.41999999999999],[12.86,66.41999999999999],[12.850000000000001,66.39999999999999],[12.84,66.39999999999999],[12.84,66.36999999999999],[12.850000000000001,66.36999999999999],[12.850000000000001,66.36],[12.879999999999999,66.36],[12.879999999999999,66.38],[12.89,66.38],[12.89,66.39],[12.93,66.39],[12.93,66.39999999999999],[12.95,66.39999999999999],[12.95,66.44],[12.91,66.44],[12.91,66.44999999999999],[12.84,66.44999999999999],[12.84,66.41999999999999]],[[12.54,66.36],[12.56,66.36],[12.56,66.35],[12.510000000000002,66.35],[12.510000000000002,66.32],[12.530000000000001,66.32],[12.530000000000001,66.30999999999999],[12.56,66.30999999999999],[12.56,66.32],[12.58,66.32],[12.59,66.33999999999999],[12.61,66.33999999999999],[12.61,66.36999999999999],[12.59,66.36999999999999],[12.59,66.38],[12.57,66.38],[12.57,66.39],[12.54,66.39],[12.54,66.36]],[[12.79,66.28999999999999],[12.75,66.28],[12.75,66.27],[12.71,66.27],[12.71,66.24],[12.74,66.24],[12.75,66.22],[12.780000000000001,66.22],[12.780000000000001,66.21],[12.84,66.21],[12.850000000000001,66.22999999999999],[12.870000000000001,66.22999999999999],[12.879999999999999,66.25],[12.89,66.25],[12.89,66.28999999999999],[12.82,66.28999999999999],[12.82,66.3],[12.79,66.3],[12.79,66.28999999999999]],[[13.010000000000002,66.27],[12.98,66.27],[12.98,66.25999999999999],[12.96,66.25999999999999],[12.96,66.22999999999999],[13.02,66.22999999999999],[13.02,66.24],[13.06,66.24],[13.06,66.25],[13.09,66.25],[13.09,66.28],[13.010000000000002,66.28],[13.010000000000002,66.27]],[[12.24,66.22999999999999],[12.280000000000001,66.22999999999999],[12.280000000000001,66.25999999999999],[12.24,66.25999999999999],[12.24,66.22999999999999]],[[12.56,66.19999999999999],[12.54,66.19999999999999],[12.54,66.16],[12.56,66.16],[12.56,66.14999999999999],[12.530000000000001,66.14999999999999],[12.530000000000001,66.14],[12.49,66.14],[12.49,66.11999999999999],[12.48,66.11999999999999],[12.48,66.11],[12.440000000000001,66.11],[12.440000000000001,66.1],[12.41,66.1],[12.41,66.07],[12.4,66.07],[12.4,66.05999999999999],[12.36,66.05999999999999],[12.36,66.03],[12.45,66.03],[12.45,66.03999999999999],[12.48,66.03999999999999],[12.49,66.05999999999999],[12.55,66.05999999999999],[12.55,66.07],[12.59,66.07],[12.600000000000001,66.08999999999999],[12.64,66.08999999999999],[12.64,66.1],[12.66,66.1],[12.66,66.13],[12.620000000000001,66.14],[12.620000000000001,66.21],[12.61,66.21],[12.61,66.22999999999999],[12.56,66.22999999999999],[12.56,66.19999999999999]],[[12.9,66.19999999999999],[12.870000000000001,66.19999999999999],[12.870000000000001,66.16999999999999],[12.95,66.16999999999999],[12.95,66.17999999999999],[12.96,66.17999999999999],[12.96,66.21],[12.9,66.21],[12.9,66.19999999999999]],[[12.34,66.16999999999999],[12.32,66.16999999999999],[12.32,66.13],[12.36,66.13],[12.36,66.14],[12.39,66.14],[12.39,66.16999999999999],[12.370000000000001,66.16999999999999],[12.370000000000001,66.17999999999999],[12.34,66.17999999999999],[12.34,66.16999999999999]],[[12.690000000000001,66.14999999999999],[12.7,66.14999999999999],[12.7,66.14],[12.74,66.14],[12.74,66.14999999999999],[12.75,66.14999999999999],[12.75,66.14],[12.780000000000001,66.14],[12.780000000000001,66.16999999999999],[12.75,66.16999999999999],[12.75,66.17999999999999],[12.690000000000001,66.17999999999999],[12.690000000000001,66.14999999999999]],[[12.850000000000001,66.02],[12.75,66.02],[12.75,66.00999999999999],[12.67,66.0],[12.67,65.99],[12.64,65.99],[12.64,66.02],[12.56,66.00999999999999],[12.56,66.0],[12.530000000000001,66.0],[12.530000000000001,65.99],[12.510000000000002,65.99],[12.510000000000002,65.97999999999999],[12.49,65.97999999999999],[12.48,65.96],[12.46,65.96],[12.46,65.92999999999999],[12.440000000000001,65.92999999999999],[12.440000000000001,65.89999999999999],[12.510000000000002,65.89999999999999],[12.510000000000002,65.89],[12.55,65.89],[12.56,65.91],[12.58,65.91],[12.58,65.91999999999999],[12.61,65.91999999999999],[12.61,65.92999999999999],[12.629999999999999,65.92999999999999],[12.64,65.94999999999999],[12.68,65.94999999999999],[12.690000000000001,65.97],[12.73,65.97],[12.73,65.97999999999999],[12.81,65.97999999999999],[12.81,65.99],[12.9,65.99],[12.9,66.0],[12.91,66.0],[12.91,66.03],[12.850000000000001,66.03],[12.850000000000001,66.02]],[[12.27,65.99],[12.24,65.99],[12.24,65.94999999999999],[12.27,65.94999999999999],[12.27,65.96],[12.29,65.96],[12.29,65.97],[12.32,65.97],[12.32,66.0],[12.27,66.0],[12.27,65.99]],[[12.4,65.89],[12.43,65.89],[12.43,65.91999999999999],[12.4,65.91999999999999],[12.4,65.89]],[[12.46,65.86999999999999],[12.4,65.86],[12.4,65.82],[12.43,65.82],[12.43,65.83],[12.49,65.83],[12.49,65.83999999999999],[12.5,65.83999999999999],[12.5,65.88],[12.46,65.88],[12.46,65.86999999999999]],[[12.530000000000001,65.78999999999999],[12.56,65.78999999999999],[12.56,65.8],[12.57,65.8],[12.57,65.83],[12.530000000000001,65.83],[12.530000000000001,65.78999999999999]],[[12.43,65.75999999999999],[12.46,65.75999999999999],[12.46,65.78999999999999],[12.43,65.78999999999999],[12.43,65.75999999999999]],[[11.84,65.69999999999999],[11.83,65.69999999999999],[11.83,65.69],[11.81,65.69],[11.81,65.67999999999999],[11.790000000000001,65.66999999999999],[11.790000000000001,65.64999999999999],[11.780000000000001,65.64999999999999],[11.780000000000001,65.61],[11.85,65.61],[11.85,65.6],[11.91,65.58999999999999],[11.91,65.6],[11.96,65.6],[11.96,65.61999999999999],[11.98,65.61999999999999],[11.99,65.64],[12.010000000000002,65.64],[12.010000000000002,65.64999999999999],[12.030000000000001,65.64999999999999],[12.030000000000001,65.66],[12.04,65.66],[12.04,65.69],[12.02,65.69],[12.02,65.71],[11.93,65.71],[11.93,65.69999999999999],[11.92,65.69999999999999],[11.92,65.71],[11.870000000000001,65.71],[11.870000000000001,65.72],[11.84,65.72],[11.84,65.69999999999999]],[[12.05,65.66],[12.08,65.66],[12.08,65.69],[12.05,65.69],[12.05,65.66]],[[12.14,65.63],[12.129999999999999,65.63],[12.129999999999999,65.6],[12.16,65.6],[12.16,65.61],[12.17,65.61],[12.17,65.64],[12.14,65.64],[12.14,65.63]]]}}]}