{"type":"FeatureCollection","name":"tidal_model_domain","features":[{"type":"Feature","properties":{"kind":"domain","atlases":["CMEMS_MED"],"source_file":"med_2025-09.nc","wet_cells":150595,"grid_deg":0.05,"area_deg2":264.75},"geometry":{"type":"MultiPolygon","coordinates":[[[[24.25,38.35],[24.2,38.35],[24.2,38.6],[24.150000000000002,38.6],[24.150000000000002,38.65],[23.8,38.65],[23.75,38.75],[23.6,38.75],[23.6,38.8],[23.5,38.8],[23.400000000000002,39.0],[23.0,39.0],[23.0,39.1],[22.95,39.1],[22.95,39.15],[22.8,39.15],[22.8,39.3],[23.1,39.35],[23.1,39.5],[23.0,39.55],[23.0,39.6],[22.900000000000002,39.6],[22.85,39.8],[22.75,39.85],[22.75,39.95],[22.650000000000002,39.95],[22.650000000000002,40.0],[22.55,40.05],[22.55,40.2],[22.6,40.2],[22.6,40.45],[22.650000000000002,40.45],[22.650000000000002,40.5],[22.8,40.5],[22.85,40.4],[23.0,40.4],[23.05,40.3],[23.150000000000002,40.3],[23.150000000000002,40.25],[23.55,40.25],[23.55,40.2],[23.7,40.2],[23.7,40.35],[23.8,40.35],[23.8,40.6],[23.75,40.6],[23.75,40.8],[23.900000000000002,40.8],[23.900000000000002,40.75],[24.2,40.75],[24.2,40.8],[24.35,40.8],[24.35,40.9],[24.400000000000002,40.9],[24.400000000000002,40.95],[24.55,40.95],[24.55,40.9],[24.95,40.9],[25.000000000000004,41.0],[25.150000000000002,41.0],[25.150000000000002,40.95],[25.250000000000004,40.95],[25.250000000000004,40.9],[25.650000000000002,40.9],[25.650000000000002,40.85],[26.000000000000004,40.85],[26.000000000000004,40.7],[26.05,40.7],[26.099999999999998,40.6],[26.8,40.65],[26.8,40.55],[26.7,40.55],[26.7,40.5],[26.55,40.5],[26.55,40.45],[26.45,40.45],[26.45,40.4],[26.250000000000004,40.35],[26.250000000000004,40.1],[26.2,40.1],[26.2,39.95],[26.150000000000002,39.95],[26.150000000000002,39.6],[26.099999999999998,39.6],[26.099999999999998,39.45],[26.250000000000004,39.45],[26.250000000000004,39.5],[26.45,39.5],[26.45,39.55],[26.7,39.55],[26.7,39.6],[26.95,39.6],[26.95,39.45],[26.8,39.45],[26.8,39.4],[26.55,39.4],[26.55,39.25],[26.750000000000004,39.25],[26.750000000000004,39.15],[26.849999999999998,39.15],[26.849999999999998,39.05],[26.8,39.05],[26.849999999999998,38.75],[26.750000000000004,38.75],[26.750000000000004,38.55],[26.900000000000002,38.55],[26.900000000000002,38.35],[26.750000000000004,38.35],[26.750000000000004,38.4],[26.650000000000002,38.4],[26.650000000000002,38.55],[26.55,38.55],[26.55,38.6],[26.400000000000002,38.6],[26.400000000000002,38.45],[26.3,38.45],[26.3,38.2],[26.500000000000004,38.2],[26.500000000000004,38.15],[26.650000000000002,38.15],[26.650000000000002,38.2],[26.750000000000004,38.2],[26.750000000000004,38.15],[26.849999999999998,38.15],[26.849999999999998,38.1],[27.000000000000004,38.1],[27.05,38.0],[27.250000000000004,38.0],[27.250000000000004,37.7],[27.150000000000002,37.7],[27.150000000000002,37.55],[27.2,37.55],[27.2,37.35],[27.400000000000002,37.35],[27.400000000000002,37.3],[27.500000000000004,37.25],[27.500000000000004,37.0],[28.000000000000004,37.0],[28.000000000000004,36.65],[28.2,36.65],[28.2,36.7],[28.3,36.7],[28.3,36.8],[28.599999999999998,36.8],[28.599999999999998,36.7],[28.750000000000004,36.7],[28.750000000000004,36.65],[29.000000000000004,36.65],[29.000000000000004,36.55],[29.099999999999998,36.55],[29.099999999999998,36.35],[29.2,36.35],[29.2,36.3],[29.250000000000004,36.3],[29.3,36.2],[29.55,36.2],[29.55,36.15],[29.95,36.15],[29.95,36.2],[30.150000000000002,36.2],[30.150000000000002,36.3],[30.3,36.3],[30.3,36.25],[30.45,36.25],[30.45,36.3],[30.500000000000004,36.3],[30.500000000000004,36.5],[30.55,36.5],[30.55,36.8],[30.599999999999998,36.8],[30.599999999999998,36.85],[31.250000000000004,36.85],[31.250000000000004,36.8],[31.350000000000005,36.8],[31.350000000000005,36.75],[31.500000000000004,36.75],[31.55,36.65],[31.750000000000004,36.65],[31.750000000000004,36.6],[31.900000000000002,36.6],[31.900000000000002,36.55],[32.050000000000004,36.55],[32.050000000000004,36.5],[32.10000000000001,36.5],[32.150000000000006,36.4],[32.2,36.4],[32.2,36.35],[32.25000000000001,36.35],[32.25000000000001,36.25],[32.35000000000001,36.2],[32.35000000000001,36.15],[32.50000000000001,36.15],[32.50000000000001,36.1],[32.60000000000001,36.1],[32.60000000000001,36.05],[32.85000000000001,36.05],[32.85000000000001,36.1],[33.10000000000001,36.1],[33.10000000000001,36.15],[33.75000000000001,36.15],[33.75000000000001,36.2],[33.85000000000001,36.2],[33.85000000000001,36.3],[34.10000000000001,36.3],[34.10000000000001,36.4],[34.2,36.45],[34.2,36.55],[34.25000000000001,36.55],[34.25000000000001,36.6],[34.35000000000001,36.6],[34.35000000000001,36.65],[34.45,36.65],[34.45,36.7],[34.50000000000001,36.7],[34.50000000000001,36.75],[34.60000000000001,36.75],[34.60000000000001,36.8],[34.85000000000001,36.8],[34.900000000000006,36.7],[35.050000000000004,36.7],[35.050000000000004,36.65],[35.25000000000001,36.65],[35.25000000000001,36.6],[35.650000000000006,36.6],[35.7,36.7],[35.800000000000004,36.75],[35.800000000000004,36.8],[35.900000000000006,36.8],[35.95,36.9],[36.150000000000006,36.9],[36.150000000000006,36.85],[36.2,36.85],[36.2,36.6],[36.00000000000001,36.55],[36.00000000000001,36.45],[35.900000000000006,36.45],[35.900000000000006,36.4],[35.800000000000004,36.35],[35.800000000000004,36.2],[35.85000000000001,36.2],[35.85000000000001,36.15],[35.95,36.15],[35.95,35.95],[35.900000000000006,35.95],[35.85000000000001,35.85],[35.800000000000004,35.85],[35.800000000000004,35.7],[35.75000000000001,35.7],[35.75000000000001,35.5],[35.800000000000004,35.5],[35.800000000000004,35.45],[35.900000000000006,35.45],[35.900000000000006,35.1],[35.85000000000001,35.1],[35.85000000000001,34.9],[35.900000000000006,34.9],[35.900000000000006,34.8],[35.95,34.8],[35.95,34.65],[36.00000000000001,34.65],[36.00000000000001,34.55],[35.95,34.55],[35.95,34.5],[35.75000000000001,34.5],[35.75000000000001,34.35],[35.650000000000006,34.35],[35.650000000000006,34.05],[35.60000000000001,34.05],[35.60000000000001,33.95],[35.50000000000001,33.9],[35.50000000000001,33.75],[35.400000000000006,33.7],[35.35000000000001,33.5],[35.25000000000001,33.45],[35.25000000000001,33.3],[35.2,33.3],[35.2,33.15],[35.10000000000001,33.1],[35.10000000000001,33.0],[35.050000000000004,33.0],[35.050000000000004,32.85],[34.95,32.85],[34.95,32.7],[34.900000000000006,32.7],[34.900000000000006,32.5],[34.85000000000001,32.5],[34.85000000000001,32.35],[34.800000000000004,32.35],[34.800000000000004,32.15],[34.75000000000001,32.15],[34.75000000000001,31.950000000000003],[34.7,31.950000000000003],[34.7,31.85],[34.60000000000001,31.8],[34.60000000000001,31.700000000000003],[34.50000000000001,31.65],[34.50000000000001,31.55],[34.45,31.55],[34.45,31.5],[34.400000000000006,31.5],[34.400000000000006,31.450000000000003],[34.300000000000004,31.4],[34.300000000000004,31.35],[34.2,31.35],[34.150000000000006,31.25],[33.95,31.200000000000003],[33.95,31.15],[33.75000000000001,31.15],[33.75000000000001,31.1],[33.45,31.1],[33.45,31.200000000000003],[33.050000000000004,31.25],[33.00000000000001,31.15],[32.900000000000006,31.15],[32.900000000000006,31.1],[32.45,31.1],[32.45,31.200000000000003],[32.35000000000001,31.25],[32.35000000000001,31.3],[32.050000000000004,31.35],[32.00000000000001,31.450000000000003],[31.95,31.450000000000003],[31.95,31.55],[31.8,31.55],[31.750000000000004,31.450000000000003],[31.45,31.450000000000003],[31.45,31.5],[31.350000000000005,31.5],[31.350000000000005,31.55],[31.250000000000004,31.55],[31.250000000000004,31.6],[30.849999999999998,31.6],[30.849999999999998,31.55],[30.750000000000004,31.55],[30.750000000000004,31.5],[30.599999999999998,31.5],[30.599999999999998,31.450000000000003],[30.349999999999998,31.450000000000003],[30.349999999999998,31.35],[30.250000000000004,31.35],[30.250000000000004,31.3],[30.000000000000004,31.3],[29.95,31.200000000000003],[29.849999999999998,31.200000000000003],[29.849999999999998,31.15],[29.8,31.15],[29.8,31.1],[29.7,31.1],[29.7,31.05],[29.599999999999998,31.05],[29.599999999999998,31.0],[29.500000000000004,30.950000000000003],[29.500000000000004,30.9],[29.400000000000002,30.9],[29.400000000000002,30.85],[28.900000000000002,30.85],[28.849999999999998,30.950000000000003],[28.750000000000004,30.950000000000003],[28.750000000000004,31.0],[28.599999999999998,31.0],[28.599999999999998,31.05],[28.45,31.05],[28.45,31.1],[27.900000000000002,31.1],[27.900000000000002,31.200000000000003],[27.750000000000004,31.200000000000003],[27.750000000000004,31.15],[27.650000000000002,31.15],[27.650000000000002,31.200000000000003],[27.45,31.200000000000003],[27.400000000000002,31.3],[27.349999999999998,31.3],[27.349999999999998,31.35],[27.05,31.35],[27.05,31.4],[26.95,31.4],[26.95,31.450000000000003],[26.750000000000004,31.450000000000003],[26.750000000000004,31.5],[26.349999999999998,31.5],[26.349999999999998,31.55],[26.2,31.55],[26.2,31.6],[25.650000000000002,31.6],[25.650000000000002,31.55],[25.500000000000004,31.55],[25.500000000000004,31.5],[25.2,31.5],[25.2,31.6],[25.150000000000002,31.6],[25.150000000000002,31.700000000000003],[25.099999999999998,31.700000000000003],[25.099999999999998,31.8],[25.000000000000004,31.85],[25.000000000000004,31.950000000000003],[24.900000000000002,31.950000000000003],[24.900000000000002,32.0],[24.05,32.0],[24.0,32.1],[23.8,32.1],[23.8,32.15],[23.400000000000002,32.15],[23.400000000000002,32.2],[23.25,32.2],[23.25,32.3],[23.150000000000002,32.3],[23.150000000000002,32.5],[23.1,32.5],[23.1,32.65],[22.900000000000002,32.65],[22.900000000000002,32.7],[22.75,32.7],[22.75,32.75],[22.650000000000002,32.75],[22.650000000000002,32.8],[22.5,32.8],[22.5,32.85],[22.2,32.85],[22.2,32.9],[21.55,32.9],[21.55,32.85],[21.45,32.85],[21.45,32.8],[21.05,32.8],[21.0,32.7],[20.900000000000002,32.7],[20.900000000000002,32.65],[20.8,32.65],[20.8,32.6],[20.6,32.6],[20.6,32.55],[20.55,32.55],[20.5,32.45],[20.400000000000002,32.45],[20.35,32.35],[20.25,32.35],[20.25,32.3],[20.2,32.3],[20.150000000000002,32.2],[20.1,32.2],[20.1,32.15],[20.05,32.15],[20.05,32.05],[19.95,32.0],[19.95,31.65],[20.0,31.65],[20.0,31.450000000000003],[20.05,31.450000000000003],[20.05,31.35],[20.1,31.35],[20.1,31.25],[20.150000000000002,31.25],[20.150000000000002,31.0],[20.1,31.0],[20.05,30.8],[19.95,30.75],[19.95,30.65],[19.900000000000002,30.65],[19.900000000000002,30.6],[19.8,30.6],[19.8,30.5],[19.7,30.5],[19.650000000000002,30.4],[19.55,30.4],[19.55,30.35],[19.35,30.35],[19.35,30.3],[18.900000000000002,30.3],[18.900000000000002,30.35],[18.75,30.35],[18.75,30.4],[18.650000000000002,30.4],[18.6,30.5],[18.5,30.5],[18.5,30.6],[18.35,30.6],[18.3,30.700000000000003],[18.25,30.700000000000003],[18.25,30.8],[18.05,30.8],[18.05,30.85],[17.75,30.9],[17.75,30.950000000000003],[17.650000000000002,30.950000000000003],[17.650000000000002,31.0],[17.5,31.0],[17.5,31.05],[17.400000000000002,31.05],[17.400000000000002,31.1],[17.05,31.1],[17.05,31.15],[16.85,31.15],[16.85,31.200000000000003],[16.25,31.200000000000003],[16.25,31.25],[16.05,31.25],[16.05,31.3],[15.95,31.3],[15.95,31.35],[15.75,31.35],[15.7,31.450000000000003],[15.600000000000001,31.5],[15.55,31.6],[15.5,31.6],[15.5,31.75],[15.45,31.75],[15.45,31.85],[15.350000000000001,31.9],[15.350000000000001,32.2],[15.3,32.2],[15.3,32.3],[15.25,32.3],[15.2,32.4],[14.95,32.4],[14.95,32.45],[14.7,32.45],[14.7,32.5],[14.5,32.5],[14.45,32.6],[14.3,32.6],[14.25,32.7],[14.0,32.7],[13.95,32.8],[13.55,32.8],[13.55,32.85],[13.400000000000002,32.85],[13.400000000000002,32.9],[12.900000000000002,32.85],[12.900000000000002,32.8],[12.5,32.8],[12.5,32.85],[12.2,32.85],[12.2,32.9],[12.100000000000001,32.9],[12.100000000000001,32.95],[12.0,32.95],[12.0,33.0],[11.899999999999999,33.05],[11.899999999999999,33.1],[11.600000000000001,33.1],[11.600000000000001,33.15],[11.5,33.15],[11.45,33.25],[11.25,33.3],[11.25,33.35],[11.149999999999999,33.35],[11.149999999999999,33.4],[11.100000000000001,33.4],[11.100000000000001,33.6],[11.0,33.6],[11.0,33.9],[10.75,33.9],[10.75,33.75],[10.649999999999999,33.7],[10.649999999999999,33.65],[10.399999999999999,33.65],[10.399999999999999,33.7],[10.3,33.7],[10.3,33.75],[10.2,33.8],[10.2,33.85],[10.100000000000001,33.85],[10.100000000000001,33.95],[10.0,34.0],[10.0,34.15],[10.05,34.15],[10.100000000000001,34.35],[10.399999999999999,34.4],[10.45,34.5],[10.600000000000001,34.5],[10.600000000000001,34.6],[10.649999999999999,34.6],[10.649999999999999,34.65],[10.75,34.65],[10.75,34.7],[10.8,34.7],[10.8,34.8],[10.899999999999999,34.8],[10.899999999999999,34.9],[10.95,34.9],[10.95,35.0],[11.0,35.0],[11.0,35.15],[11.100000000000001,35.15],[11.100000000000001,35.3],[11.05,35.3],[11.05,35.65],[10.899999999999999,35.65],[10.899999999999999,35.7],[10.850000000000001,35.7],[10.850000000000001,35.8],[10.7,35.8],[10.7,35.85],[10.600000000000001,35.85],[10.55,35.95],[10.5,35.95],[10.5,36.35],[10.55,36.35],[10.55,36.4],[10.8,36.4],[10.850000000000001,36.6],[10.95,36.65],[10.95,36.7],[11.0,36.7],[11.0,36.8],[11.100000000000001,36.85],[11.100000000000001,37.0],[11.05,37.0],[11.05,37.05],[10.899999999999999,37.05],[10.850000000000001,36.95],[10.8,36.95],[10.8,36.9],[10.75,36.9],[10.75,36.85],[10.55,36.85],[10.55,36.75],[10.3,36.75],[10.3,36.9],[10.25,36.9],[10.25,37.0],[10.2,37.0],[10.2,37.2],[10.149999999999999,37.2],[10.149999999999999,37.25],[9.899999999999999,37.25],[9.850000000000001,37.35],[9.600000000000001,37.35],[9.600000000000001,37.3],[9.2,37.25],[9.149999999999999,37.15],[8.95,37.1],[8.95,37.05],[8.900000000000002,37.05],[8.900000000000002,37.0],[8.8,37.0],[8.8,36.95],[8.55,36.95],[8.55,36.9],[8.05,36.9],[8.05,36.85],[7.750000000000001,36.85],[7.750000000000001,36.95],[7.550000000000002,36.95],[7.500000000000001,37.05],[7.400000000000001,37.05],[7.400000000000001,37.1],[7.250000000000001,37.1],[7.250000000000001,36.95],[7.2,36.95],[7.2,36.9],[6.900000000000001,36.85],[6.900000000000001,36.95],[6.6000000000000005,36.95],[6.550000000000002,37.05],[6.500000000000001,37.05],[6.500000000000001,37.1],[6.300000000000002,37.1],[6.250000000000001,36.9],[6.150000000000001,36.9],[6.150000000000001,36.85],[5.7,36.85],[5.7,36.8],[5.550000000000002,36.8],[5.550000000000002,36.65],[5.150000000000001,36.65],[5.150000000000001,36.7],[5.1000000000000005,36.7],[5.1000000000000005,36.8],[5.000000000000001,36.8],[5.000000000000001,36.85],[4.500000000000001,36.85],[4.500000000000001,36.9],[3.750000000000001,36.9],[3.750000000000001,36.85],[3.5500000000000016,36.85],[3.5500000000000016,36.8],[3.250000000000001,36.8],[3.250000000000001,36.75],[3.0500000000000016,36.75],[3.0500000000000016,36.8],[2.9000000000000012,36.8],[2.9000000000000012,36.75],[2.8000000000000016,36.7],[2.8000000000000016,36.65],[2.7,36.65],[2.7,36.6],[1.7999999999999998,36.6],[1.7999999999999998,36.55],[1.2999999999999998,36.55],[1.2999999999999998,36.5],[1.0499999999999998,36.5],[1.0499999999999998,36.45],[0.9500000000000002,36.45],[0.9000000000000004,36.35],[0.6000000000000005,36.35],[0.5500000000000007,36.25],[0.4500000000000002,36.25],[0.4500000000000002,36.2],[0.3000000000000007,36.2],[0.3000000000000007,36.1],[0.15000000000000036,36.1],[0.15000000000000036,36.05],[0.10000000000000053,36.05],[0.05000000000000071,35.85],[-0.2999999999999998,35.85],[-0.2999999999999998,35.9],[-0.4499999999999993,35.9],[-0.4499999999999993,35.85],[-0.4999999999999991,35.85],[-0.5499999999999998,35.75],[-0.8499999999999996,35.75],[-0.8499999999999996,35.7],[-0.9999999999999991,35.7],[-1.0499999999999998,35.6],[-1.1999999999999993,35.6],[-1.1999999999999993,35.55],[-1.2499999999999991,35.55],[-1.2499999999999991,35.35],[-1.4999999999999991,35.35],[-1.4999999999999991,35.3],[-1.5499999999999998,35.3],[-1.5499999999999998,35.25],[-1.6499999999999995,35.2],[-1.6499999999999995,35.15],[-1.7499999999999991,35.15],[-1.7499999999999991,35.1],[-2.75,35.1],[-2.75,35.15],[-2.8,35.15],[-2.8,35.2],[-2.8499999999999996,35.2],[-2.8999999999999995,35.3],[-3.1499999999999995,35.3],[-3.1999999999999997,35.2],[-3.5999999999999996,35.2],[-3.5999999999999996,35.25],[-3.8999999999999995,35.2],[-3.8999999999999995,35.25],[-4.05,35.25],[-4.05,35.2],[-4.25,35.2],[-4.25,35.15],[-4.55,35.15],[-4.55,35.2],[-4.75,35.2],[-4.75,35.25],[-4.85,35.25],[-4.9,35.35],[-5.05,35.35],[-5.05,35.45],[-5.1,35.45],[-5.1499999999999995,35.55],[-5.25,35.55],[-5.25,35.6],[-5.3,35.6],[-5.3,35.7],[-5.35,35.7],[-5.35,35.85],[-5.75,35.85],[-5.75,35.8],[-5.949999999999999,35.8],[-5.949999999999999,35.75],[-6.0,35.75],[-6.0,35.5],[-6.05,35.5],[-6.1,35.3],[-6.1499999999999995,35.3],[-6.1499999999999995,35.2],[-6.199999999999999,35.2],[-6.199999999999999,35.1],[-6.25,35.1],[-6.25,34.9],[-6.35,34.85],[-6.3999999999999995,34.65],[-6.5,34.6],[-6.5,34.5],[-6.55,34.5],[-6.55,36.95],[-6.5,36.95],[-6.5,36.9],[-6.3999999999999995,36.85],[-6.3999999999999995,36.65],[-6.3,36.65],[-6.3,36.5],[-6.25,36.5],[-6.25,36.4],[-6.199999999999999,36.4],[-6.1499999999999995,36.3],[-6.1,36.3],[-6.1,36.2],[-6.05,36.2],[-6.05,36.15],[-5.85,36.15],[-5.85,36.1],[-5.75,36.1],[-5.75,36.05],[-5.449999999999999,36.05],[-5.449999999999999,36.15],[-5.3,36.15],[-5.3,36.3],[-5.25,36.3],[-5.25,36.4],[-5.1,36.4],[-5.1,36.45],[-5.0,36.45],[-5.0,36.5],[-4.6499999999999995,36.5],[-4.6,36.6],[-4.55,36.6],[-4.55,36.65],[-4.449999999999999,36.65],[-4.449999999999999,36.7],[-4.1,36.7],[-4.1,36.75],[-3.5999999999999996,36.75],[-3.5999999999999996,36.7],[-3.3499999999999996,36.7],[-3.3499999999999996,36.75],[-2.8999999999999995,36.75],[-2.8999999999999995,36.7],[-2.5999999999999996,36.7],[-2.5999999999999996,36.8],[-2.55,36.8],[-2.55,36.85],[-2.249999999999999,36.85],[-2.249999999999999,36.75],[-2.05,36.75],[-2.05,36.85],[-1.9999999999999991,36.85],[-1.9999999999999991,36.9],[-1.8999999999999995,36.9],[-1.8999999999999995,37.05],[-1.8499999999999996,37.05],[-1.7999999999999998,37.25],[-1.6999999999999993,37.3],[-1.6499999999999995,37.4],[-1.4999999999999991,37.4],[-1.4999999999999991,37.5],[-1.3999999999999995,37.5],[-1.3999999999999995,37.55],[-0.8999999999999995,37.55],[-0.8999999999999995,37.6],[-0.7499999999999991,37.6],[-0.7499999999999991,37.9],[-0.6499999999999995,37.95],[-0.6499999999999995,38.15],[-0.4999999999999991,38.15],[-0.4999999999999991,38.35],[-0.39999999999999947,38.35],[-0.34999999999999964,38.45],[-0.2999999999999998,38.45],[-0.2999999999999998,38.5],[-0.1999999999999993,38.5],[-0.1999999999999993,38.55],[-0.04999999999999982,38.55],[-0.04999999999999982,38.65],[0.15000000000000036,38.65],[0.15000000000000036,38.7],[0.20000000000000018,38.7],[0.20000000000000018,38.85],[-0.04999999999999982,38.85],[-0.09999999999999964,38.95],[-0.1999999999999993,39.0],[-0.1999999999999993,39.1],[-0.2499999999999991,39.1],[-0.2499999999999991,39.3],[-0.2999999999999998,39.3],[-0.2999999999999998,39.55],[-0.2499999999999991,39.55],[-0.1999999999999993,39.75],[-0.09999999999999964,39.8],[-0.04999999999999982,39.9],[8.881784197001252e-16,39.9],[8.881784197001252e-16,40.0],[0.05000000000000071,40.0],[0.05000000000000071,40.05],[0.15000000000000036,40.05],[0.15000000000000036,40.15],[0.2500000000000009,40.15],[0.2500000000000009,40.25],[0.35000000000000053,40.3],[0.35000000000000053,40.35],[0.4500000000000002,40.4],[0.4500000000000002,40.45],[0.5000000000000009,40.45],[0.5000000000000009,40.6],[0.7500000000000009,40.6],[0.7500000000000009,40.65],[0.8000000000000007,40.65],[0.8000000000000007,40.8],[0.7500000000000009,40.8],[0.7500000000000009,40.9],[0.8500000000000005,40.9],[0.8500000000000005,40.95],[0.9000000000000004,40.95],[0.9000000000000004,41.0],[1.0000000000000009,41.0],[1.0000000000000009,41.05],[1.2000000000000002,41.05],[1.2500000000000009,41.15],[1.6000000000000005,41.15],[1.6000000000000005,41.2],[1.7999999999999998,41.2],[1.7999999999999998,41.25],[2.05,41.25],[2.05,41.300000000000004],[2.1500000000000012,41.300000000000004],[2.2,41.4],[2.250000000000001,41.4],[2.250000000000001,41.45],[2.3,41.45],[2.3,41.5],[2.45,41.5],[2.500000000000001,41.6],[2.6500000000000012,41.6],[2.6500000000000012,41.65],[2.8000000000000016,41.65],[2.8000000000000016,41.7],[2.95,41.7],[2.95,41.75],[3.000000000000001,41.75],[3.0500000000000016,41.85],[3.250000000000001,41.9],[3.250000000000001,42.1],[3.1000000000000005,42.1],[3.1000000000000005,42.25],[3.2,42.25],[3.2,42.45],[3.1500000000000012,42.45],[3.1500000000000012,42.550000000000004],[3.0500000000000016,42.550000000000004],[3.0500000000000016,43.050000000000004],[3.1000000000000005,43.050000000000004],[3.1000000000000005,43.15],[3.2,43.15],[3.2,43.2],[3.250000000000001,43.2],[3.250000000000001,43.25],[3.3500000000000005,43.25],[3.3500000000000005,43.300000000000004],[3.5500000000000016,43.300000000000004],[3.6000000000000005,43.4],[3.750000000000001,43.4],[3.750000000000001,43.45],[3.95,43.5],[3.95,43.550000000000004],[4.1000000000000005,43.550000000000004],[4.150000000000001,43.45],[4.550000000000002,43.45],[4.550000000000002,43.35],[4.900000000000001,43.35],[4.900000000000001,43.4],[5.050000000000002,43.4],[5.050000000000002,43.35],[5.3500000000000005,43.35],[5.3500000000000005,43.2],[5.550000000000002,43.2],[5.550000000000002,43.15],[5.800000000000002,43.15],[5.800000000000002,43.050000000000004],[5.95,43.050000000000004],[5.95,43.1],[6.3500000000000005,43.1],[6.3500000000000005,43.15],[6.650000000000001,43.15],[6.7,43.35],[6.750000000000001,43.35],[6.750000000000001,43.4],[6.900000000000001,43.4],[6.900000000000001,43.45],[6.95,43.45],[6.95,43.550000000000004],[7.150000000000001,43.550000000000004],[7.150000000000001,43.65],[7.3500000000000005,43.65],[7.3500000000000005,43.7],[7.45,43.7],[7.500000000000001,43.800000000000004],[7.750000000000001,43.800000000000004],[7.750000000000001,43.85],[8.0,43.85],[8.0,43.9],[8.150000000000002,43.9],[8.150000000000002,43.95],[8.2,43.95],[8.2,44.050000000000004],[8.25,44.050000000000004],[8.25,44.15],[8.45,44.15],[8.45,44.300000000000004],[8.5,44.300000000000004],[8.55,44.4],[9.149999999999999,44.4],[9.149999999999999,44.35],[9.3,44.35],[9.3,44.300000000000004],[9.399999999999999,44.300000000000004],[9.399999999999999,44.25],[9.5,44.25],[9.55,44.15],[9.75,44.15],[9.8,44.050000000000004],[10.05,44.050000000000004],[10.05,44.0],[10.149999999999999,44.0],[10.2,43.9],[10.3,43.9],[10.3,43.5],[10.350000000000001,43.5],[10.399999999999999,43.4],[10.45,43.4],[10.5,43.300000000000004],[10.55,43.300000000000004],[10.55,42.95],[10.75,42.95],[10.850000000000001,42.75],[10.95,42.75],[11.0,42.65],[11.100000000000001,42.65],[11.100000000000001,42.550000000000004],[11.2,42.550000000000004],[11.2,42.4],[11.55,42.4],[11.55,42.35],[11.649999999999999,42.300000000000004],[11.649999999999999,42.25],[11.7,42.25],[11.75,42.15],[11.8,42.15],[11.8,42.050000000000004],[11.95,42.050000000000004],[11.95,42.0],[12.05,42.0],[12.100000000000001,41.9],[12.2,41.9],[12.25,41.7],[12.350000000000001,41.7],[12.350000000000001,41.65],[12.5,41.65],[12.600000000000001,41.45],[12.75,41.45],[12.75,41.4],[12.95,41.4],[12.95,41.35],[13.05,41.300000000000004],[13.05,41.25],[13.2,41.25],[13.2,41.300000000000004],[13.400000000000002,41.300000000000004],[13.400000000000002,41.25],[13.75,41.25],[13.8,41.15],[13.900000000000002,41.15],[13.900000000000002,41.0],[14.0,41.0],[14.0,40.95],[14.05,40.95],[14.05,40.8],[14.25,40.8],[14.25,40.85],[14.3,40.85],[14.3,40.8],[14.400000000000002,40.8],[14.400000000000002,40.75],[14.45,40.75],[14.45,40.65],[14.850000000000001,40.65],[14.900000000000002,40.55],[14.95,40.55],[14.95,40.45],[15.0,40.45],[15.0,40.35],[14.95,40.35],[14.95,40.2],[15.05,40.2],[15.05,40.15],[15.25,40.15],[15.25,40.1],[15.3,40.1],[15.3,40.0],[15.45,40.0],[15.5,40.1],[15.600000000000001,40.1],[15.600000000000001,40.05],[15.650000000000002,40.05],[15.7,39.95],[15.75,39.95],[15.75,39.9],[15.8,39.9],[15.8,39.65],[15.850000000000001,39.65],[15.850000000000001,39.55],[15.900000000000002,39.55],[15.95,39.45],[16.0,39.45],[16.0,39.4],[16.05,39.4],[16.05,39.1],[16.1,39.1],[16.1,39.0],[16.150000000000002,39.0],[16.2,38.9],[16.25,38.9],[16.25,38.8],[16.2,38.8],[16.150000000000002,38.7],[15.900000000000002,38.7],[15.900000000000002,38.4],[15.8,38.35],[15.8,38.25],[15.650000000000002,38.25],[15.650000000000002,37.95],[15.7,37.95],[15.7,37.9],[16.05,37.9],[16.05,37.95],[16.150000000000002,38.0],[16.150000000000002,38.15],[16.25,38.15],[16.25,38.25],[16.55,38.4],[16.55,38.8],[16.6,38.8],[16.6,38.85],[16.7,38.85],[16.7,38.9],[17.150000000000002,38.9],[17.150000000000002,39.1],[17.1,39.1],[17.1,39.4],[17.05,39.4],[17.0,39.5],[16.900000000000002,39.5],[16.85,39.6],[16.55,39.6],[16.55,39.65],[16.5,39.65],[16.5,39.9],[16.6,39.9],[16.6,40.1],[16.650000000000002,40.1],[16.650000000000002,40.15],[16.75,40.15],[16.75,40.3],[16.8,40.3],[16.8,40.35],[16.900000000000002,40.4],[16.900000000000002,40.45],[17.0,40.45],[17.0,40.5],[17.150000000000002,40.5],[17.150000000000002,40.4],[17.35,40.4],[17.35,40.35],[17.45,40.35],[17.45,40.3],[17.85,40.3],[17.85,40.25],[17.95,40.2],[17.95,40.15],[18.0,40.15],[18.0,39.95],[18.05,39.95],[18.05,39.9],[18.150000000000002,39.9],[18.150000000000002,39.85],[18.400000000000002,39.85],[18.400000000000002,39.95],[18.45,39.95],[18.45,40.05],[18.5,40.05],[18.5,40.25],[18.400000000000002,40.3],[18.400000000000002,40.35],[18.3,40.35],[18.3,40.4],[18.25,40.4],[18.2,40.5],[18.1,40.5],[18.1,40.55],[18.05,40.55],[18.0,40.65],[17.85,40.65],[17.85,40.7],[17.75,40.7],[17.7,40.8],[17.5,40.8],[17.5,40.85],[17.3,40.9],[17.3,40.95],[17.25,40.95],[17.2,41.05],[17.1,41.05],[17.1,41.1],[16.8,41.1],[16.8,41.15],[16.7,41.15],[16.7,41.2],[16.55,41.2],[16.55,41.25],[16.45,41.25],[16.45,41.300000000000004],[16.3,41.300000000000004],[16.3,41.35],[16.1,41.35],[16.1,41.4],[16.0,41.4],[16.0,41.45],[15.900000000000002,41.5],[15.900000000000002,41.65],[16.05,41.65],[16.05,41.7],[16.150000000000002,41.75],[16.150000000000002,41.9],[16.1,41.9],[16.1,41.95],[15.850000000000001,41.95],[15.850000000000001,41.9],[15.100000000000001,41.9],[15.100000000000001,41.95],[14.900000000000002,42.0],[14.900000000000002,42.050000000000004],[14.8,42.050000000000004],[14.8,42.1],[14.7,42.15],[14.7,42.2],[14.55,42.2],[14.55,42.25],[14.5,42.25],[14.45,42.35],[14.25,42.4],[14.25,42.5],[14.2,42.5],[14.2,42.550000000000004],[14.100000000000001,42.550000000000004],[14.100000000000001,42.6],[14.0,42.65],[14.0,42.800000000000004],[13.95,42.800000000000004],[13.95,42.9],[13.900000000000002,42.9],[13.900000000000002,43.0],[13.850000000000001,43.0],[13.850000000000001,43.1],[13.8,43.1],[13.8,43.2],[13.75,43.2],[13.75,43.35],[13.650000000000002,43.4],[13.600000000000001,43.6],[13.400000000000002,43.6],[13.400000000000002,43.65],[13.25,43.65],[13.25,43.75],[13.150000000000002,43.75],[13.100000000000001,43.85],[12.95,43.85],[12.95,43.9],[12.850000000000001,43.9],[12.850000000000001,43.95],[12.650000000000002,44.0],[12.600000000000001,44.1],[12.5,44.1],[12.45,44.2],[12.350000000000001,44.25],[12.350000000000001,44.35],[12.3,44.35],[12.3,44.45],[12.25,44.45],[12.25,44.800000000000004],[12.5,44.800000000000004],[12.5,45.050000000000004],[12.400000000000002,45.050000000000004],[12.400000000000002,45.1],[12.3,45.15],[12.3,45.35],[12.350000000000001,45.35],[12.350000000000001,45.4],[12.5,45.4],[12.5,45.45],[12.7,45.5],[12.7,45.550000000000004],[12.8,45.550000000000004],[12.8,45.6],[12.900000000000002,45.6],[12.900000000000002,45.65],[13.150000000000002,45.65],[13.150000000000002,45.7],[13.45,45.65],[13.5,45.75],[13.7,45.75],[13.7,45.7],[13.75,45.7],[13.75,45.6],[13.7,45.6],[13.7,45.550000000000004],[13.55,45.550000000000004],[13.55,45.15],[13.600000000000001,45.15],[13.600000000000001,45.050000000000004],[13.7,45.050000000000004],[13.7,45.0],[13.75,45.0],[13.75,44.9],[13.8,44.9],[13.850000000000001,44.800000000000004],[14.0,44.800000000000004],[14.0,44.9],[14.05,44.9],[14.05,44.95],[14.2,44.95],[14.2,45.15],[14.25,45.15],[14.25,45.300000000000004],[14.3,45.300000000000004],[14.3,45.35],[14.5,45.35],[14.5,45.300000000000004],[14.55,45.300000000000004],[14.55,45.0],[14.600000000000001,45.0],[14.600000000000001,44.95],[14.75,44.95],[14.75,45.1],[14.7,45.1],[14.7,45.15],[14.8,45.15],[14.8,45.1],[14.900000000000002,45.050000000000004],[14.900000000000002,44.75],[14.8,44.75],[14.8,44.6],[14.900000000000002,44.550000000000004],[14.900000000000002,44.45],[15.0,44.45],[15.0,44.4],[15.05,44.4],[15.05,44.300000000000004],[15.150000000000002,44.25],[15.150000000000002,44.15],[15.05,44.15],[15.05,43.95],[15.100000000000001,43.95],[15.100000000000001,43.9],[15.2,43.9],[15.25,43.800000000000004],[15.55,43.85],[15.600000000000001,43.75],[15.650000000000002,43.75],[15.650000000000002,43.65],[15.900000000000002,43.65],[15.900000000000002,43.6],[15.95,43.6],[15.95,43.5],[16.55,43.5],[16.55,43.45],[16.75,43.45],[16.75,43.4],[16.95,43.4],[16.95,43.35],[17.05,43.300000000000004],[17.05,43.25],[17.150000000000002,43.2],[17.150000000000002,43.15],[17.35,43.15],[17.35,43.1],[17.400000000000002,43.1],[17.400000000000002,42.9],[17.5,42.9],[17.5,42.85],[17.7,42.85],[17.7,42.800000000000004],[17.75,42.800000000000004],[17.8,42.7],[17.900000000000002,42.7],[17.900000000000002,42.65],[18.150000000000002,42.65],[18.150000000000002,42.6],[18.25,42.6],[18.25,42.550000000000004],[18.3,42.550000000000004],[18.3,42.5],[18.5,42.45],[18.5,42.4],[18.7,42.4],[18.7,42.35],[18.8,42.300000000000004],[18.8,42.25],[18.900000000000002,42.25],[18.95,42.15],[19.05,42.15],[19.05,42.1],[19.150000000000002,42.050000000000004],[19.150000000000002,41.9],[19.55,41.85],[19.55,41.45],[19.45,41.45],[19.45,41.300000000000004],[19.55,41.300000000000004],[19.55,41.2],[19.45,41.15],[19.45,40.95],[19.400000000000002,40.95],[19.400000000000002,40.8],[19.35,40.8],[19.35,40.55],[19.400000000000002,40.55],[19.45,40.45],[19.5,40.45],[19.5,40.35],[19.45,40.35],[19.45,40.2],[19.55,40.2],[19.55,40.15],[19.75,40.15],[19.8,40.05],[19.900000000000002,40.0],[19.95,39.9],[20.0,39.9],[20.0,39.65],[20.150000000000002,39.65],[20.150000000000002,39.5],[20.25,39.5],[20.3,39.3],[20.5,39.25],[20.5,39.2],[20.55,39.2],[20.6,39.1],[20.7,39.1],[20.75,38.8],[20.6,38.8],[20.6,38.75],[20.55,38.75],[20.55,38.6],[20.7,38.6],[20.7,38.65],[20.75,38.65],[20.75,38.75],[20.900000000000002,38.75],[20.900000000000002,38.65],[21.05,38.65],[21.05,38.4],[21.1,38.4],[21.1,38.3],[21.25,38.3],[21.25,38.35],[21.75,38.35],[21.75,38.2],[21.7,38.2],[21.7,38.15],[21.5,38.15],[21.5,38.2],[21.35,38.2],[21.35,38.1],[21.3,38.1],[21.3,37.95],[21.25,37.95],[21.3,37.65],[21.45,37.65],[21.45,37.6],[21.55,37.6],[21.55,37.5],[21.6,37.5],[21.650000000000002,37.4],[21.7,37.4],[21.7,37.25],[21.6,37.25],[21.6,37.2],[21.55,37.2],[21.55,37.05],[21.650000000000002,37.0],[21.7,36.8],[21.8,36.8],[21.8,36.75],[21.95,36.75],[21.95,37.0],[22.150000000000002,37.0],[22.150000000000002,36.9],[22.25,36.9],[22.25,36.85],[22.3,36.85],[22.3,36.7],[22.35,36.7],[22.35,36.45],[22.5,36.45],[22.5,36.65],[22.55,36.65],[22.55,36.8],[22.8,36.8],[22.8,36.65],[23.0,36.65],[23.0,36.7],[23.05,36.7],[23.05,36.85],[23.0,36.85],[23.0,37.1],[22.900000000000002,37.15],[22.85,37.35],[22.75,37.35],[22.75,37.55],[22.8,37.55],[22.8,37.5],[23.0,37.5],[23.0,37.45],[23.05,37.45],[23.05,37.35],[23.25,37.35],[23.25,37.4],[23.5,37.4],[23.5,37.55],[23.25,37.55],[23.25,37.6],[23.2,37.6],[23.2,37.8],[23.150000000000002,37.8],[23.150000000000002,37.85],[23.0,37.85],[23.0,37.9],[23.150000000000002,37.9],[23.150000000000002,37.95],[23.400000000000002,37.95],[23.400000000000002,37.9],[23.75,37.9],[23.8,37.8],[23.900000000000002,37.8],[23.900000000000002,37.7],[24.05,37.7],[24.05,37.9],[24.0,37.9],[24.0,38.15],[24.25,38.15],[24.25,38.35]],[[24.25,38.0],[24.35,38.0],[24.35,37.95],[24.55,37.95],[24.55,38.15],[24.25,38.15],[24.25,38.0]],[[14.3,44.800000000000004],[14.350000000000001,44.800000000000004],[14.350000000000001,44.550000000000004],[14.5,44.550000000000004],[14.5,44.95],[14.45,44.95],[14.45,45.0],[14.3,45.0],[14.3,44.800000000000004]],[[17.05,42.9],[17.2,42.9],[17.2,43.050000000000004],[17.05,43.050000000000004],[17.05,42.9]],[[9.350000000000001,42.9],[9.3,42.9],[9.3,42.7],[9.25,42.7],[9.25,42.75],[9.100000000000001,42.75],[9.100000000000001,42.7],[9.05,42.7],[9.05,42.6],[8.7,42.6],[8.7,42.550000000000004],[8.650000000000002,42.550000000000004],[8.650000000000002,42.4],[8.600000000000001,42.4],[8.600000000000001,42.15],[8.7,42.1],[8.7,41.9],[8.8,41.9],[8.8,41.550000000000004],[8.850000000000001,41.550000000000004],[8.850000000000001,41.5],[9.0,41.5],[9.0,41.45],[9.100000000000001,41.45],[9.100000000000001,41.4],[9.25,41.4],[9.25,41.550000000000004],[9.350000000000001,41.550000000000004],[9.350000000000001,41.65],[9.399999999999999,41.65],[9.399999999999999,41.95],[9.5,42.0],[9.5,42.1],[9.55,42.1],[9.55,42.35],[9.5,42.35],[9.5,43.0],[9.350000000000001,43.0],[9.350000000000001,42.9]],[[9.3,41.25],[9.149999999999999,41.25],[9.149999999999999,41.15],[9.100000000000001,41.15],[9.100000000000001,41.1],[8.95,41.1],[8.95,41.05],[8.850000000000001,41.05],[8.850000000000001,40.95],[8.8,40.95],[8.8,40.9],[8.650000000000002,40.9],[8.650000000000002,40.85],[8.2,40.85],[8.2,40.6],[8.3,40.6],[8.3,40.5],[8.400000000000002,40.45],[8.400000000000002,40.35],[8.5,40.3],[8.5,40.05],[8.400000000000002,40.05],[8.400000000000002,39.9],[8.55,39.9],[8.55,39.8],[8.45,39.8],[8.45,39.5],[8.400000000000002,39.5],[8.400000000000002,39.05],[8.55,39.05],[8.55,38.95],[8.600000000000001,38.95],[8.600000000000001,38.9],[9.0,38.9],[9.0,39.15],[9.05,39.15],[9.05,39.2],[9.350000000000001,39.2],[9.350000000000001,39.15],[9.55,39.15],[9.55,39.25],[9.600000000000001,39.25],[9.600000000000001,39.4],[9.649999999999999,39.4],[9.649999999999999,39.7],[9.7,39.7],[9.7,40.1],[9.649999999999999,40.1],[9.649999999999999,40.35],[9.7,40.35],[9.7,40.4],[9.8,40.4],[9.8,40.6],[9.75,40.6],[9.75,40.9],[9.600000000000001,40.9],[9.600000000000001,41.1],[9.5,41.1],[9.5,41.25],[9.45,41.25],[9.45,41.300000000000004],[9.3,41.300000000000004],[9.3,41.25]],[[24.6,40.6],[24.75,40.6],[24.75,40.8],[24.6,40.8],[24.6,40.6]],[[23.8,40.0],[23.95,40.0],[23.95,40.15],[23.8,40.15],[23.8,40.0]],[[4.050000000000002,40.05],[3.8000000000000016,40.05],[3.8000000000000016,39.9],[4.2,39.9],[4.2,40.1],[4.050000000000002,40.1],[4.050000000000002,40.05]],[[23.35,39.95],[23.5,39.95],[23.5,40.1],[23.35,40.1],[23.35,39.95]],[[25.05,39.85],[25.150000000000002,39.85],[25.150000000000002,39.8],[25.349999999999998,39.8],[25.349999999999998,40.0],[25.05,40.0],[25.05,39.85]],[[3.0500000000000016,39.9],[2.9000000000000012,39.9],[2.9000000000000012,39.85],[2.7,39.85],[2.7,39.8],[2.6500000000000012,39.8],[2.6500000000000012,39.75],[2.5500000000000016,39.7],[2.5500000000000016,39.55],[2.750000000000001,39.55],[2.750000000000001,39.4],[2.95,39.4],[3.000000000000001,39.3],[3.1500000000000012,39.3],[3.1500000000000012,39.35],[3.250000000000001,39.35],[3.250000000000001,39.45],[3.3000000000000016,39.45],[3.3500000000000005,39.55],[3.4000000000000012,39.55],[3.4000000000000012,39.75],[3.2,39.75],[3.2,39.95],[3.0500000000000016,39.95],[3.0500000000000016,39.9]],[[19.7,39.65],[19.85,39.65],[19.85,39.8],[19.7,39.8],[19.7,39.65]],[[26.099999999999998,39.3],[25.849999999999998,39.3],[25.849999999999998,39.15],[26.000000000000004,39.15],[26.05,39.05],[26.150000000000002,39.05],[26.150000000000002,39.0],[26.3,39.0],[26.3,38.95],[26.55,38.95],[26.55,39.15],[26.500000000000004,39.15],[26.500000000000004,39.2],[26.400000000000002,39.25],[26.400000000000002,39.35],[26.099999999999998,39.35],[26.099999999999998,39.3]],[[1.2999999999999998,38.9],[1.5000000000000009,38.9],[1.5000000000000009,38.95],[1.6000000000000005,38.95],[1.6000000000000005,39.1],[1.2999999999999998,39.1],[1.2999999999999998,38.9]],[[25.900000000000002,38.45],[26.000000000000004,38.4],[26.000000000000004,38.3],[26.150000000000002,38.3],[26.150000000000002,38.55],[26.099999999999998,38.55],[26.099999999999998,38.6],[25.900000000000002,38.6],[25.900000000000002,38.45]],[[20.55,38.35],[20.400000000000002,38.35],[20.400000000000002,38.3],[20.35,38.3],[20.35,38.15],[20.5,38.15],[20.5,38.1],[20.75,38.1],[20.75,38.45],[20.7,38.45],[20.7,38.5],[20.55,38.5],[20.55,38.35]],[[13.100000000000001,38.15],[13.05,38.15],[13.05,38.05],[12.850000000000001,38.05],[12.850000000000001,38.1],[12.55,38.1],[12.55,38.0],[12.5,38.0],[12.5,37.9],[12.45,37.9],[12.45,37.7],[12.5,37.7],[12.5,37.65],[12.600000000000001,37.65],[12.600000000000001,37.6],[12.95,37.6],[12.95,37.55],[13.05,37.55],[13.05,37.5],[13.2,37.5],[13.25,37.4],[13.45,37.35],[13.45,37.3],[13.55,37.3],[13.55,37.25],[13.650000000000002,37.2],[13.650000000000002,37.15],[13.900000000000002,37.15],[13.900000000000002,37.1],[14.25,37.1],[14.25,37.05],[14.3,37.05],[14.3,37.0],[14.350000000000001,37.0],[14.400000000000002,36.9],[14.45,36.9],[14.45,36.8],[14.600000000000001,36.8],[14.600000000000001,36.75],[14.7,36.75],[14.7,36.7],[15.100000000000001,36.7],[15.100000000000001,36.9],[15.2,36.9],[15.2,36.95],[15.25,36.95],[15.25,37.15],[15.2,37.15],[15.2,37.3],[15.100000000000001,37.3],[15.100000000000001,37.55],[15.2,37.6],[15.2,37.7],[15.25,37.7],[15.25,37.85],[15.3,37.85],[15.350000000000001,37.95],[15.400000000000002,37.95],[15.45,38.05],[15.5,38.05],[15.5,38.2],[15.25,38.2],[15.25,38.15],[15.150000000000002,38.15],[15.150000000000002,38.1],[15.05,38.1],[15.05,38.15],[14.75,38.15],[14.75,38.1],[14.600000000000001,38.1],[14.600000000000001,38.05],[14.400000000000002,38.05],[14.400000000000002,38.0],[14.2,38.0],[14.2,38.05],[13.95,38.05],[13.95,38.0],[13.8,38.0],[13.8,37.95],[13.75,37.95],[13.75,38.0],[13.600000000000001,38.0],[13.55,38.1],[13.350000000000001,38.1],[13.350000000000001,38.2],[13.100000000000001,38.2],[13.100000000000001,38.15]],[[20.7,37.7],[20.900000000000002,37.7],[20.900000000000002,37.85],[20.7,37.85],[20.7,37.7]],[[26.750000000000004,37.65],[27.05,37.65],[27.05,37.8],[26.750000000000004,37.8],[26.750000000000004,37.65]],[[25.05,36.95],[25.2,36.95],[25.2,37.1],[25.05,37.1],[25.05,36.95]],[[25.400000000000002,36.95],[25.55,36.95],[25.55,37.1],[25.400000000000002,37.1],[25.400000000000002,36.95]],[[26.900000000000002,36.9],[27.05,36.9],[27.05,37.05],[26.900000000000002,37.05],[26.900000000000002,36.9]],[[28.05,36.35],[27.849999999999998,36.35],[27.849999999999998,36.3],[27.750000000000004,36.25],[27.750000000000004,35.9],[27.900000000000002,35.9],[27.900000000000002,36.0],[27.95,36.0],[27.95,36.05],[28.099999999999998,36.05],[28.099999999999998,36.15],[28.150000000000002,36.15],[28.150000000000002,36.25],[28.2,36.25],[28.2,36.4],[28.05,36.4],[28.05,36.35]],[[22.900000000000002,36.15],[23.05,36.15],[23.05,36.3],[22.900000000000002,36.3],[22.900000000000002,36.15]],[[24.05,35.55],[23.55,35.55],[23.55,35.2],[24.2,35.2],[24.2,35.15],[24.55,35.15],[24.55,35.1],[24.75,35.1],[24.75,34.9],[25.099999999999998,34.9],[25.099999999999998,34.95],[25.55,34.95],[25.55,35.0],[26.2,35.0],[26.2,35.05],[26.250000000000004,35.05],[26.250000000000004,35.25],[26.000000000000004,35.25],[26.000000000000004,35.2],[25.849999999999998,35.2],[25.849999999999998,35.15],[25.7,35.15],[25.7,35.35],[25.05,35.35],[25.05,35.4],[24.6,35.4],[24.6,35.35],[24.25,35.35],[24.25,35.45],[24.2,35.45],[24.2,35.6],[24.05,35.6],[24.05,35.55]],[[27.05,35.4],[27.2,35.4],[27.2,35.6],[27.05,35.6],[27.05,35.4]],[[34.150000000000006,35.45],[34.300000000000004,35.45],[34.300000000000004,35.6],[34.150000000000006,35.6],[34.150000000000006,35.45]],[[33.900000000000006,35.4],[33.7,35.4],[33.7,35.35],[32.95,35.35],[32.95,35.2],[32.900000000000006,35.2],[32.900000000000006,35.15],[32.7,35.15],[32.7,35.2],[32.550000000000004,35.2],[32.550000000000004,35.15],[32.45,35.1],[32.45,35.05],[32.300000000000004,35.05],[32.300000000000004,34.85],[32.400000000000006,34.8],[32.400000000000006,34.7],[32.50000000000001,34.7],[32.50000000000001,34.65],[33.10000000000001,34.65],[33.10000000000001,34.7],[33.400000000000006,34.7],[33.400000000000006,34.75],[33.60000000000001,34.8],[33.60000000000001,34.85],[33.650000000000006,34.85],[33.650000000000006,34.95],[34.00000000000001,34.95],[34.00000000000001,35.1],[33.900000000000006,35.15],[33.900000000000006,35.25],[33.95,35.25],[33.95,35.3],[34.050000000000004,35.3],[34.050000000000004,35.45],[33.900000000000006,35.45],[33.900000000000006,35.4]]],[[[-1.1999999999999993,45.15],[-1.1999999999999993,44.95],[-1.2499999999999991,44.95],[-1.2499999999999991,44.25],[-1.2999999999999998,44.25],[-1.2999999999999998,44.1],[-1.3499999999999996,44.1],[-1.3499999999999996,43.9],[-1.3999999999999995,43.9],[-1.3999999999999995,43.800000000000004],[-1.4499999999999993,43.800000000000004],[-1.4499999999999993,43.6],[-1.4999999999999991,43.6],[-1.4999999999999991,43.5],[-1.5999999999999996,43.45],[-1.5999999999999996,43.4],[-1.6999999999999993,43.4],[-1.6999999999999993,43.35],[-2.05,43.35],[-2.05,43.300000000000004],[-2.3499999999999996,43.300000000000004],[-2.3499999999999996,43.35],[-2.5999999999999996,43.35],[-2.5999999999999996,43.4],[-2.75,43.4],[-2.75,43.45],[-2.9499999999999993,43.45],[-3.0,43.35],[-3.2499999999999996,43.35],[-3.2499999999999996,43.4],[-3.4499999999999997,43.4],[-3.4499999999999997,43.45],[-3.55,43.45],[-3.55,43.5],[-3.9499999999999997,43.5],[-3.9499999999999997,43.45],[-4.1,43.45],[-4.1,43.4],[-4.8,43.4],[-4.8,43.45],[-5.1,43.45],[-5.1,43.5],[-5.3,43.5],[-5.3,43.550000000000004],[-5.699999999999999,43.550000000000004],[-5.699999999999999,43.6],[-6.3,43.6],[-6.3,43.550000000000004],[-6.55,43.550000000000004],[-6.55,45.15],[-1.1999999999999993,45.15]]]]}}]}