{"type":"FeatureCollection","name":"tidal_model_domain","features":[{"type":"Feature","properties":{"kind":"domain","atlases":["NORKYST_TRONDELAG"],"source_file":"norkyst_trondelag_20250919.nc","wet_cells":185560,"grid_deg":0.01,"area_deg2":23.27},"geometry":{"type":"MultiPolygon","coordinates":[[[[6.61,62.14],[6.61,62.13],[6.6000000000000005,62.13],[6.6000000000000005,62.14],[6.61,62.14]]],[[[6.57,62.14],[6.57,62.160000000000004],[6.550000000000001,62.160000000000004],[6.550000000000001,62.17],[6.54,62.17],[6.53,62.19],[6.5,62.19],[6.5,62.2],[6.48,62.2],[6.48,62.24],[6.470000000000001,62.24],[6.470000000000001,62.25],[6.45,62.25],[6.45,62.26],[6.430000000000001,62.26],[6.430000000000001,62.27],[6.42,62.27],[6.42,62.29],[6.4,62.3],[6.4,62.33],[6.38,62.33],[6.37,62.35],[6.3500000000000005,62.35],[6.3500000000000005,62.370000000000005],[6.28,62.370000000000005],[6.28,62.36],[6.23,62.36],[6.23,62.35],[6.21,62.35],[6.21,62.34],[6.180000000000001,62.34],[6.180000000000001,62.33],[6.15,62.33],[6.15,62.32],[6.1000000000000005,62.32],[6.1000000000000005,62.3],[6.07,62.3],[6.07,62.29],[6.04,62.29],[6.04,62.28],[6.010000000000001,62.28],[6.010000000000001,62.27],[6.0,62.27],[6.0,62.28],[5.96,62.28],[5.96,62.29],[5.97,62.29],[5.97,62.3],[6.0,62.3],[6.0,62.31],[6.0200000000000005,62.31],[6.0200000000000005,62.32],[6.08,62.33],[6.08,62.36],[6.04,62.370000000000005],[6.04,62.39],[6.0200000000000005,62.39],[6.0200000000000005,62.4],[6.010000000000001,62.4],[6.010000000000001,62.42],[5.99,62.42],[5.99,62.43],[5.96,62.43],[5.96,62.42],[5.88,62.42],[5.88,62.410000000000004],[5.85,62.410000000000004],[5.85,62.4],[5.84,62.4],[5.83,62.38],[5.82,62.38],[5.82,62.35],[5.84,62.35],[5.84,62.34],[5.87,62.34],[5.86,62.32],[5.85,62.32],[5.85,62.33],[5.74,62.33],[5.74,62.36],[5.64,62.35],[5.64,62.370000000000005],[5.61,62.370000000000005],[5.61,62.36],[5.6,62.36],[5.6,62.370000000000005],[5.55,62.370000000000005],[5.55,62.38],[5.51,62.38],[5.51,62.39],[5.47,62.39],[5.47,62.4],[5.43,62.4],[5.43,62.410000000000004],[5.37,62.410000000000004],[5.37,62.42],[5.33,62.42],[5.33,62.43],[5.29,62.43],[5.29,62.44],[5.24,62.44],[5.24,62.45],[5.19,62.45],[5.19,62.46],[5.14,62.46],[5.14,62.47],[5.1,62.47],[5.1,62.480000000000004],[5.0600000000000005,62.480000000000004],[5.0600000000000005,62.49],[5.0,62.49],[5.0,62.5],[4.92,62.51],[4.92,62.52],[4.87,62.52],[4.87,62.53],[4.82,62.53],[4.82,62.54],[4.7700000000000005,62.54],[4.7700000000000005,62.55],[4.73,62.55],[4.73,62.56],[4.67,62.56],[4.67,62.57],[4.59,62.58],[4.59,62.59],[4.54,62.59],[4.54,62.6],[4.49,62.6],[4.49,62.61],[4.44,62.61],[4.44,62.620000000000005],[4.4,62.620000000000005],[4.4,62.63],[4.34,62.63],[4.34,62.64],[4.26,62.65],[4.26,62.660000000000004],[4.2,62.660000000000004],[4.2,62.67],[4.16,62.67],[4.16,62.68],[4.1,62.68],[4.1,62.69],[4.06,62.69],[4.06,62.7],[4.01,62.7],[4.01,62.71],[3.95,62.71],[3.95,62.72],[3.91,62.72],[3.91,62.730000000000004],[3.85,62.730000000000004],[3.85,62.74],[3.81,62.74],[3.81,62.75],[3.77,62.75],[3.77,62.76],[3.71,62.76],[3.71,62.77],[3.66,62.77],[3.66,62.78],[3.6100000000000003,62.78],[3.6100000000000003,62.79],[3.56,62.79],[3.56,62.800000000000004],[3.52,62.800000000000004],[3.52,62.81],[3.46,62.81],[3.46,62.82],[3.42,62.82],[3.42,62.83],[3.3600000000000003,62.83],[3.3600000000000003,62.84],[3.31,62.84],[3.31,62.85],[3.21,62.86],[3.21,62.870000000000005],[3.15,62.870000000000005],[3.15,62.88],[3.1100000000000003,62.88],[3.1100000000000003,62.89],[3.05,62.89],[3.05,62.9],[3.01,62.9],[3.01,62.910000000000004],[2.95,62.910000000000004],[2.95,62.92],[2.85,62.93],[2.85,62.94],[2.8,62.94],[2.8,62.95],[2.68,62.96],[2.68,62.97],[2.64,62.97],[2.64,62.980000000000004],[2.58,62.980000000000004],[2.58,62.99],[2.54,62.99],[2.54,63.0],[2.48,63.0],[2.48,63.02],[2.49,63.02],[2.49,63.03],[2.51,63.04],[2.51,63.050000000000004],[2.52,63.050000000000004],[2.52,63.06],[2.54,63.07],[2.54,63.09],[2.56,63.09],[2.56,63.11],[2.58,63.11],[2.58,63.13],[2.59,63.13],[2.59,63.14],[2.61,63.15],[2.61,63.160000000000004],[2.62,63.160000000000004],[2.62,63.18],[2.64,63.18],[2.64,63.2],[2.66,63.2],[2.66,63.22],[2.67,63.22],[2.67,63.230000000000004],[2.68,63.230000000000004],[2.69,63.25],[2.71,63.26],[2.71,63.27],[2.73,63.28],[2.73,63.29],[2.74,63.29],[2.74,63.300000000000004],[2.75,63.300000000000004],[2.76,63.32],[2.77,63.32],[2.77,63.34],[2.79,63.34],[2.79,63.36],[2.81,63.36],[2.81,63.38],[2.8200000000000003,63.38],[2.8200000000000003,63.39],[2.84,63.4],[2.84,63.410000000000004],[2.85,63.410000000000004],[2.86,63.43],[2.88,63.44],[2.88,63.45],[2.89,63.45],[2.9,63.47],[2.91,63.47],[2.91,63.480000000000004],[2.92,63.480000000000004],[2.92,63.49],[2.93,63.49],[2.94,63.51],[2.95,63.51],[2.95,63.52],[2.96,63.52],[2.96,63.54],[2.98,63.54],[2.98,63.56],[3.0,63.56],[3.0,63.58],[3.02,63.58],[3.02,63.6],[3.0300000000000002,63.6],[3.04,63.620000000000005],[3.05,63.620000000000005],[3.05,63.63],[3.06,63.63],[3.06,63.64],[3.08,63.65],[3.08,63.660000000000004],[3.09,63.660000000000004],[3.09,63.67],[3.1,63.67],[3.1,63.68],[3.12,63.69],[3.12,63.71],[3.14,63.71],[3.14,63.730000000000004],[3.16,63.730000000000004],[3.16,63.75],[3.1799999999999997,63.75],[3.1799999999999997,63.77],[3.2,63.77],[3.2,63.79],[3.2199999999999998,63.79],[3.2199999999999998,63.81],[3.23,63.81],[3.23,63.82],[3.25,63.83],[3.25,63.84],[3.27,63.85],[3.27,63.86],[3.2800000000000002,63.86],[3.2800000000000002,63.870000000000005],[3.29,63.870000000000005],[3.3,63.89],[3.31,63.89],[3.31,63.9],[3.3200000000000003,63.9],[3.3200000000000003,63.910000000000004],[3.33,63.910000000000004],[3.34,63.93],[3.35,63.93],[3.35,63.94],[3.3600000000000003,63.94],[3.3600000000000003,63.95],[3.37,63.95],[3.38,63.97],[3.39,63.97],[3.39,63.980000000000004],[3.4,63.980000000000004],[3.4,63.99],[3.42,64.0],[3.42,64.01],[3.44,64.02],[3.44,64.03],[3.45,64.03],[3.45,64.04],[3.4699999999999998,64.05],[3.4699999999999998,64.06],[3.48,64.06],[3.48,64.07000000000001],[3.49,64.07000000000001],[3.5,64.09],[3.52,64.1],[3.52,64.11],[3.5300000000000002,64.11],[3.5300000000000002,64.12],[3.55,64.13],[3.55,64.14],[3.56,64.14],[3.5700000000000003,64.16],[3.58,64.16],[3.59,64.18],[3.6,64.18],[3.6100000000000003,64.2],[3.62,64.2],[3.62,64.21000000000001],[3.64,64.22],[3.6500000000000004,64.24],[3.66,64.24],[3.66,64.25],[3.67,64.25],[3.6799999999999997,64.27],[3.69,64.27],[3.69,64.28],[3.7,64.28],[3.7,64.29],[3.7199999999999998,64.3],[3.7199999999999998,64.31],[3.73,64.31],[3.73,64.32000000000001],[3.75,64.33],[3.76,64.35],[3.77,64.35],[3.77,64.36],[3.7800000000000002,64.36],[3.7800000000000002,64.37],[3.8,64.38],[3.8,64.39],[3.81,64.39],[3.81,64.4],[3.83,64.41],[3.83,64.42],[3.84,64.42],[3.85,64.44],[3.8600000000000003,64.44],[3.8600000000000003,64.45],[3.87,64.45],[3.87,64.46000000000001],[3.89,64.47],[3.9000000000000004,64.49],[3.91,64.49],[3.91,64.5],[3.92,64.5],[3.9299999999999997,64.52],[3.95,64.52],[3.95,64.54],[3.9699999999999998,64.54],[3.9699999999999998,64.56],[3.99,64.56],[3.99,64.58],[4.01,64.58],[4.01,64.6],[4.03,64.6],[4.03,64.61],[4.04,64.61],[4.05,64.63],[4.06,64.63],[4.06,64.64],[4.07,64.64],[4.07,64.65],[4.09,64.66],[4.09,64.67],[4.1,64.67],[4.1,64.68],[4.12,64.69],[4.12,64.7],[4.13,64.7],[4.14,64.72],[4.15,64.72],[4.16,64.74],[4.18,64.74],[4.18,64.76],[4.2,64.76],[4.2,64.78],[4.22,64.78],[4.22,64.8],[4.24,64.8],[4.24,64.81],[4.25,64.81],[4.26,64.83],[4.2700000000000005,64.83],[4.28,64.85],[4.29,64.85],[4.29,64.86],[4.3,64.86],[4.31,64.88],[4.32,64.88],[4.33,64.9],[4.35,64.91],[4.35,64.92],[4.37,64.92],[4.37,64.94],[4.39,64.94],[4.39,64.96000000000001],[4.41,64.96000000000001],[4.42,64.98],[4.43,64.98],[4.44,65.0],[4.45,65.0],[4.45,65.01],[4.47,65.02],[4.47,65.03],[4.48,65.03],[4.48,65.04],[4.5,65.05],[4.5,65.06],[4.5200000000000005,65.06],[4.5200000000000005,65.08],[4.54,65.08],[4.54,65.09],[4.56,65.1],[4.56,65.11],[4.57,65.11],[4.57,65.12],[4.59,65.13],[4.59,65.14],[4.6,65.14],[4.61,65.16],[4.63,65.16],[4.63,65.18],[4.65,65.18],[4.65,65.2],[4.67,65.2],[4.67,65.21000000000001],[4.69,65.22],[4.7,65.24],[4.71,65.24],[4.71,65.25],[4.72,65.25],[4.72,65.26],[4.74,65.27],[4.74,65.28],[4.76,65.28],[4.76,65.3],[4.78,65.3],[4.78,65.31],[4.79,65.31],[4.79,65.32000000000001],[4.81,65.33],[4.82,65.35],[4.83,65.35],[4.83,65.36],[4.85,65.36],[4.85,65.38],[4.87,65.38],[4.87,65.4],[4.89,65.4],[4.9,65.42],[4.91,65.42],[4.91,65.43],[4.93,65.44],[4.93,65.45],[4.94,65.45],[4.94,65.46000000000001],[4.96,65.46000000000001],[4.96,65.48],[4.98,65.48],[4.99,65.5],[5.0,65.5],[5.0,65.51],[5.01,65.51],[5.0200000000000005,65.53],[5.03,65.53],[5.03,65.54],[5.05,65.54],[5.05,65.56],[5.07,65.56],[5.07,65.57000000000001],[5.09,65.58],[5.1,65.6],[5.11,65.6],[5.12,65.62],[5.14,65.62],[5.14,65.64],[5.16,65.64],[5.16,65.65],[5.18,65.66],[5.18,65.67],[5.19,65.67],[5.19,65.68],[5.21,65.69],[5.21,65.7],[5.23,65.7],[5.23,65.71000000000001],[5.25,65.72],[5.26,65.74],[5.2700000000000005,65.74],[5.28,65.76],[5.3,65.76],[5.3,65.78],[5.32,65.78],[5.32,65.79],[5.34,65.8],[5.34,65.81],[5.35,65.81],[5.35,65.82000000000001],[5.37,65.82000000000001],[5.37,65.84],[5.39,65.84],[5.4,65.86],[5.41,65.86],[5.41,65.87],[5.43,65.88],[5.43,65.89],[5.44,65.89],[5.44,65.9],[5.46,65.9],[5.47,65.92],[5.48,65.92],[5.48,65.93],[5.5,65.94],[5.5,65.95],[5.51,65.95],[5.51,65.96000000000001],[5.53,65.96000000000001],[5.53,65.97],[5.54,65.97],[5.55,65.99],[5.5600000000000005,65.99],[5.5600000000000005,66.0],[5.57,66.0],[5.58,66.02],[5.6,66.02],[5.6,66.03],[5.61,66.03],[5.62,66.05],[5.64,66.05],[5.64,66.07000000000001],[5.66,66.07000000000001],[5.67,66.09],[5.69,66.1],[5.69,66.11],[5.71,66.11],[5.71,66.12],[5.73,66.13],[5.74,66.15],[5.76,66.16],[5.76,66.17],[5.78,66.17],[5.78,66.18],[5.8,66.19],[5.8100000000000005,66.21000000000001],[5.83,66.21000000000001],[5.83,66.23],[5.85,66.23],[5.85,66.24],[5.86,66.24],[5.86,66.25],[5.87,66.25],[5.88,66.27],[5.9,66.27],[5.91,66.29],[5.93,66.3],[5.93,66.31],[5.95,66.31],[5.95,66.33],[5.97,66.33],[5.97,66.34],[5.99,66.35],[6.0,66.37],[6.0200000000000005,66.37],[6.0200000000000005,66.38],[6.03,66.38],[6.03,66.39],[6.04,66.39],[6.050000000000001,66.41],[6.07,66.41],[6.07,66.43],[6.09,66.43],[6.1000000000000005,66.45],[6.12,66.45],[6.12,66.47],[6.140000000000001,66.47],[6.140000000000001,66.48],[6.16,66.49],[6.16,66.5],[6.17,66.5],[6.17,66.51],[6.19,66.51],[6.2,66.53],[6.21,66.53],[6.21,66.54],[6.23,66.54],[6.23,66.55],[6.24,66.55],[6.24,66.56],[6.25,66.56],[6.260000000000001,66.58],[6.28,66.58],[6.28,66.59],[6.300000000000001,66.6],[6.3100000000000005,66.62],[6.33,66.62],[6.33,66.63],[6.340000000000001,66.63],[6.340000000000001,66.64],[6.3500000000000005,66.64],[6.36,66.66],[6.38,66.66],[6.38,66.67],[6.390000000000001,66.67],[6.390000000000001,66.68],[6.41,66.69],[6.41,66.7],[6.430000000000001,66.7],[6.430000000000001,66.71000000000001],[6.45,66.72],[6.46,66.74],[6.48,66.74],[6.48,66.76],[6.49,66.76],[6.49,66.75],[6.550000000000001,66.75],[6.550000000000001,66.74],[6.6000000000000005,66.74],[6.6000000000000005,66.73],[6.65,66.73],[6.65,66.72],[6.7,66.72],[6.7,66.71000000000001],[6.74,66.71000000000001],[6.74,66.7],[6.79,66.7],[6.79,66.69],[6.840000000000001,66.69],[6.840000000000001,66.68],[6.890000000000001,66.68],[6.890000000000001,66.67],[6.94,66.67],[6.94,66.66],[6.99,66.66],[6.99,66.65],[7.04,66.65],[7.04,66.64],[7.090000000000001,66.64],[7.090000000000001,66.63],[7.140000000000001,66.63],[7.140000000000001,66.62],[7.19,66.62],[7.19,66.61],[7.24,66.61],[7.24,66.6],[7.29,66.6],[7.29,66.59],[7.340000000000001,66.59],[7.340000000000001,66.58],[7.390000000000001,66.58],[7.390000000000001,66.57000000000001],[7.44,66.57000000000001],[7.44,66.56],[7.49,66.56],[7.49,66.55],[7.54,66.55],[7.54,66.54],[7.590000000000001,66.54],[7.590000000000001,66.53],[7.62,66.53],[7.62,66.52],[7.67,66.52],[7.67,66.51],[7.720000000000001,66.51],[7.720000000000001,66.5],[7.7700000000000005,66.5],[7.7700000000000005,66.49],[7.82,66.49],[7.82,66.48],[7.86,66.48],[7.86,66.47],[7.91,66.47],[7.91,66.46000000000001],[7.96,66.46000000000001],[7.96,66.45],[8.01,66.45],[8.01,66.44],[8.11,66.43],[8.11,66.42],[8.14,66.42],[8.14,66.41],[8.24,66.4],[8.24,66.39],[8.29,66.39],[8.29,66.38],[8.34,66.38],[8.34,66.37],[8.38,66.37],[8.38,66.36],[8.43,66.36],[8.43,66.35],[8.459999999999999,66.35],[8.459999999999999,66.34],[8.51,66.34],[8.51,66.33],[8.56,66.33],[8.56,66.32000000000001],[8.61,66.32000000000001],[8.61,66.31],[8.66,66.31],[8.66,66.3],[8.709999999999999,66.3],[8.709999999999999,66.29],[8.74,66.29],[8.74,66.28],[8.79,66.28],[8.79,66.27],[8.83,66.27],[8.83,66.26],[8.93,66.25],[8.93,66.24],[8.98,66.24],[8.98,66.23],[9.01,66.23],[9.01,66.22],[9.11,66.21000000000001],[9.11,66.2],[9.15,66.2],[9.15,66.19],[9.23,66.18],[9.23,66.17],[9.28,66.17],[9.28,66.16],[9.33,66.16],[9.33,66.15],[9.38,66.15],[9.38,66.14],[9.41,66.14],[9.41,66.13],[9.45,66.13],[9.45,66.12],[9.5,66.12],[9.5,66.11],[9.55,66.11],[9.55,66.1],[9.58,66.1],[9.58,66.09],[9.68,66.08],[9.68,66.07000000000001],[9.72,66.07000000000001],[9.72,66.06],[9.75,66.06],[9.75,66.05],[9.8,66.05],[9.8,66.04],[9.85,66.04],[9.85,66.03],[9.9,66.03],[9.9,66.02],[9.93,66.02],[9.93,66.01],[9.97,66.01],[9.97,66.0],[10.02,66.0],[10.02,65.99],[10.05,65.99],[10.05,65.98],[10.1,65.98],[10.1,65.97],[10.15,65.97],[10.15,65.96000000000001],[10.19,65.96000000000001],[10.19,65.95],[10.22,65.95],[10.22,65.94],[10.32,65.93],[10.32,65.92],[10.35,65.92],[10.35,65.91],[10.39,65.91],[10.39,65.9],[10.44,65.9],[10.44,65.89],[10.47,65.89],[10.47,65.88],[10.57,65.87],[10.57,65.86],[10.6,65.86],[10.6,65.85],[10.64,65.85],[10.64,65.84],[10.690000000000001,65.84],[10.690000000000001,65.83],[10.72,65.83],[10.72,65.82000000000001],[10.77,65.82000000000001],[10.77,65.81],[10.81,65.81],[10.81,65.8],[10.84,65.8],[10.84,65.79],[10.940000000000001,65.78],[10.940000000000001,65.77],[10.97,65.77],[10.97,65.76],[11.01,65.76],[11.01,65.75],[11.06,65.75],[11.06,65.74],[11.09,65.74],[11.09,65.73],[11.13,65.73],[11.13,65.72],[11.18,65.72],[11.18,65.71000000000001],[11.21,65.71000000000001],[11.21,65.7],[11.26,65.7],[11.26,65.69],[11.290000000000001,65.69],[11.290000000000001,65.68],[11.33,65.68],[11.33,65.67],[11.38,65.67],[11.38,65.66],[11.41,65.66],[11.41,65.65],[11.450000000000001,65.65],[11.450000000000001,65.64],[11.48,65.64],[11.48,65.63],[11.58,65.62],[11.58,65.61],[11.610000000000001,65.61],[11.610000000000001,65.6],[11.65,65.6],[11.65,65.59],[11.68,65.59],[11.68,65.58],[11.73,65.58],[11.73,65.57000000000001],[11.77,65.57000000000001],[11.77,65.56],[11.8,65.56],[11.8,65.55],[11.85,65.55],[11.85,65.54],[11.88,65.54],[11.88,65.53],[11.92,65.53],[11.92,65.52],[11.97,65.52],[11.97,65.51],[12.0,65.51],[12.0,65.5],[12.040000000000001,65.5],[12.040000000000001,65.49],[12.07,65.49],[12.07,65.48],[12.09,65.48],[12.09,65.46000000000001],[12.110000000000001,65.46000000000001],[12.110000000000001,65.45],[12.1,65.45],[12.09,65.43],[12.05,65.43],[12.05,65.4],[12.07,65.4],[12.07,65.39],[12.110000000000001,65.39],[12.110000000000001,65.41],[12.13,65.41],[12.13,65.44],[12.15,65.44],[12.15,65.45],[12.22,65.45],[12.22,65.44],[12.25,65.44],[12.24,65.42],[12.200000000000001,65.42],[12.200000000000001,65.41],[12.190000000000001,65.41],[12.190000000000001,65.38],[12.200000000000001,65.38],[12.190000000000001,65.36],[12.13,65.36],[12.13,65.35],[12.120000000000001,65.35],[12.120000000000001,65.31],[12.13,65.31],[12.13,65.3],[12.120000000000001,65.3],[12.120000000000001,65.27],[12.110000000000001,65.27],[12.110000000000001,65.25],[12.09,65.25],[12.09,65.22],[12.13,65.22],[12.13,65.23],[12.16,65.23],[12.16,65.24],[12.200000000000001,65.24],[12.21,65.26],[12.25,65.26],[12.25,65.27],[12.26,65.27],[12.26,65.3],[12.23,65.3],[12.24,65.32000000000001],[12.32,65.32000000000001],[12.32,65.33],[12.370000000000001,65.33],[12.370000000000001,65.34],[12.39,65.34],[12.4,65.36],[12.42,65.36],[12.42,65.37],[12.43,65.37],[12.43,65.36],[12.450000000000001,65.36],[12.450000000000001,65.35],[12.43,65.35],[12.43,65.32000000000001],[12.440000000000001,65.32000000000001],[12.43,65.3],[12.42,65.3],[12.42,65.31],[12.370000000000001,65.31],[12.370000000000001,65.3],[12.33,65.3],[12.33,65.26],[12.39,65.26],[12.39,65.23],[12.43,65.23],[12.43,65.21000000000001],[12.440000000000001,65.21000000000001],[12.440000000000001,65.2],[12.48,65.2],[12.47,65.18],[12.450000000000001,65.18],[12.450000000000001,65.19],[12.4,65.19],[12.4,65.18],[12.39,65.18],[12.39,65.19],[12.35,65.19],[12.35,65.16],[12.41,65.15],[12.41,65.14],[12.530000000000001,65.14],[12.530000000000001,65.15],[12.56,65.15],[12.56,65.16],[12.58,65.16],[12.59,65.18],[12.63,65.18],[12.63,65.19],[12.66,65.19],[12.66,65.2],[12.700000000000001,65.2],[12.700000000000001,65.21000000000001],[12.73,65.21000000000001],[12.73,65.22],[12.75,65.22],[12.75,65.23],[12.77,65.23],[12.780000000000001,65.25],[12.82,65.26],[12.82,65.28],[12.860000000000001,65.28],[12.85,65.26],[12.83,65.26],[12.82,65.24],[12.8,65.24],[12.8,65.23],[12.780000000000001,65.23],[12.77,65.21000000000001],[12.75,65.21000000000001],[12.75,65.2],[12.72,65.2],[12.72,65.19],[12.690000000000001,65.19],[12.690000000000001,65.18],[12.67,65.18],[12.67,65.17],[12.65,65.17],[12.64,65.15],[12.6,65.15],[12.59,65.13],[12.51,65.13],[12.5,65.11],[12.440000000000001,65.11],[12.440000000000001,65.1],[12.41,65.1],[12.41,65.09],[12.360000000000001,65.09],[12.360000000000001,65.08],[12.3,65.07000000000001],[12.3,65.06],[12.26,65.06],[12.26,65.05],[12.25,65.05],[12.24,65.07000000000001],[12.27,65.07000000000001],[12.27,65.08],[12.31,65.08],[12.31,65.09],[12.32,65.09],[12.32,65.12],[12.27,65.12],[12.27,65.13],[12.26,65.13],[12.26,65.14],[12.27,65.14],[12.27,65.19],[12.26,65.19],[12.26,65.2],[12.24,65.2],[12.24,65.21000000000001],[12.17,65.21000000000001],[12.16,65.19],[12.120000000000001,65.19],[12.120000000000001,65.12],[12.110000000000001,65.12],[12.110000000000001,65.11],[12.1,65.11],[12.1,65.12],[12.07,65.12],[12.07,65.07000000000001],[12.06,65.07000000000001],[12.06,65.08],[12.040000000000001,65.08],[12.040000000000001,65.09],[12.02,65.09],[12.02,65.1],[12.0,65.1],[12.0,65.11],[12.02,65.12],[12.02,65.16],[11.96,65.16],[11.96,65.15],[11.93,65.15],[11.93,65.14],[11.89,65.13],[11.89,65.12],[11.860000000000001,65.12],[11.85,65.1],[11.83,65.1],[11.83,65.09],[11.81,65.09],[11.8,65.07000000000001],[11.780000000000001,65.07000000000001],[11.77,65.05],[11.75,65.05],[11.75,65.02],[11.83,65.03],[11.84,65.05],[11.88,65.05],[11.88,65.06],[11.91,65.06],[11.91,65.07000000000001],[11.950000000000001,65.07000000000001],[11.940000000000001,65.05],[11.89,65.05],[11.89,65.04],[11.860000000000001,65.04],[11.860000000000001,65.03],[11.84,65.03],[11.84,65.02],[11.81,65.02],[11.8,65.0],[11.76,65.0],[11.76,64.97],[11.74,64.97],[11.73,64.95],[11.72,64.95],[11.72,64.96000000000001],[11.65,64.96000000000001],[11.65,64.97],[11.620000000000001,64.97],[11.620000000000001,64.96000000000001],[11.5,64.96000000000001],[11.5,64.95],[11.48,64.95],[11.48,64.93],[11.42,64.93],[11.42,64.92],[11.39,64.92],[11.39,64.91],[11.34,64.91],[11.34,64.89],[11.32,64.89],[11.32,64.87],[11.31,64.87],[11.3,64.85],[11.280000000000001,64.85],[11.27,64.83],[11.25,64.83],[11.25,64.79],[11.290000000000001,64.79],[11.290000000000001,64.81],[11.3,64.81],[11.3,64.82000000000001],[11.31,64.82000000000001],[11.31,64.81],[11.38,64.81],[11.39,64.79],[11.370000000000001,64.78],[11.370000000000001,64.75],[11.4,64.75],[11.41,64.77],[11.43,64.77],[11.440000000000001,64.79],[11.47,64.79],[11.47,64.81],[11.52,64.81],[11.52,64.82000000000001],[11.58,64.82000000000001],[11.58,64.83],[11.610000000000001,64.83],[11.610000000000001,64.84],[11.620000000000001,64.84],[11.620000000000001,64.87],[11.63,64.87],[11.63,64.88],[11.690000000000001,64.88],[11.690000000000001,64.89],[11.72,64.89],[11.72,64.9],[11.780000000000001,64.9],[11.780000000000001,64.91],[11.82,64.91],[11.82,64.92],[11.860000000000001,64.92],[11.860000000000001,64.93],[11.91,64.93],[11.91,64.94],[11.940000000000001,64.94],[11.940000000000001,64.95],[12.040000000000001,64.95],[12.05,64.97],[12.08,64.97],[12.07,64.95],[12.06,64.95],[12.06,64.94],[12.040000000000001,64.94],[12.040000000000001,64.93],[11.92,64.93],[11.91,64.91],[11.860000000000001,64.91],[11.860000000000001,64.9],[11.8,64.9],[11.8,64.89],[11.77,64.89],[11.77,64.86],[11.8,64.86],[11.8,64.85],[11.790000000000001,64.85],[11.790000000000001,64.84],[11.77,64.84],[11.77,64.83],[11.73,64.83],[11.73,64.8],[11.790000000000001,64.8],[11.790000000000001,64.81],[11.8,64.81],[11.8,64.8],[11.83,64.8],[11.82,64.78],[11.690000000000001,64.78],[11.690000000000001,64.77],[11.620000000000001,64.77],[11.620000000000001,64.75],[11.6,64.75],[11.6,64.74],[11.57,64.74],[11.57,64.75],[11.52,64.75],[11.52,64.74],[11.5,64.74],[11.49,64.72],[11.43,64.71000000000001],[11.43,64.69],[11.42,64.69],[11.42,64.68],[11.39,64.68],[11.39,64.65],[11.4,64.65],[11.4,64.64],[11.38,64.64],[11.38,64.63],[11.370000000000001,64.63],[11.370000000000001,64.59],[11.35,64.59],[11.35,64.56],[11.47,64.55],[11.47,64.56],[11.48,64.56],[11.48,64.58],[11.49,64.58],[11.49,64.57000000000001],[11.56,64.57000000000001],[11.56,64.58],[11.64,64.58],[11.64,64.59],[11.67,64.59],[11.67,64.6],[11.72,64.6],[11.71,64.58],[11.65,64.58],[11.65,64.57000000000001],[11.620000000000001,64.57000000000001],[11.620000000000001,64.56],[11.59,64.56],[11.59,64.55],[11.58,64.55],[11.58,64.56],[11.52,64.55],[11.52,64.52],[11.51,64.52],[11.51,64.51],[11.47,64.51],[11.47,64.52],[11.450000000000001,64.52],[11.450000000000001,64.53],[11.42,64.53],[11.42,64.54],[11.39,64.54],[11.39,64.55],[11.360000000000001,64.55],[11.360000000000001,64.54],[11.27,64.54],[11.27,64.51],[11.280000000000001,64.51],[11.290000000000001,64.49],[11.32,64.49],[11.32,64.48],[11.360000000000001,64.48],[11.360000000000001,64.49],[11.38,64.49],[11.38,64.48],[11.41,64.48],[11.41,64.49],[11.42,64.49],[11.42,64.48],[11.440000000000001,64.48],[11.440000000000001,64.46000000000001],[11.48,64.46000000000001],[11.48,64.47],[11.56,64.47],[11.55,64.45],[11.48,64.45],[11.48,64.44],[11.46,64.44],[11.46,64.43],[11.450000000000001,64.43],[11.450000000000001,64.44],[11.38,64.44],[11.370000000000001,64.42],[11.35,64.42],[11.35,64.39],[11.33,64.39],[11.33,64.38],[11.32,64.38],[11.32,64.37],[11.3,64.37],[11.3,64.36],[11.27,64.36],[11.27,64.37],[11.290000000000001,64.38],[11.290000000000001,64.39],[11.31,64.39],[11.31,64.4],[11.32,64.4],[11.32,64.42],[11.34,64.43],[11.34,64.46000000000001],[11.31,64.46000000000001],[11.31,64.45],[11.3,64.45],[11.3,64.46000000000001],[11.27,64.46000000000001],[11.27,64.45],[11.22,64.45],[11.22,64.44],[11.16,64.44],[11.16,64.45],[11.17,64.45],[11.17,64.5],[11.15,64.5],[11.15,64.51],[11.120000000000001,64.51],[11.120000000000001,64.52],[11.08,64.52],[11.08,64.53],[11.07,64.53],[11.07,64.57000000000001],[11.030000000000001,64.58],[11.030000000000001,64.59],[11.0,64.59],[10.99,64.61],[10.950000000000001,64.61],[10.950000000000001,64.59],[10.940000000000001,64.59],[10.940000000000001,64.56],[10.950000000000001,64.56],[10.96,64.54],[10.97,64.54],[10.97,64.51],[10.96,64.51],[10.96,64.5],[10.950000000000001,64.5],[10.950000000000001,64.51],[10.9,64.51],[10.9,64.5],[10.88,64.49],[10.88,64.5],[10.82,64.51],[10.82,64.53],[10.780000000000001,64.53],[10.780000000000001,64.51],[10.77,64.51],[10.77,64.48],[10.76,64.48],[10.75,64.46000000000001],[10.73,64.47],[10.73,64.48],[10.67,64.48],[10.67,64.45],[10.68,64.45],[10.68,64.44],[10.700000000000001,64.44],[10.700000000000001,64.43],[10.8,64.44],[10.8,64.4],[10.82,64.4],[10.82,64.39],[10.83,64.39],[10.84,64.37],[10.81,64.37],[10.81,64.38],[10.75,64.38],[10.75,64.41],[10.690000000000001,64.41],[10.690000000000001,64.42],[10.67,64.42],[10.67,64.43],[10.65,64.44],[10.65,64.45],[10.59,64.45],[10.59,64.44],[10.51,64.44],[10.51,64.43],[10.5,64.43],[10.5,64.4],[10.57,64.4],[10.57,64.39],[10.620000000000001,64.39],[10.620000000000001,64.37],[10.66,64.37],[10.66,64.35],[10.610000000000001,64.35],[10.610000000000001,64.36],[10.59,64.36],[10.59,64.37],[10.51,64.37],[10.51,64.36],[10.46,64.36],[10.46,64.31],[10.47,64.31],[10.46,64.29],[10.450000000000001,64.29],[10.450000000000001,64.3],[10.4,64.3],[10.4,64.28],[10.39,64.28],[10.39,64.27],[10.35,64.27],[10.35,64.25],[10.32,64.25],[10.32,64.22],[10.360000000000001,64.22],[10.360000000000001,64.21000000000001],[10.39,64.21000000000001],[10.38,64.19],[10.370000000000001,64.19],[10.370000000000001,64.2],[10.33,64.2],[10.33,64.21000000000001],[10.3,64.21000000000001],[10.3,64.2],[10.25,64.2],[10.25,64.19],[10.24,64.19],[10.24,64.2],[10.21,64.2],[10.21,64.17],[10.22,64.17],[10.21,64.15],[10.14,64.15],[10.14,64.14],[10.13,64.14],[10.13,64.11],[10.16,64.11],[10.16,64.1],[10.19,64.1],[10.19,64.11],[10.24,64.11],[10.23,64.09],[10.18,64.09],[10.18,64.08],[10.15,64.08],[10.15,64.07000000000001],[10.14,64.07000000000001],[10.14,64.08],[10.120000000000001,64.08],[10.120000000000001,64.09],[10.1,64.09],[10.1,64.11],[10.05,64.11],[10.05,64.1],[10.030000000000001,64.1],[10.030000000000001,64.09],[10.02,64.09],[10.01,64.07000000000001],[10.0,64.07000000000001],[10.0,64.08],[9.95,64.08],[9.95,64.05],[9.959999999999999,64.05],[9.959999999999999,64.04],[10.06,64.05],[10.05,64.03],[10.040000000000001,64.03],[10.040000000000001,64.02],[10.01,64.02],[10.01,63.96],[10.040000000000001,63.96],[10.040000000000001,63.97],[10.110000000000001,63.97],[10.110000000000001,63.95],[10.16,63.95],[10.16,63.96],[10.19,63.96],[10.200000000000001,63.94],[10.15,63.94],[10.15,63.93],[10.120000000000001,63.93],[10.120000000000001,63.92],[10.09,63.92],[10.09,63.910000000000004],[10.030000000000001,63.910000000000004],[10.030000000000001,63.9],[10.0,63.9],[10.0,63.89],[9.97,63.89],[9.97,63.88],[9.94,63.88],[9.94,63.89],[9.84,63.89],[9.84,63.86],[9.86,63.86],[9.86,63.85],[9.82,63.85],[9.82,63.86],[9.78,63.86],[9.78,63.85],[9.77,63.85],[9.76,63.870000000000005],[9.72,63.870000000000005],[9.72,63.85],[9.69,63.85],[9.69,63.84],[9.67,63.84],[9.67,63.81],[9.66,63.81],[9.66,63.800000000000004],[9.65,63.800000000000004],[9.65,63.81],[9.62,63.81],[9.62,63.800000000000004],[9.6,63.800000000000004],[9.6,63.76],[9.69,63.76],[9.69,63.77],[9.709999999999999,63.77],[9.709999999999999,63.76],[9.7,63.76],[9.7,63.75],[9.67,63.75],[9.67,63.74],[9.64,63.74],[9.64,63.730000000000004],[9.58,63.730000000000004],[9.58,63.67],[9.61,63.67],[9.61,63.68],[9.66,63.68],[9.67,63.7],[9.76,63.7],[9.76,63.71],[9.86,63.72],[9.87,63.74],[9.91,63.74],[9.91,63.75],[9.94,63.75],[9.94,63.76],[10.030000000000001,63.76],[10.030000000000001,63.77],[10.040000000000001,63.77],[10.040000000000001,63.76],[10.05,63.76],[10.05,63.74],[10.08,63.74],[10.07,63.72],[10.040000000000001,63.72],[10.040000000000001,63.71],[10.01,63.71],[10.01,63.72],[9.959999999999999,63.72],[9.959999999999999,63.7],[9.95,63.7],[9.95,63.69],[9.94,63.69],[9.94,63.7],[9.87,63.7],[9.86,63.68],[9.83,63.68],[9.83,63.65],[9.84,63.65],[9.84,63.63],[9.83,63.63],[9.83,63.6],[9.85,63.6],[9.85,63.59],[9.9,63.59],[9.9,63.6],[9.91,63.6],[9.91,63.59],[9.92,63.59],[9.92,63.58],[9.91,63.58],[9.91,63.54],[9.92,63.54],[9.92,63.51],[9.93,63.51],[9.93,63.5],[9.97,63.5],[9.97,63.49],[10.030000000000001,63.49],[10.030000000000001,63.5],[10.040000000000001,63.5],[10.040000000000001,63.49],[10.09,63.49],[10.09,63.5],[10.120000000000001,63.5],[10.120000000000001,63.51],[10.16,63.51],[10.17,63.53],[10.200000000000001,63.53],[10.200000000000001,63.54],[10.22,63.54],[10.22,63.56],[10.34,63.56],[10.34,63.57],[10.370000000000001,63.57],[10.370000000000001,63.58],[10.38,63.58],[10.38,63.57],[10.42,63.57],[10.42,63.59],[10.43,63.59],[10.43,63.6],[10.48,63.6],[10.48,63.61],[10.51,63.61],[10.51,63.620000000000005],[10.55,63.620000000000005],[10.55,63.63],[10.58,63.63],[10.59,63.65],[10.610000000000001,63.65],[10.610000000000001,63.660000000000004],[10.620000000000001,63.660000000000004],[10.63,63.68],[10.690000000000001,63.68],[10.690000000000001,63.69],[10.72,63.69],[10.72,63.7],[10.75,63.7],[10.75,63.71],[10.84,63.71],[10.84,63.72],[10.88,63.72],[10.88,63.730000000000004],[10.92,63.730000000000004],[10.92,63.74],[10.950000000000001,63.74],[10.950000000000001,63.75],[10.97,63.75],[10.97,63.76],[10.98,63.76],[10.98,63.78],[10.99,63.78],[10.99,63.79],[11.01,63.79],[11.01,63.82],[11.030000000000001,63.82],[11.030000000000001,63.83],[11.06,63.83],[11.06,63.86],[11.040000000000001,63.86],[11.040000000000001,63.89],[11.01,63.89],[11.01,63.88],[11.0,63.88],[11.0,63.89],[10.97,63.89],[10.97,63.9],[10.92,63.9],[10.91,63.88],[10.860000000000001,63.88],[10.860000000000001,63.870000000000005],[10.84,63.870000000000005],[10.84,63.86],[10.81,63.86],[10.81,63.85],[10.74,63.85],[10.74,63.84],[10.71,63.84],[10.71,63.83],[10.700000000000001,63.83],[10.690000000000001,63.85],[10.75,63.86],[10.75,63.870000000000005],[10.81,63.870000000000005],[10.81,63.88],[10.84,63.88],[10.84,63.89],[10.870000000000001,63.89],[10.870000000000001,63.9],[10.91,63.9],[10.91,63.910000000000004],[10.940000000000001,63.910000000000004],[10.950000000000001,63.93],[10.99,63.93],[11.0,63.95],[11.030000000000001,63.95],[11.040000000000001,63.97],[11.08,63.97],[11.08,63.980000000000004],[11.110000000000001,63.980000000000004],[11.110000000000001,63.99],[11.16,63.99],[11.16,64.0],[11.18,64.0],[11.18,64.01],[11.21,64.01],[11.21,64.02],[11.22,64.02],[11.22,64.05],[11.21,64.05],[11.22,64.07000000000001],[11.23,64.07000000000001],[11.23,64.06],[11.24,64.06],[11.25,64.04],[11.370000000000001,64.04],[11.370000000000001,64.02],[11.43,64.03],[11.43,64.02],[11.47,64.02],[11.47,64.01],[11.49,64.01],[11.49,64.0],[11.450000000000001,64.0],[11.440000000000001,63.980000000000004],[11.41,63.980000000000004],[11.41,63.97],[11.32,63.97],[11.32,63.96],[11.31,63.96],[11.31,63.97],[11.27,63.97],[11.26,63.95],[11.22,63.95],[11.200000000000001,63.910000000000004],[11.13,63.910000000000004],[11.13,63.9],[11.1,63.9],[11.1,63.89],[11.08,63.89],[11.08,63.86],[11.09,63.86],[11.09,63.84],[11.15,63.84],[11.15,63.85],[11.200000000000001,63.85],[11.200000000000001,63.86],[11.23,63.86],[11.23,63.870000000000005],[11.3,63.870000000000005],[11.3,63.86],[11.31,63.86],[11.31,63.84],[11.39,63.84],[11.39,63.85],[11.41,63.85],[11.42,63.83],[11.43,63.83],[11.43,63.81],[11.46,63.81],[11.450000000000001,63.79],[11.440000000000001,63.79],[11.440000000000001,63.77],[11.38,63.78],[11.38,63.77],[11.33,63.77],[11.33,63.76],[11.31,63.76],[11.31,63.75],[11.3,63.75],[11.3,63.76],[11.24,63.76],[11.24,63.75],[11.21,63.75],[11.21,63.72],[11.200000000000001,63.72],[11.200000000000001,63.71],[11.110000000000001,63.71],[11.110000000000001,63.7],[11.06,63.7],[11.06,63.69],[11.05,63.69],[11.05,63.7],[11.030000000000001,63.7],[11.030000000000001,63.71],[10.99,63.71],[10.99,63.7],[10.940000000000001,63.7],[10.940000000000001,63.69],[10.91,63.69],[10.91,63.68],[10.9,63.68],[10.9,63.67],[10.88,63.67],[10.88,63.660000000000004],[10.85,63.660000000000004],[10.85,63.65],[10.84,63.65],[10.83,63.63],[10.74,63.63],[10.74,63.620000000000005],[10.71,63.620000000000005],[10.71,63.61],[10.700000000000001,63.61],[10.700000000000001,63.59],[10.68,63.59],[10.68,63.58],[10.67,63.58],[10.67,63.550000000000004],[10.700000000000001,63.550000000000004],[10.700000000000001,63.56],[10.72,63.56],[10.72,63.57],[10.780000000000001,63.57],[10.780000000000001,63.58],[10.82,63.58],[10.82,63.59],[10.85,63.59],[10.85,63.6],[10.89,63.6],[10.89,63.61],[10.91,63.61],[10.91,63.6],[10.9,63.6],[10.9,63.56],[10.91,63.56],[10.91,63.550000000000004],[10.88,63.550000000000004],[10.88,63.54],[10.790000000000001,63.54],[10.790000000000001,63.53],[10.76,63.53],[10.76,63.5],[10.77,63.5],[10.77,63.49],[10.790000000000001,63.49],[10.8,63.47],[10.860000000000001,63.47],[10.860000000000001,63.480000000000004],[10.89,63.480000000000004],[10.89,63.47],[10.9,63.47],[10.9,63.45],[10.89,63.45],[10.89,63.44],[10.81,63.43],[10.81,63.42],[10.790000000000001,63.410000000000004],[10.790000000000001,63.42],[10.77,63.42],[10.77,63.43],[10.72,63.43],[10.72,63.44],[10.58,63.44],[10.58,63.43],[10.530000000000001,63.43],[10.530000000000001,63.44],[10.49,63.44],[10.49,63.45],[10.42,63.45],[10.42,63.44],[10.360000000000001,63.43],[10.35,63.45],[10.18,63.45],[10.18,63.44],[10.15,63.44],[10.15,63.43],[10.13,63.43],[10.13,63.42],[10.08,63.42],[10.08,63.410000000000004],[10.07,63.410000000000004],[10.07,63.38],[10.09,63.370000000000005],[10.09,63.36],[10.13,63.36],[10.13,63.35],[10.19,63.35],[10.19,63.34],[10.22,63.34],[10.22,63.33],[10.21,63.33],[10.21,63.32],[10.19,63.32],[10.19,63.31],[10.15,63.31],[10.15,63.32],[10.110000000000001,63.32],[10.110000000000001,63.33],[10.06,63.33],[10.06,63.35],[9.97,63.35],[9.97,63.34],[9.94,63.34],[9.94,63.33],[9.89,63.33],[9.89,63.32],[9.83,63.31],[9.83,63.32],[9.85,63.33],[9.85,63.34],[9.88,63.34],[9.88,63.35],[9.91,63.35],[9.91,63.36],[9.93,63.36],[9.93,63.370000000000005],[9.94,63.370000000000005],[9.95,63.39],[9.959999999999999,63.39],[9.959999999999999,63.410000000000004],[9.97,63.410000000000004],[9.97,63.44],[9.959999999999999,63.44],[9.959999999999999,63.45],[9.93,63.45],[9.93,63.46],[9.91,63.46],[9.91,63.47],[9.89,63.47],[9.89,63.480000000000004],[9.86,63.480000000000004],[9.85,63.5],[9.83,63.5],[9.83,63.51],[9.82,63.51],[9.82,63.52],[9.83,63.52],[9.83,63.550000000000004],[9.79,63.56],[9.79,63.58],[9.76,63.58],[9.76,63.6],[9.75,63.6],[9.75,63.61],[9.73,63.61],[9.73,63.64],[9.69,63.64],[9.69,63.63],[9.65,63.63],[9.65,63.620000000000005],[9.58,63.620000000000005],[9.58,63.6],[9.56,63.6],[9.56,63.58],[9.54,63.57],[9.54,63.56],[9.53,63.56],[9.53,63.57],[9.5,63.57],[9.5,63.56],[9.49,63.56],[9.49,63.57],[9.459999999999999,63.57],[9.459999999999999,63.56],[9.45,63.56],[9.45,63.54],[9.44,63.54],[9.44,63.53],[9.42,63.53],[9.42,63.51],[9.41,63.51],[9.41,63.5],[9.39,63.51],[9.39,63.550000000000004],[9.35,63.550000000000004],[9.35,63.54],[9.33,63.54],[9.32,63.52],[9.24,63.52],[9.24,63.51],[9.2,63.51],[9.2,63.5],[9.17,63.5],[9.17,63.46],[9.19,63.46],[9.19,63.45],[9.27,63.45],[9.27,63.46],[9.36,63.46],[9.36,63.47],[9.4,63.47],[9.4,63.45],[9.35,63.45],[9.35,63.44],[9.26,63.44],[9.26,63.43],[9.18,63.43],[9.18,63.4],[9.19,63.4],[9.19,63.39],[9.209999999999999,63.39],[9.209999999999999,63.38],[9.23,63.38],[9.23,63.370000000000005],[9.28,63.370000000000005],[9.28,63.38],[9.29,63.38],[9.29,63.370000000000005],[9.32,63.370000000000005],[9.32,63.38],[9.41,63.38],[9.41,63.39],[9.43,63.38],[9.43,63.370000000000005],[9.4,63.370000000000005],[9.4,63.36],[9.28,63.36],[9.28,63.35],[9.25,63.35],[9.25,63.34],[9.23,63.34],[9.23,63.33],[9.22,63.33],[9.22,63.34],[9.19,63.34],[9.18,63.32],[9.14,63.32],[9.14,63.31],[9.13,63.31],[9.13,63.29],[9.08,63.29],[9.08,63.300000000000004],[9.09,63.300000000000004],[9.09,63.31],[9.11,63.32],[9.11,63.33],[9.12,63.33],[9.12,63.35],[9.13,63.35],[9.13,63.36],[9.15,63.36],[9.15,63.4],[9.14,63.4],[9.13,63.42],[9.09,63.42],[9.09,63.44],[9.04,63.44],[9.04,63.46],[8.99,63.46],[8.99,63.410000000000004],[8.98,63.410000000000004],[8.98,63.4],[8.97,63.4],[8.959999999999999,63.42],[8.9,63.42],[8.9,63.410000000000004],[8.89,63.410000000000004],[8.89,63.42],[8.85,63.42],[8.85,63.43],[8.77,63.43],[8.77,63.42],[8.74,63.42],[8.74,63.410000000000004],[8.73,63.410000000000004],[8.73,63.42],[8.7,63.42],[8.7,63.410000000000004],[8.66,63.410000000000004],[8.66,63.38],[8.68,63.38],[8.68,63.370000000000005],[8.7,63.370000000000005],[8.7,63.36],[8.74,63.35],[8.73,63.33],[8.72,63.33],[8.72,63.34],[8.69,63.34],[8.69,63.36],[8.67,63.36],[8.67,63.370000000000005],[8.65,63.370000000000005],[8.65,63.38],[8.62,63.38],[8.62,63.39],[8.55,63.39],[8.55,63.38],[8.51,63.38],[8.51,63.36],[8.5,63.36],[8.5,63.33],[8.55,63.33],[8.56,63.31],[8.55,63.31],[8.55,63.300000000000004],[8.52,63.300000000000004],[8.52,63.29],[8.49,63.29],[8.49,63.27],[8.459999999999999,63.27],[8.459999999999999,63.28],[8.4,63.28],[8.4,63.27],[8.35,63.27],[8.35,63.26],[8.28,63.26],[8.28,63.24],[8.27,63.24],[8.27,63.21],[8.29,63.21],[8.29,63.2],[8.32,63.2],[8.32,63.19],[8.34,63.19],[8.34,63.18],[8.36,63.17],[8.36,63.160000000000004],[8.51,63.160000000000004],[8.51,63.17],[8.54,63.17],[8.54,63.18],[8.56,63.18],[8.56,63.2],[8.58,63.2],[8.58,63.21],[8.6,63.21],[8.6,63.19],[8.64,63.19],[8.64,63.2],[8.8,63.2],[8.8,63.21],[8.88,63.21],[8.87,63.19],[8.79,63.19],[8.79,63.18],[8.63,63.18],[8.63,63.17],[8.57,63.17],[8.57,63.14],[8.59,63.14],[8.59,63.13],[8.61,63.13],[8.61,63.120000000000005],[8.63,63.120000000000005],[8.62,63.1],[8.61,63.1],[8.61,63.11],[8.59,63.11],[8.59,63.120000000000005],[8.56,63.120000000000005],[8.56,63.13],[8.5,63.13],[8.5,63.14],[8.459999999999999,63.14],[8.459999999999999,63.13],[8.45,63.13],[8.45,63.14],[8.4,63.14],[8.4,63.13],[8.39,63.13],[8.39,63.14],[8.31,63.14],[8.31,63.15],[8.28,63.15],[8.28,63.14],[8.22,63.14],[8.22,63.13],[8.17,63.13],[8.17,63.1],[8.19,63.09],[8.19,63.08],[8.23,63.08],[8.23,63.02],[8.34,63.02],[8.34,63.03],[8.35,63.03],[8.35,63.02],[8.38,63.02],[8.38,63.01],[8.36,63.0],[8.36,62.97],[8.39,62.97],[8.39,62.980000000000004],[8.44,62.980000000000004],[8.44,62.99],[8.47,62.99],[8.47,62.97],[8.52,62.97],[8.52,62.980000000000004],[8.57,62.980000000000004],[8.57,62.99],[8.65,62.99],[8.64,62.97],[8.58,62.97],[8.58,62.96],[8.51,62.96],[8.51,62.95],[8.45,62.95],[8.45,62.92],[8.459999999999999,62.92],[8.459999999999999,62.910000000000004],[8.48,62.910000000000004],[8.48,62.9],[8.52,62.9],[8.52,62.89],[8.59,62.89],[8.59,62.88],[8.61,62.88],[8.61,62.870000000000005],[8.63,62.870000000000005],[8.63,62.84],[8.6,62.84],[8.6,62.86],[8.53,62.86],[8.53,62.84],[8.45,62.84],[8.45,62.85],[8.43,62.86],[8.43,62.870000000000005],[8.39,62.870000000000005],[8.39,62.88],[8.34,62.88],[8.34,62.870000000000005],[8.31,62.870000000000005],[8.31,62.88],[8.32,62.88],[8.32,62.910000000000004],[8.31,62.910000000000004],[8.3,62.93],[8.29,62.93],[8.29,62.94],[8.3,62.94],[8.3,62.980000000000004],[8.26,62.980000000000004],[8.26,62.97],[8.25,62.97],[8.25,62.980000000000004],[8.24,62.980000000000004],[8.24,63.01],[8.19,63.01],[8.18,63.03],[8.14,63.03],[8.14,63.050000000000004],[8.12,63.050000000000004],[8.12,63.06],[8.14,63.06],[8.14,63.09],[8.12,63.09],[8.11,63.11],[7.970000000000001,63.1],[7.970000000000001,63.06],[7.98,63.06],[7.98,63.050000000000004],[7.96,63.050000000000004],[7.96,63.04],[7.92,63.04],[7.92,63.03],[7.890000000000001,63.03],[7.890000000000001,62.99],[7.930000000000001,62.99],[7.930000000000001,63.0],[7.96,63.0],[7.96,63.01],[8.0,63.01],[8.0,63.0],[8.04,62.99],[8.04,62.980000000000004],[8.06,62.980000000000004],[8.06,62.97],[8.1,62.97],[8.11,62.95],[8.15,62.94],[8.15,62.910000000000004],[8.2,62.910000000000004],[8.19,62.89],[8.16,62.89],[8.16,62.85],[8.18,62.85],[8.18,62.83],[8.2,62.83],[8.2,62.82],[8.25,62.82],[8.25,62.81],[8.31,62.81],[8.31,62.800000000000004],[8.34,62.800000000000004],[8.34,62.79],[8.36,62.79],[8.36,62.78],[8.44,62.77],[8.44,62.75],[8.49,62.75],[8.49,62.74],[8.53,62.74],[8.53,62.730000000000004],[8.55,62.730000000000004],[8.56,62.69],[8.54,62.68],[8.54,62.67],[8.53,62.67],[8.52,62.69],[8.51,62.69],[8.51,62.72],[8.47,62.72],[8.47,62.730000000000004],[8.41,62.72],[8.41,62.75],[8.38,62.75],[8.38,62.76],[8.33,62.76],[8.32,62.78],[8.24,62.78],[8.24,62.79],[8.22,62.79],[8.22,62.800000000000004],[8.18,62.800000000000004],[8.18,62.81],[8.15,62.81],[8.15,62.82],[8.13,62.82],[8.13,62.83],[8.12,62.83],[8.12,62.85],[8.11,62.85],[8.1,62.93],[8.08,62.93],[8.07,62.95],[8.03,62.96],[8.03,62.97],[7.96,62.97],[7.96,62.96],[7.88,62.96],[7.88,62.95],[7.8100000000000005,62.95],[7.800000000000001,62.93],[7.7700000000000005,62.93],[7.7700000000000005,62.92],[7.74,62.92],[7.74,62.910000000000004],[7.71,62.910000000000004],[7.71,62.9],[7.7,62.9],[7.69,62.92],[7.720000000000001,62.92],[7.73,62.94],[7.75,62.94],[7.75,62.97],[7.69,62.97],[7.69,62.96],[7.66,62.96],[7.66,62.95],[7.61,62.95],[7.61,62.94],[7.6000000000000005,62.94],[7.590000000000001,62.92],[7.58,62.92],[7.58,62.93],[7.550000000000001,62.93],[7.54,62.910000000000004],[7.5,62.910000000000004],[7.5,62.9],[7.45,62.9],[7.45,62.94],[7.42,62.94],[7.42,62.96],[7.37,62.96],[7.37,62.97],[7.33,62.97],[7.33,62.980000000000004],[7.32,62.980000000000004],[7.32,63.01],[7.25,63.01],[7.25,63.0],[7.2,63.0],[7.2,62.99],[7.180000000000001,62.99],[7.180000000000001,63.0],[7.15,63.0],[7.15,62.99],[7.13,62.99],[7.13,62.980000000000004],[7.090000000000001,62.980000000000004],[7.090000000000001,62.97],[7.04,62.97],[7.04,62.96],[7.010000000000001,62.96],[7.010000000000001,62.95],[6.98,62.95],[6.98,62.94],[6.96,62.94],[6.96,62.93],[6.95,62.93],[6.95,62.94],[6.92,62.94],[6.92,62.9],[6.94,62.9],[6.95,62.88],[6.99,62.88],[6.99,62.870000000000005],[7.0,62.870000000000005],[7.0,62.84],[7.090000000000001,62.84],[7.090000000000001,62.85],[7.17,62.85],[7.17,62.84],[7.2,62.84],[7.2,62.82],[7.21,62.82],[7.2,62.800000000000004],[7.16,62.800000000000004],[7.16,62.81],[7.11,62.81],[7.11,62.82],[7.090000000000001,62.82],[7.090000000000001,62.83],[7.050000000000001,62.83],[7.050000000000001,62.82],[7.04,62.82],[7.04,62.83],[7.010000000000001,62.83],[7.010000000000001,62.82],[7.0,62.82],[7.0,62.81],[6.98,62.800000000000004],[6.98,62.76],[7.0,62.75],[7.0,62.72],[7.03,62.72],[7.03,62.730000000000004],[7.090000000000001,62.730000000000004],[7.090000000000001,62.74],[7.1000000000000005,62.74],[7.1000000000000005,62.730000000000004],[7.13,62.730000000000004],[7.13,62.74],[7.23,62.74],[7.23,62.75],[7.29,62.75],[7.29,62.76],[7.390000000000001,62.76],[7.390000000000001,62.77],[7.48,62.77],[7.48,62.78],[7.6000000000000005,62.79],[7.6000000000000005,62.800000000000004],[7.61,62.800000000000004],[7.61,62.79],[7.640000000000001,62.79],[7.640000000000001,62.800000000000004],[7.65,62.800000000000004],[7.66,62.78],[7.6000000000000005,62.78],[7.6000000000000005,62.77],[7.53,62.77],[7.53,62.76],[7.470000000000001,62.76],[7.470000000000001,62.75],[7.42,62.75],[7.42,62.7],[7.45,62.7],[7.45,62.69],[7.53,62.69],[7.53,62.7],[7.57,62.7],[7.57,62.71],[7.62,62.71],[7.62,62.72],[7.69,62.72],[7.69,62.730000000000004],[7.71,62.730000000000004],[7.71,62.74],[7.8500000000000005,62.75],[7.8500000000000005,62.76],[7.890000000000001,62.76],[7.890000000000001,62.77],[8.03,62.77],[8.03,62.78],[8.04,62.78],[8.04,62.77],[8.05,62.77],[8.05,62.74],[8.1,62.74],[8.11,62.72],[8.15,62.71],[8.15,62.69],[8.12,62.69],[8.12,62.7],[8.1,62.7],[8.1,62.71],[8.07,62.71],[8.07,62.72],[8.03,62.72],[8.03,62.74],[7.94,62.74],[7.94,62.72],[7.930000000000001,62.72],[7.930000000000001,62.730000000000004],[7.8100000000000005,62.730000000000004],[7.8100000000000005,62.72],[7.75,62.72],[7.75,62.71],[7.720000000000001,62.71],[7.720000000000001,62.7],[7.69,62.7],[7.69,62.69],[7.680000000000001,62.69],[7.680000000000001,62.7],[7.65,62.7],[7.65,62.69],[7.6000000000000005,62.69],[7.6000000000000005,62.68],[7.54,62.68],[7.54,62.67],[7.5200000000000005,62.67],[7.5200000000000005,62.63],[7.54,62.620000000000005],[7.54,62.59],[7.510000000000001,62.59],[7.49,62.63],[7.42,62.63],[7.42,62.59],[7.46,62.59],[7.470000000000001,62.57],[7.510000000000001,62.57],[7.510000000000001,62.56],[7.590000000000001,62.56],[7.590000000000001,62.57],[7.66,62.57],[7.66,62.58],[7.69,62.58],[7.69,62.59],[7.73,62.59],[7.73,62.58],[7.760000000000001,62.58],[7.75,62.56],[7.71,62.56],[7.71,62.57],[7.680000000000001,62.57],[7.67,62.55],[7.640000000000001,62.55],[7.640000000000001,62.54],[7.58,62.54],[7.58,62.53],[7.57,62.53],[7.57,62.49],[7.5600000000000005,62.49],[7.5600000000000005,62.5],[7.54,62.5],[7.54,62.52],[7.53,62.52],[7.5200000000000005,62.54],[7.470000000000001,62.54],[7.470000000000001,62.53],[7.46,62.53],[7.45,62.55],[7.430000000000001,62.55],[7.430000000000001,62.56],[7.4,62.56],[7.4,62.57],[7.38,62.57],[7.37,62.59],[7.36,62.59],[7.36,62.61],[7.32,62.61],[7.32,62.6],[7.3100000000000005,62.6],[7.3100000000000005,62.61],[7.28,62.61],[7.28,62.620000000000005],[7.24,62.620000000000005],[7.24,62.61],[7.23,62.61],[7.23,62.620000000000005],[7.19,62.620000000000005],[7.19,62.63],[7.140000000000001,62.63],[7.140000000000001,62.59],[7.15,62.59],[7.15,62.53],[7.12,62.53],[7.12,62.58],[7.1000000000000005,62.59],[7.1000000000000005,62.65],[6.930000000000001,62.65],[6.930000000000001,62.620000000000005],[6.94,62.620000000000005],[6.94,62.61],[6.92,62.6],[6.92,62.59],[6.890000000000001,62.59],[6.890000000000001,62.6],[6.88,62.6],[6.88,62.620000000000005],[6.8500000000000005,62.620000000000005],[6.8500000000000005,62.63],[6.83,62.63],[6.82,62.65],[6.73,62.65],[6.73,62.64],[6.7,62.64],[6.7,62.63],[6.63,62.63],[6.63,62.59],[6.590000000000001,62.59],[6.590000000000001,62.6],[6.57,62.6],[6.57,62.620000000000005],[6.53,62.620000000000005],[6.53,62.61],[6.4,62.61],[6.4,62.6],[6.36,62.6],[6.36,62.61],[6.33,62.61],[6.33,62.6],[6.28,62.6],[6.2700000000000005,62.58],[6.260000000000001,62.58],[6.260000000000001,62.55],[6.2700000000000005,62.55],[6.2700000000000005,62.53],[6.38,62.53],[6.38,62.54],[6.42,62.54],[6.42,62.53],[6.45,62.53],[6.45,62.54],[6.550000000000001,62.54],[6.550000000000001,62.55],[6.5600000000000005,62.55],[6.5600000000000005,62.54],[6.57,62.54],[6.57,62.52],[6.590000000000001,62.51],[6.590000000000001,62.5],[6.5600000000000005,62.5],[6.5600000000000005,62.49],[6.550000000000001,62.49],[6.550000000000001,62.5],[6.49,62.5],[6.49,62.49],[6.390000000000001,62.49],[6.390000000000001,62.480000000000004],[6.3500000000000005,62.480000000000004],[6.3500000000000005,62.44],[6.37,62.44],[6.37,62.43],[6.5,62.43],[6.5,62.44],[6.5600000000000005,62.44],[6.5600000000000005,62.45],[6.590000000000001,62.45],[6.590000000000001,62.46],[6.65,62.46],[6.65,62.47],[6.680000000000001,62.47],[6.69,62.49],[6.720000000000001,62.49],[6.720000000000001,62.480000000000004],[6.78,62.480000000000004],[6.78,62.49],[6.79,62.49],[6.79,62.480000000000004],[6.800000000000001,62.480000000000004],[6.800000000000001,62.46],[6.86,62.46],[6.86,62.47],[6.87,62.47],[6.87,62.46],[6.890000000000001,62.46],[6.890000000000001,62.44],[6.930000000000001,62.44],[6.930000000000001,62.43],[6.95,62.42],[6.95,62.39],[6.98,62.39],[6.98,62.370000000000005],[6.95,62.370000000000005],[6.95,62.34],[6.96,62.34],[6.96,62.33],[6.98,62.33],[6.99,62.31],[7.090000000000001,62.31],[7.090000000000001,62.3],[7.140000000000001,62.3],[7.140000000000001,62.29],[7.24,62.29],[7.24,62.3],[7.300000000000001,62.3],[7.300000000000001,62.29],[7.33,62.29],[7.33,62.3],[7.340000000000001,62.3],[7.340000000000001,62.29],[7.38,62.28],[7.38,62.27],[7.4,62.27],[7.4,62.26],[7.430000000000001,62.26],[7.430000000000001,62.24],[7.42,62.24],[7.42,62.25],[7.390000000000001,62.25],[7.390000000000001,62.26],[7.37,62.26],[7.37,62.27],[7.3500000000000005,62.27],[7.3500000000000005,62.28],[7.25,62.28],[7.24,62.26],[7.16,62.26],[7.15,62.28],[7.04,62.28],[7.04,62.18],[7.03,62.18],[7.0200000000000005,62.160000000000004],[7.010000000000001,62.160000000000004],[7.010000000000001,62.15],[6.970000000000001,62.14],[6.970000000000001,62.11],[7.010000000000001,62.11],[7.010000000000001,62.1],[7.090000000000001,62.1],[7.090000000000001,62.120000000000005],[7.12,62.120000000000005],[7.12,62.13],[7.140000000000001,62.120000000000005],[7.140000000000001,62.11],[7.12,62.11],[7.12,62.1],[7.1000000000000005,62.1],[7.1000000000000005,62.09],[7.07,62.09],[7.07,62.08],[7.03,62.08],[7.03,62.09],[6.99,62.09],[6.99,62.1],[6.91,62.1],[6.91,62.09],[6.890000000000001,62.09],[6.890000000000001,62.11],[6.92,62.11],[6.92,62.120000000000005],[6.930000000000001,62.120000000000005],[6.930000000000001,62.13],[6.94,62.13],[6.95,62.15],[6.96,62.15],[6.96,62.160000000000004],[6.99,62.160000000000004],[7.0,62.18],[7.010000000000001,62.18],[7.010000000000001,62.22],[7.0,62.22],[7.0,62.29],[6.96,62.29],[6.96,62.31],[6.92,62.32],[6.92,62.35],[6.9,62.35],[6.9,62.38],[6.890000000000001,62.38],[6.890000000000001,62.39],[6.9,62.39],[6.9,62.42],[6.890000000000001,62.42],[6.890000000000001,62.43],[6.82,62.43],[6.82,62.44],[6.79,62.44],[6.79,62.43],[6.75,62.43],[6.74,62.45],[6.680000000000001,62.45],[6.680000000000001,62.44],[6.63,62.44],[6.63,62.43],[6.590000000000001,62.43],[6.590000000000001,62.42],[6.58,62.42],[6.58,62.36],[6.550000000000001,62.36],[6.550000000000001,62.39],[6.53,62.39],[6.53,62.4],[6.44,62.4],[6.44,62.39],[6.42,62.39],[6.42,62.35],[6.44,62.34],[6.45,62.3],[6.470000000000001,62.3],[6.470000000000001,62.27],[6.5,62.27],[6.5,62.26],[6.510000000000001,62.26],[6.510000000000001,62.24],[6.53,62.230000000000004],[6.54,62.21],[6.57,62.21],[6.57,62.22],[6.58,62.22],[6.58,62.21],[6.6000000000000005,62.21],[6.6000000000000005,62.2],[6.58,62.2],[6.58,62.17],[6.6000000000000005,62.160000000000004],[6.6000000000000005,62.14],[6.57,62.14]],[[11.98,65.21000000000001],[12.02,65.21000000000001],[12.02,65.24],[11.98,65.24],[11.98,65.21000000000001]],[[11.63,65.11],[11.57,65.11],[11.56,65.09],[11.540000000000001,65.09],[11.540000000000001,65.04],[11.57,65.04],[11.57,65.05],[11.58,65.05],[11.58,65.04],[11.620000000000001,65.04],[11.63,65.06],[11.68,65.06],[11.68,65.08],[11.71,65.08],[11.71,65.12],[11.63,65.12],[11.63,65.11]],[[11.63,65.01],[11.610000000000001,65.01],[11.610000000000001,64.98],[11.67,64.98],[11.67,64.99],[11.68,64.99],[11.68,64.98],[11.73,64.98],[11.73,65.01],[11.72,65.01],[11.72,65.02],[11.690000000000001,65.02],[11.690000000000001,65.01],[11.68,65.01],[11.68,65.02],[11.63,65.02],[11.63,65.01]],[[10.81,64.99],[10.780000000000001,64.99],[10.780000000000001,64.96000000000001],[10.8,64.96000000000001],[10.8,64.95],[10.84,64.95],[10.84,64.96000000000001],[10.85,64.96000000000001],[10.85,64.99],[10.84,64.99],[10.84,65.0],[10.81,65.0],[10.81,64.99]],[[10.870000000000001,64.99],[10.860000000000001,64.99],[10.860000000000001,64.96000000000001],[10.9,64.96000000000001],[10.9,65.0],[10.870000000000001,65.0],[10.870000000000001,64.99]],[[10.91,64.97],[10.940000000000001,64.97],[10.940000000000001,65.0],[10.91,65.0],[10.91,64.97]],[[11.02,64.97],[11.01,64.97],[11.01,64.96000000000001],[10.940000000000001,64.96000000000001],[10.940000000000001,64.95],[10.92,64.95],[10.92,64.94],[10.89,64.94],[10.89,64.93],[10.790000000000001,64.93],[10.790000000000001,64.92],[10.76,64.92],[10.76,64.9],[10.73,64.9],[10.73,64.89],[10.72,64.89],[10.72,64.9],[10.690000000000001,64.9],[10.690000000000001,64.87],[10.700000000000001,64.87],[10.700000000000001,64.86],[10.73,64.86],[10.73,64.84],[10.780000000000001,64.84],[10.780000000000001,64.85],[10.8,64.85],[10.8,64.86],[10.83,64.86],[10.84,64.84],[10.88,64.84],[10.88,64.85],[10.9,64.85],[10.9,64.86],[10.93,64.86],[10.93,64.87],[10.950000000000001,64.87],[10.950000000000001,64.88],[10.97,64.88],[10.97,64.87],[11.0,64.87],[11.0,64.88],[11.01,64.88],[11.01,64.9],[11.02,64.9],[11.02,64.89],[11.09,64.89],[11.09,64.88],[11.07,64.87],[11.07,64.86],[11.06,64.86],[11.06,64.83],[11.15,64.83],[11.15,64.84],[11.18,64.84],[11.18,64.85],[11.190000000000001,64.85],[11.190000000000001,64.84],[11.21,64.84],[11.21,64.83],[11.24,64.83],[11.24,64.84],[11.26,64.85],[11.26,64.86],[11.27,64.86],[11.27,64.87],[11.290000000000001,64.87],[11.290000000000001,64.91],[11.25,64.91],[11.25,64.93],[11.22,64.93],[11.22,64.94],[11.16,64.94],[11.16,64.96000000000001],[11.110000000000001,64.96000000000001],[11.110000000000001,64.95],[11.08,64.95],[11.08,64.94],[11.07,64.94],[11.07,64.95],[11.06,64.95],[11.06,64.96000000000001],[11.07,64.96000000000001],[11.07,64.99],[11.02,64.99],[11.02,64.97]],[[10.64,64.87],[10.610000000000001,64.87],[10.610000000000001,64.84],[10.64,64.84],[10.64,64.86],[10.67,64.86],[10.67,64.89],[10.64,64.89],[10.64,64.87]],[[11.71,64.85],[11.76,64.85],[11.76,64.88],[11.71,64.88],[11.71,64.85]],[[11.65,64.8],[11.68,64.8],[11.68,64.83],[11.65,64.83],[11.65,64.8]],[[11.22,64.68],[11.17,64.68],[11.17,64.64],[11.200000000000001,64.64],[11.200000000000001,64.63],[11.26,64.64],[11.27,64.62],[11.290000000000001,64.62],[11.290000000000001,64.6],[11.33,64.6],[11.33,64.63],[11.35,64.64],[11.35,64.68],[11.32,64.68],[11.32,64.69],[11.280000000000001,64.69],[11.280000000000001,64.68],[11.27,64.68],[11.27,64.69],[11.22,64.69],[11.22,64.68]],[[11.040000000000001,64.63],[11.030000000000001,64.63],[11.030000000000001,64.6],[11.06,64.6],[11.06,64.59],[11.15,64.59],[11.15,64.6],[11.16,64.6],[11.16,64.59],[11.18,64.59],[11.18,64.58],[11.14,64.57000000000001],[11.14,64.54],[11.16,64.54],[11.16,64.52],[11.17,64.52],[11.17,64.51],[11.22,64.51],[11.22,64.52],[11.26,64.52],[11.26,64.55],[11.280000000000001,64.56],[11.280000000000001,64.59],[11.26,64.59],[11.25,64.61],[11.190000000000001,64.61],[11.190000000000001,64.62],[11.16,64.62],[11.16,64.63],[11.14,64.63],[11.14,64.64],[11.120000000000001,64.64],[11.120000000000001,64.65],[11.040000000000001,64.65],[11.040000000000001,64.63]],[[10.780000000000001,64.57000000000001],[10.81,64.57000000000001],[10.81,64.6],[10.780000000000001,64.6],[10.780000000000001,64.57000000000001]],[[10.67,64.51],[10.690000000000001,64.51],[10.690000000000001,64.5],[10.74,64.5],[10.74,64.53],[10.73,64.53],[10.72,64.55],[10.67,64.55],[10.67,64.51]],[[9.89,64.04],[9.88,64.04],[9.88,64.01],[9.89,64.01],[9.89,64.0],[9.94,64.0],[9.94,64.03],[9.92,64.03],[9.92,64.05],[9.89,64.05],[9.89,64.04]],[[9.09,63.97],[9.12,63.97],[9.12,64.01],[9.09,64.01],[9.09,63.97]],[[8.78,63.81],[8.77,63.81],[8.77,63.800000000000004],[8.7,63.800000000000004],[8.7,63.81],[8.67,63.81],[8.66,63.79],[8.64,63.79],[8.64,63.76],[8.63,63.76],[8.63,63.74],[8.62,63.74],[8.62,63.72],[8.56,63.72],[8.56,63.71],[8.459999999999999,63.71],[8.459999999999999,63.7],[8.37,63.7],[8.37,63.67],[8.38,63.67],[8.38,63.660000000000004],[8.43,63.660000000000004],[8.43,63.67],[8.55,63.67],[8.55,63.660000000000004],[8.58,63.660000000000004],[8.58,63.67],[8.61,63.67],[8.61,63.68],[8.7,63.68],[8.7,63.69],[8.709999999999999,63.69],[8.709999999999999,63.68],[8.76,63.68],[8.76,63.69],[8.8,63.69],[8.8,63.7],[8.83,63.7],[8.83,63.71],[8.84,63.71],[8.84,63.77],[8.82,63.77],[8.82,63.800000000000004],[8.81,63.800000000000004],[8.81,63.82],[8.78,63.82],[8.78,63.81]],[[9.39,63.79],[9.42,63.79],[9.42,63.82],[9.39,63.82],[9.39,63.79]],[[11.06,63.79],[11.040000000000001,63.79],[11.040000000000001,63.76],[11.08,63.76],[11.08,63.77],[11.09,63.77],[11.09,63.800000000000004],[11.06,63.800000000000004],[11.06,63.79]],[[8.3,63.660000000000004],[8.34,63.660000000000004],[8.34,63.69],[8.3,63.69],[8.3,63.660000000000004]],[[9.04,63.660000000000004],[9.03,63.660000000000004],[9.03,63.61],[9.06,63.61],[9.06,63.620000000000005],[9.07,63.620000000000005],[9.07,63.61],[9.1,63.61],[9.1,63.620000000000005],[9.11,63.620000000000005],[9.11,63.68],[9.04,63.68],[9.04,63.660000000000004]],[[9.38,63.65],[9.43,63.65],[9.43,63.68],[9.38,63.68],[9.38,63.65]],[[8.77,63.65],[8.74,63.65],[8.74,63.64],[8.73,63.64],[8.73,63.65],[8.68,63.65],[8.68,63.64],[8.65,63.64],[8.65,63.63],[8.62,63.63],[8.62,63.620000000000005],[8.56,63.620000000000005],[8.56,63.59],[8.55,63.59],[8.55,63.58],[8.51,63.58],[8.51,63.56],[8.5,63.56],[8.5,63.550000000000004],[8.49,63.550000000000004],[8.49,63.56],[8.459999999999999,63.56],[8.459999999999999,63.550000000000004],[8.43,63.550000000000004],[8.43,63.54],[8.35,63.54],[8.35,63.53],[8.32,63.53],[8.32,63.52],[8.29,63.52],[8.29,63.49],[8.31,63.49],[8.31,63.480000000000004],[8.32,63.480000000000004],[8.32,63.47],[8.31,63.47],[8.31,63.44],[8.38,63.44],[8.38,63.43],[8.54,63.43],[8.54,63.44],[8.59,63.44],[8.59,63.45],[8.61,63.45],[8.61,63.46],[8.65,63.46],[8.65,63.47],[8.72,63.47],[8.72,63.480000000000004],[8.78,63.47],[8.78,63.480000000000004],[8.81,63.480000000000004],[8.81,63.49],[8.82,63.49],[8.82,63.480000000000004],[8.88,63.480000000000004],[8.88,63.49],[8.93,63.49],[8.93,63.5],[9.0,63.5],[9.0,63.51],[9.11,63.51],[9.11,63.52],[9.13,63.53],[9.13,63.54],[9.16,63.54],[9.16,63.57],[9.14,63.58],[9.14,63.59],[9.12,63.59],[9.12,63.6],[9.02,63.6],[9.02,63.59],[9.0,63.59],[9.0,63.58],[8.98,63.58],[8.98,63.65],[8.93,63.65],[8.93,63.64],[8.86,63.64],[8.86,63.660000000000004],[8.77,63.660000000000004],[8.77,63.65]],[[8.4,63.57],[8.41,63.57],[8.41,63.56],[8.44,63.56],[8.44,63.59],[8.43,63.59],[8.43,63.6],[8.4,63.6],[8.4,63.57]],[[7.96,63.46],[7.95,63.46],[7.95,63.45],[7.92,63.45],[7.92,63.44],[7.86,63.44],[7.86,63.43],[7.840000000000001,63.43],[7.840000000000001,63.42],[7.79,63.42],[7.79,63.410000000000004],[7.78,63.410000000000004],[7.78,63.36],[7.8500000000000005,63.36],[7.8500000000000005,63.33],[7.890000000000001,63.33],[7.890000000000001,63.34],[7.9,63.34],[7.9,63.33],[7.98,63.33],[7.99,63.29],[8.09,63.29],[8.09,63.32],[8.1,63.32],[8.1,63.33],[8.15,63.33],[8.16,63.35],[8.2,63.36],[8.2,63.39],[8.19,63.39],[8.19,63.4],[8.17,63.4],[8.17,63.42],[8.15,63.43],[8.15,63.45],[8.13,63.45],[8.13,63.47],[8.09,63.47],[8.09,63.46],[8.05,63.46],[8.05,63.47],[8.02,63.47],[8.02,63.46],[8.01,63.46],[8.01,63.47],[7.96,63.47],[7.96,63.46]],[[8.43,63.300000000000004],[8.459999999999999,63.300000000000004],[8.459999999999999,63.31],[8.47,63.31],[8.47,63.34],[8.43,63.34],[8.43,63.300000000000004]],[[8.39,63.300000000000004],[8.42,63.300000000000004],[8.42,63.33],[8.39,63.33],[8.39,63.300000000000004]],[[8.17,63.22],[8.15,63.21],[8.14,63.230000000000004],[8.05,63.230000000000004],[8.05,63.22],[8.03,63.22],[8.03,63.2],[8.02,63.2],[8.02,63.21],[7.92,63.2],[7.92,63.15],[7.930000000000001,63.15],[7.930000000000001,63.14],[7.96,63.14],[7.96,63.15],[8.0,63.15],[8.0,63.14],[8.03,63.14],[8.03,63.15],[8.15,63.15],[8.15,63.160000000000004],[8.16,63.160000000000004],[8.16,63.15],[8.19,63.15],[8.19,63.160000000000004],[8.25,63.160000000000004],[8.25,63.17],[8.26,63.17],[8.26,63.160000000000004],[8.29,63.160000000000004],[8.29,63.19],[8.28,63.19],[8.28,63.2],[8.26,63.2],[8.26,63.21],[8.24,63.21],[8.23,63.230000000000004],[8.209999999999999,63.230000000000004],[8.209999999999999,63.24],[8.17,63.24],[8.17,63.22]],[[7.8100000000000005,63.13],[7.79,63.13],[7.79,63.1],[7.78,63.1],[7.78,63.09],[7.74,63.09],[7.74,63.08],[7.71,63.08],[7.71,63.07],[7.7,63.07],[7.7,63.04],[7.71,63.04],[7.71,63.03],[7.75,63.03],[7.75,63.02],[7.78,63.02],[7.78,63.03],[7.79,63.03],[7.79,63.02],[7.82,63.02],[7.83,63.04],[7.86,63.04],[7.86,63.050000000000004],[7.88,63.050000000000004],[7.88,63.07],[7.890000000000001,63.07],[7.890000000000001,63.11],[7.87,63.11],[7.87,63.13],[7.8500000000000005,63.13],[7.8500000000000005,63.14],[7.8100000000000005,63.14],[7.8100000000000005,63.13]],[[7.720000000000001,63.1],[7.75,63.1],[7.75,63.13],[7.720000000000001,63.13],[7.720000000000001,63.1]],[[7.62,63.09],[7.61,63.09],[7.61,63.08],[7.58,63.08],[7.57,63.04],[7.5200000000000005,63.04],[7.5200000000000005,63.050000000000004],[7.510000000000001,63.050000000000004],[7.510000000000001,63.07],[7.45,63.07],[7.45,63.06],[7.42,63.06],[7.42,63.050000000000004],[7.41,63.050000000000004],[7.41,63.02],[7.390000000000001,63.01],[7.390000000000001,62.980000000000004],[7.41,62.980000000000004],[7.41,62.97],[7.45,62.97],[7.45,62.96],[7.49,62.96],[7.49,62.94],[7.550000000000001,62.94],[7.550000000000001,62.95],[7.57,62.95],[7.57,62.96],[7.6000000000000005,62.96],[7.6000000000000005,62.97],[7.63,62.97],[7.63,62.980000000000004],[7.680000000000001,62.980000000000004],[7.680000000000001,62.99],[7.71,62.99],[7.71,63.02],[7.680000000000001,63.02],[7.680000000000001,63.03],[7.67,63.03],[7.67,63.1],[7.66,63.1],[7.66,63.11],[7.62,63.11],[7.62,63.09]],[[7.8100000000000005,62.97],[7.840000000000001,62.97],[7.840000000000001,63.0],[7.8100000000000005,63.0],[7.8100000000000005,62.97]],[[6.890000000000001,62.84],[6.86,62.84],[6.86,62.85],[6.82,62.85],[6.82,62.83],[6.8100000000000005,62.83],[6.8100000000000005,62.800000000000004],[6.8500000000000005,62.800000000000004],[6.86,62.78],[6.91,62.78],[6.91,62.81],[6.92,62.81],[6.92,62.82],[6.96,62.82],[6.96,62.85],[6.94,62.85],[6.94,62.86],[6.890000000000001,62.86],[6.890000000000001,62.84]],[[6.44,62.730000000000004],[6.470000000000001,62.730000000000004],[6.470000000000001,62.78],[6.44,62.78],[6.44,62.730000000000004]],[[6.890000000000001,62.74],[6.86,62.74],[6.86,62.730000000000004],[6.7,62.730000000000004],[6.69,62.67],[6.74,62.67],[6.74,62.68],[6.79,62.68],[6.79,62.69],[6.87,62.69],[6.87,62.7],[6.91,62.7],[6.91,62.71],[6.94,62.71],[6.94,62.74],[6.930000000000001,62.74],[6.930000000000001,62.75],[6.890000000000001,62.75],[6.890000000000001,62.74]],[[6.390000000000001,62.69],[6.42,62.69],[6.42,62.72],[6.390000000000001,62.72],[6.390000000000001,62.69]],[[6.61,62.660000000000004],[6.65,62.660000000000004],[6.65,62.69],[6.61,62.69],[6.61,62.660000000000004]],[[7.260000000000001,62.65],[7.3100000000000005,62.65],[7.3100000000000005,62.68],[7.260000000000001,62.68],[7.260000000000001,62.65]],[[6.08,62.56],[6.09,62.56],[6.09,62.55],[6.12,62.55],[6.12,62.59],[6.08,62.59],[6.08,62.56]],[[6.04,62.54],[6.07,62.54],[6.07,62.57],[6.04,62.57],[6.04,62.54]],[[6.1000000000000005,62.5],[6.140000000000001,62.5],[6.140000000000001,62.53],[6.1000000000000005,62.53],[6.1000000000000005,62.5]],[[6.19,62.44],[6.07,62.44],[6.07,62.410000000000004],[6.11,62.410000000000004],[6.11,62.4],[6.24,62.4],[6.24,62.410000000000004],[6.28,62.410000000000004],[6.28,62.4],[6.3100000000000005,62.4],[6.3100000000000005,62.410000000000004],[6.340000000000001,62.410000000000004],[6.340000000000001,62.44],[6.23,62.44],[6.23,62.45],[6.19,62.45],[6.19,62.44]]]]}}]}