{"type":"FeatureCollection","name":"tidal_model_domain","features":[{"type":"Feature","properties":{"kind":"domain","atlases":["CMEMS_ARC_ICELAND"],"source_file":"arctic_iceland_20250920_20251030.nc","wet_cells":46534,"grid_deg":0.03,"area_deg2":28.69},"geometry":{"type":"Polygon","coordinates":[[[-25.0,67.0],[-12.5,67.0],[-12.5,63.0],[-25.0,63.0],[-25.0,67.0]],[[-16.240000000000002,66.54],[-16.51,66.54],[-16.51,66.51],[-16.54,66.51],[-16.54,66.33],[-16.450000000000003,66.33],[-16.450000000000003,66.3],[-16.480000000000004,66.3],[-16.51,66.24000000000001],[-16.54,66.24000000000001],[-16.54,66.18],[-16.57,66.18],[-16.57,66.15],[-16.75,66.15],[-16.75,66.12],[-16.78,66.12],[-16.78,66.15],[-16.900000000000002,66.15],[-16.900000000000002,66.18],[-16.990000000000002,66.18],[-16.990000000000002,66.15],[-17.020000000000003,66.15],[-17.020000000000003,66.21000000000001],[-17.11,66.21000000000001],[-17.11,66.18],[-17.29,66.18],[-17.29,66.15],[-17.410000000000004,66.15],[-17.44,66.09],[-17.5,66.09],[-17.5,66.0],[-17.590000000000003,66.0],[-17.590000000000003,66.03],[-17.68,66.03],[-17.71,66.09],[-17.89,66.09],[-17.89,66.15],[-18.04,66.15],[-18.04,66.18],[-18.130000000000003,66.18],[-18.130000000000003,66.21000000000001],[-18.25,66.21000000000001],[-18.25,66.18],[-18.28,66.18],[-18.28,66.06],[-18.310000000000002,66.06],[-18.310000000000002,66.03],[-18.340000000000003,66.03],[-18.37,65.97],[-18.400000000000002,65.97],[-18.400000000000002,66.0],[-18.520000000000003,66.0],[-18.55,66.06],[-18.61,66.06],[-18.61,66.12],[-18.67,66.12],[-18.67,66.15],[-18.76,66.15],[-18.76,66.18],[-18.85,66.18],[-18.85,66.21000000000001],[-18.97,66.21000000000001],[-19.0,66.15],[-19.03,66.15],[-19.03,66.18],[-19.12,66.18],[-19.12,66.12],[-19.150000000000002,66.12],[-19.150000000000002,66.09],[-19.330000000000002,66.09],[-19.330000000000002,66.06],[-19.42,66.06],[-19.42,66.03],[-19.480000000000004,66.03],[-19.450000000000003,65.85000000000001],[-19.480000000000004,65.85000000000001],[-19.51,65.79],[-19.54,65.79],[-19.54,65.82000000000001],[-19.69,65.82000000000001],[-19.69,65.85000000000001],[-19.75,65.85000000000001],[-19.75,65.88000000000001],[-19.840000000000003,65.88000000000001],[-19.840000000000003,65.94],[-19.93,65.94],[-19.93,66.0],[-19.990000000000002,66.0],[-20.020000000000003,66.06],[-20.080000000000002,66.06],[-20.080000000000002,66.12],[-20.41,66.12],[-20.41,66.09],[-20.470000000000002,66.09],[-20.470000000000002,65.97],[-20.44,65.97],[-20.41,65.91],[-20.32,65.91],[-20.32,65.88000000000001],[-20.35,65.88000000000001],[-20.35,65.85000000000001],[-20.380000000000003,65.85000000000001],[-20.41,65.79],[-20.44,65.79],[-20.44,65.7],[-20.470000000000002,65.7],[-20.5,65.64],[-20.53,65.64],[-20.53,65.67],[-20.86,65.67],[-20.89,65.61],[-20.98,65.61],[-21.01,65.55],[-21.07,65.52000000000001],[-21.07,65.49000000000001],[-21.130000000000003,65.49000000000001],[-21.130000000000003,65.46000000000001],[-21.28,65.46000000000001],[-21.28,65.49000000000001],[-21.25,65.49000000000001],[-21.25,65.58],[-21.310000000000002,65.58],[-21.310000000000002,65.61],[-21.400000000000002,65.61],[-21.400000000000002,65.64],[-21.37,65.64],[-21.37,65.73],[-21.310000000000002,65.76],[-21.310000000000002,65.79],[-21.28,65.79],[-21.28,65.88000000000001],[-21.310000000000002,65.88000000000001],[-21.310000000000002,65.97],[-21.340000000000003,65.97],[-21.37,66.03],[-21.43,66.03],[-21.46,66.09],[-21.520000000000003,66.09],[-21.520000000000003,66.15],[-21.580000000000002,66.15],[-21.580000000000002,66.18],[-21.67,66.18],[-21.67,66.21000000000001],[-21.79,66.21000000000001],[-21.82,66.27000000000001],[-21.880000000000003,66.27000000000001],[-21.880000000000003,66.33],[-22.150000000000002,66.33],[-22.150000000000002,66.39],[-22.21,66.39],[-22.21,66.42],[-22.330000000000002,66.42],[-22.330000000000002,66.39],[-22.36,66.39],[-22.36,66.42],[-22.42,66.42],[-22.450000000000003,66.48],[-22.75,66.48],[-22.75,66.51],[-22.87,66.51],[-22.900000000000002,66.45],[-22.93,66.45],[-22.93,66.48],[-23.05,66.48],[-23.05,66.42],[-23.17,66.42],[-23.17,66.39],[-23.200000000000003,66.39],[-23.200000000000003,66.3],[-23.14,66.3],[-23.14,66.27000000000001],[-23.17,66.27000000000001],[-23.17,66.18],[-23.32,66.18],[-23.32,66.21000000000001],[-23.53,66.21000000000001],[-23.53,66.18],[-23.68,66.18],[-23.68,66.09],[-23.71,66.09],[-23.71,66.03],[-23.740000000000002,66.03],[-23.740000000000002,66.06],[-23.86,66.06],[-23.86,65.94],[-23.92,65.94],[-23.98,65.82000000000001],[-24.1,65.82000000000001],[-24.1,65.76],[-24.130000000000003,65.76],[-24.130000000000003,65.67],[-24.16,65.67],[-24.16,65.64],[-24.34,65.64],[-24.34,65.61],[-24.46,65.58],[-24.46,65.49000000000001],[-24.34,65.49000000000001],[-24.34,65.46000000000001],[-24.16,65.46000000000001],[-24.16,65.43],[-23.98,65.46000000000001],[-23.98,65.4],[-23.950000000000003,65.4],[-23.950000000000003,65.37],[-23.8,65.37],[-23.8,65.4],[-23.62,65.4],[-23.62,65.43],[-23.26,65.43],[-23.26,65.4],[-23.200000000000003,65.4],[-23.200000000000003,65.37],[-23.11,65.37],[-23.11,65.34],[-22.96,65.34],[-22.96,65.28],[-22.87,65.28],[-22.87,65.22],[-22.78,65.22],[-22.78,65.19],[-22.840000000000003,65.16],[-22.840000000000003,65.07000000000001],[-22.900000000000002,65.04],[-22.900000000000002,65.01],[-23.14,65.01],[-23.14,64.98],[-23.29,64.98],[-23.29,64.95],[-23.470000000000002,64.98],[-23.5,64.92],[-23.53,64.92],[-23.53,64.95],[-23.830000000000002,64.95],[-23.830000000000002,64.92],[-24.01,64.89],[-24.01,64.8],[-23.92,64.8],[-23.92,64.74000000000001],[-23.71,64.74000000000001],[-23.71,64.77000000000001],[-23.53,64.74000000000001],[-23.53,64.77000000000001],[-23.380000000000003,64.77000000000001],[-23.380000000000003,64.8],[-23.35,64.8],[-23.35,64.77000000000001],[-23.17,64.77000000000001],[-23.17,64.74000000000001],[-22.810000000000002,64.74000000000001],[-22.810000000000002,64.71000000000001],[-22.69,64.71000000000001],[-22.69,64.68],[-22.6,64.68],[-22.6,64.59],[-22.54,64.59],[-22.54,64.56],[-22.450000000000003,64.56],[-22.450000000000003,64.5],[-22.39,64.5],[-22.39,64.47],[-22.3,64.47],[-22.3,64.5],[-22.270000000000003,64.5],[-22.270000000000003,64.44],[-22.240000000000002,64.44],[-22.21,64.38000000000001],[-22.12,64.38000000000001],[-22.12,64.32000000000001],[-22.060000000000002,64.32000000000001],[-22.03,64.26],[-21.970000000000002,64.26],[-21.970000000000002,64.23],[-22.03,64.2],[-22.03,64.17],[-22.060000000000002,64.17],[-22.060000000000002,64.14],[-22.090000000000003,64.14],[-22.090000000000003,64.11],[-22.18,64.11],[-22.21,64.05],[-22.240000000000002,64.05],[-22.240000000000002,64.08],[-22.330000000000002,64.08],[-22.330000000000002,64.05],[-22.36,64.05],[-22.36,64.08],[-22.51,64.08],[-22.51,64.11],[-22.69,64.11],[-22.69,64.08],[-22.78,64.08],[-22.78,63.870000000000005],[-22.720000000000002,63.870000000000005],[-22.720000000000002,63.84],[-22.57,63.84],[-22.57,63.81],[-22.39,63.81],[-22.39,63.84],[-22.150000000000002,63.84],[-22.150000000000002,63.81],[-22.03,63.81],[-22.0,63.870000000000005],[-21.970000000000002,63.870000000000005],[-21.970000000000002,63.84],[-21.82,63.84],[-21.82,63.81],[-21.61,63.81],[-21.61,63.84],[-21.490000000000002,63.84],[-21.490000000000002,63.870000000000005],[-21.28,63.870000000000005],[-21.28,63.84],[-21.130000000000003,63.84],[-21.130000000000003,63.81],[-21.040000000000003,63.81],[-21.040000000000003,63.84],[-21.01,63.84],[-21.01,63.81],[-20.89,63.81],[-20.89,63.75],[-20.650000000000002,63.75],[-20.650000000000002,63.660000000000004],[-20.470000000000002,63.660000000000004],[-20.470000000000002,63.6],[-20.35,63.6],[-20.35,63.57000000000001],[-20.290000000000003,63.57000000000001],[-20.290000000000003,63.540000000000006],[-20.17,63.540000000000006],[-20.17,63.510000000000005],[-19.93,63.510000000000005],[-19.93,63.540000000000006],[-19.78,63.540000000000006],[-19.78,63.510000000000005],[-19.630000000000003,63.510000000000005],[-19.630000000000003,63.480000000000004],[-19.57,63.480000000000004],[-19.57,63.45],[-19.51,63.45],[-19.51,63.42],[-19.21,63.42],[-19.21,63.39],[-19.03,63.39],[-19.03,63.42],[-18.97,63.42],[-18.97,63.39],[-18.730000000000004,63.39],[-18.730000000000004,63.42],[-18.520000000000003,63.42],[-18.520000000000003,63.45],[-18.43,63.45],[-18.43,63.42],[-18.340000000000003,63.42],[-18.340000000000003,63.45],[-18.160000000000004,63.45],[-18.160000000000004,63.480000000000004],[-18.04,63.480000000000004],[-18.04,63.510000000000005],[-17.89,63.510000000000005],[-17.89,63.540000000000006],[-17.8,63.540000000000006],[-17.8,63.57000000000001],[-17.740000000000002,63.6],[-17.740000000000002,63.690000000000005],[-17.68,63.690000000000005],[-17.650000000000002,63.75],[-17.560000000000002,63.75],[-17.560000000000002,63.78],[-17.410000000000004,63.78],[-17.410000000000004,63.81],[-17.380000000000003,63.81],[-17.380000000000003,63.78],[-17.200000000000003,63.78],[-17.200000000000003,63.81],[-17.11,63.81],[-17.11,63.78],[-16.810000000000002,63.78],[-16.78,63.84],[-16.6,63.84],[-16.57,63.900000000000006],[-16.450000000000003,63.900000000000006],[-16.42,63.96],[-16.330000000000002,63.96],[-16.330000000000002,63.99],[-16.270000000000003,63.99],[-16.240000000000002,64.05],[-16.12,64.05],[-16.090000000000003,64.11],[-16.0,64.11],[-15.970000000000002,64.17],[-15.850000000000001,64.17],[-15.850000000000001,64.14],[-15.760000000000002,64.14],[-15.730000000000002,64.2],[-15.700000000000001,64.2],[-15.700000000000001,64.17],[-15.55,64.17],[-15.55,64.2],[-15.490000000000002,64.2],[-15.490000000000002,64.23],[-15.370000000000001,64.23],[-15.370000000000001,64.2],[-15.280000000000001,64.2],[-15.280000000000001,64.23],[-15.010000000000002,64.23],[-15.010000000000002,64.26],[-14.830000000000002,64.26],[-14.830000000000002,64.35000000000001],[-14.800000000000002,64.35000000000001],[-14.800000000000002,64.38000000000001],[-14.770000000000001,64.38000000000001],[-14.770000000000001,64.35000000000001],[-14.680000000000001,64.35000000000001],[-14.680000000000001,64.38000000000001],[-14.560000000000002,64.38000000000001],[-14.560000000000002,64.41],[-14.500000000000002,64.41],[-14.500000000000002,64.44],[-14.470000000000002,64.44],[-14.470000000000002,64.53],[-14.410000000000002,64.53],[-14.410000000000002,64.56],[-14.38,64.56],[-14.350000000000001,64.62],[-14.230000000000002,64.62],[-14.230000000000002,64.65],[-14.170000000000002,64.65],[-14.140000000000002,64.71000000000001],[-14.110000000000001,64.71000000000001],[-14.110000000000001,64.74000000000001],[-13.990000000000002,64.74000000000001],[-13.990000000000002,64.77000000000001],[-13.930000000000001,64.77000000000001],[-13.930000000000001,64.8],[-13.750000000000002,64.8],[-13.750000000000002,64.83],[-13.690000000000001,64.83],[-13.690000000000001,64.86],[-13.660000000000002,64.86],[-13.630000000000003,64.92],[-13.570000000000002,64.92],[-13.570000000000002,65.01],[-13.540000000000001,65.01],[-13.540000000000001,65.16],[-13.570000000000002,65.16],[-13.570000000000002,65.25],[-13.600000000000001,65.25],[-13.600000000000001,65.31],[-13.660000000000002,65.31],[-13.660000000000002,65.49000000000001],[-13.720000000000002,65.52000000000001],[-13.720000000000002,65.58],[-13.840000000000002,65.58],[-13.840000000000002,65.64],[-13.990000000000002,65.64],[-13.990000000000002,65.61],[-14.080000000000002,65.61],[-14.080000000000002,65.64],[-14.320000000000002,65.64],[-14.320000000000002,65.67],[-14.38,65.67],[-14.38,65.76],[-14.530000000000001,65.76],[-14.530000000000001,65.73],[-14.560000000000002,65.73],[-14.560000000000002,65.76],[-14.680000000000001,65.76],[-14.71,65.82000000000001],[-14.650000000000002,65.82000000000001],[-14.650000000000002,65.85000000000001],[-14.620000000000001,65.85000000000001],[-14.620000000000001,65.94],[-14.650000000000002,65.94],[-14.650000000000002,66.0],[-14.680000000000001,66.0],[-14.71,66.06],[-14.860000000000001,66.06],[-14.860000000000001,66.03],[-14.920000000000002,66.03],[-14.920000000000002,66.06],[-14.980000000000002,66.06],[-14.980000000000002,66.09],[-15.010000000000002,66.09],[-14.980000000000002,66.15],[-14.920000000000002,66.15],[-14.920000000000002,66.18],[-14.890000000000002,66.18],[-14.890000000000002,66.27000000000001],[-14.800000000000002,66.27000000000001],[-14.800000000000002,66.3],[-14.770000000000001,66.3],[-14.770000000000001,66.39],[-14.890000000000002,66.39],[-14.890000000000002,66.36],[-15.010000000000002,66.36],[-15.010000000000002,66.33],[-15.190000000000001,66.33],[-15.190000000000001,66.3],[-15.310000000000002,66.3],[-15.310000000000002,66.27000000000001],[-15.46,66.27000000000001],[-15.46,66.21000000000001],[-15.490000000000002,66.21000000000001],[-15.490000000000002,66.24000000000001],[-15.670000000000002,66.24000000000001],[-15.670000000000002,66.3],[-15.730000000000002,66.3],[-15.760000000000002,66.36],[-15.820000000000002,66.36],[-15.820000000000002,66.42],[-15.850000000000001,66.42],[-15.88,66.48],[-16.0,66.48],[-16.03,66.54],[-16.12,66.54],[-16.12,66.57000000000001],[-16.240000000000002,66.57000000000001],[-16.240000000000002,66.54]]]}}]}