{"type":"FeatureCollection","name":"tidal_model_domain","features":[{"type":"Feature","properties":{"kind":"domain","atlases":["CMEMS_NWS"],"source_file":"nws_2025-09.nc","wet_cells":601740,"grid_deg":0.05,"area_deg2":254.38},"geometry":{"type":"Polygon","coordinates":[[[-13.05,62.75000000000001],[-13.05,45.95],[-1.0500000000000007,45.95],[-1.0500000000000007,46.10000000000001],[-1.1500000000000004,46.10000000000001],[-1.1500000000000004,46.30000000000001],[-1.4499999999999993,46.35000000000001],[-1.5,46.45],[-1.6999999999999993,46.45],[-1.6999999999999993,46.50000000000001],[-1.8000000000000007,46.50000000000001],[-1.8000000000000007,46.60000000000001],[-1.8499999999999996,46.60000000000001],[-1.8499999999999996,46.650000000000006],[-1.9499999999999993,46.7],[-1.9499999999999993,46.75000000000001],[-2.0500000000000007,46.75000000000001],[-2.0500000000000007,46.95000000000001],[-1.9499999999999993,47.00000000000001],[-1.9499999999999993,47.05000000000001],[-2.0,47.05000000000001],[-2.0,47.10000000000001],[-2.1500000000000004,47.10000000000001],[-2.1500000000000004,47.30000000000001],[-2.4499999999999993,47.30000000000001],[-2.4499999999999993,47.50000000000001],[-2.5,47.50000000000001],[-2.5,47.55000000000001],[-2.5500000000000007,47.55000000000001],[-2.5500000000000007,47.50000000000001],[-2.8499999999999996,47.50000000000001],[-2.8499999999999996,47.60000000000001],[-3.1500000000000004,47.60000000000001],[-3.1500000000000004,47.650000000000006],[-3.25,47.650000000000006],[-3.25,47.70000000000001],[-3.4499999999999993,47.70000000000001],[-3.5,47.80000000000001],[-3.9000000000000004,47.80000000000001],[-3.9000000000000004,47.900000000000006],[-4.15,47.900000000000006],[-4.200000000000001,47.80000000000001],[-4.35,47.80000000000001],[-4.35,48.05000000000001],[-4.300000000000001,48.05000000000001],[-4.300000000000001,48.35000000000001],[-4.4,48.35000000000001],[-4.4,48.400000000000006],[-4.6,48.400000000000006],[-4.6,48.35000000000001],[-4.75,48.35000000000001],[-4.75,48.55000000000001],[-4.6,48.55000000000001],[-4.6,48.60000000000001],[-4.450000000000001,48.60000000000001],[-4.450000000000001,48.650000000000006],[-4.15,48.650000000000006],[-4.15,48.70000000000001],[-4.0,48.70000000000001],[-4.0,48.650000000000006],[-3.9000000000000004,48.650000000000006],[-3.9000000000000004,48.60000000000001],[-3.8499999999999996,48.60000000000001],[-3.8499999999999996,48.70000000000001],[-3.700000000000001,48.70000000000001],[-3.700000000000001,48.650000000000006],[-3.5999999999999996,48.650000000000006],[-3.5999999999999996,48.70000000000001],[-3.5500000000000007,48.70000000000001],[-3.5500000000000007,48.80000000000001],[-3.3000000000000007,48.80000000000001],[-3.3000000000000007,48.85000000000001],[-3.0999999999999996,48.85000000000001],[-3.0500000000000007,48.75000000000001],[-2.9499999999999993,48.75000000000001],[-2.9000000000000004,48.650000000000006],[-2.8000000000000007,48.60000000000001],[-2.8000000000000007,48.55000000000001],[-2.6999999999999993,48.55000000000001],[-2.6999999999999993,48.50000000000001],[-2.5999999999999996,48.50000000000001],[-2.5999999999999996,48.55000000000001],[-2.5500000000000007,48.55000000000001],[-2.5500000000000007,48.60000000000001],[-2.4499999999999993,48.60000000000001],[-2.4499999999999993,48.650000000000006],[-2.3000000000000007,48.650000000000006],[-2.25,48.55000000000001],[-2.1999999999999993,48.55000000000001],[-2.1999999999999993,48.60000000000001],[-2.0500000000000007,48.60000000000001],[-2.0500000000000007,48.650000000000006],[-1.8499999999999996,48.650000000000006],[-1.8499999999999996,48.60000000000001],[-1.4000000000000004,48.60000000000001],[-1.4000000000000004,48.70000000000001],[-1.5999999999999996,48.75000000000001],[-1.5999999999999996,48.900000000000006],[-1.5500000000000007,48.900000000000006],[-1.5500000000000007,49.00000000000001],[-1.5999999999999996,49.00000000000001],[-1.5999999999999996,49.25000000000001],[-1.6500000000000004,49.25000000000001],[-1.6500000000000004,49.30000000000001],[-1.75,49.35000000000001],[-1.75,49.400000000000006],[-1.8000000000000007,49.400000000000006],[-1.8000000000000007,49.650000000000006],[-1.3499999999999996,49.650000000000006],[-1.3499999999999996,49.50000000000001],[-1.25,49.50000000000001],[-1.25,49.45000000000001],[-1.1999999999999993,49.45000000000001],[-1.1999999999999993,49.35000000000001],[-0.4499999999999993,49.35000000000001],[-0.4499999999999993,49.30000000000001],[-0.34999999999999964,49.30000000000001],[-0.34999999999999964,49.25000000000001],[-0.09999999999999964,49.25000000000001],[-0.09999999999999964,49.30000000000001],[0.05000000000000071,49.30000000000001],[0.09999999999999964,49.400000000000006],[0.25,49.400000000000006],[0.25,49.45000000000001],[0.15000000000000036,49.45000000000001],[0.15000000000000036,49.650000000000006],[0.1999999999999993,49.650000000000006],[0.1999999999999993,49.70000000000001],[0.34999999999999964,49.70000000000001],[0.34999999999999964,49.75000000000001],[0.4499999999999993,49.75000000000001],[0.4499999999999993,49.80000000000001],[0.5500000000000007,49.80000000000001],[0.5500000000000007,49.85000000000001],[0.8499999999999996,49.85000000000001],[0.8499999999999996,49.900000000000006],[1.0999999999999996,49.900000000000006],[1.0999999999999996,49.95000000000001],[1.25,49.95000000000001],[1.25,50.00000000000001],[1.3499999999999996,50.00000000000001],[1.3499999999999996,50.05000000000001],[1.4499999999999993,50.05000000000001],[1.5,50.150000000000006],[1.6500000000000004,50.150000000000006],[1.6500000000000004,50.25000000000001],[1.5500000000000007,50.25000000000001],[1.5500000000000007,50.50000000000001],[1.5999999999999996,50.50000000000001],[1.5999999999999996,50.85000000000001],[1.6999999999999993,50.85000000000001],[1.75,50.95000000000001],[2.0500000000000007,50.95000000000001],[2.0500000000000007,51.00000000000001],[2.25,51.00000000000001],[2.25,51.05000000000001],[2.5500000000000007,51.05000000000001],[2.5500000000000007,51.10000000000001],[2.6999999999999993,51.10000000000001],[2.6999999999999993,51.150000000000006],[2.8000000000000007,51.150000000000006],[2.8000000000000007,51.20000000000001],[3.1000000000000014,51.25000000000001],[3.1000000000000014,51.30000000000001],[3.1999999999999993,51.30000000000001],[3.1999999999999993,51.35000000000001],[3.8000000000000007,51.35000000000001],[3.8000000000000007,51.30000000000001],[3.8500000000000014,51.30000000000001],[3.8500000000000014,51.35000000000001],[4.149999999999999,51.35000000000001],[4.149999999999999,51.30000000000001],[4.199999999999999,51.30000000000001],[4.199999999999999,51.35000000000001],[4.25,51.35000000000001],[4.25,51.50000000000001],[4.199999999999999,51.50000000000001],[4.199999999999999,51.55000000000001],[4.100000000000001,51.55000000000001],[4.100000000000001,51.650000000000006],[3.8999999999999986,51.650000000000006],[3.8999999999999986,51.80000000000001],[4.050000000000001,51.80000000000001],[4.050000000000001,51.85000000000001],[4.100000000000001,51.85000000000001],[4.100000000000001,51.95000000000001],[4.199999999999999,52.00000000000001],[4.199999999999999,52.05000000000001],[4.25,52.05000000000001],[4.25,52.10000000000001],[4.350000000000001,52.10000000000001],[4.399999999999999,52.20000000000001],[4.5,52.25000000000001],[4.5,52.35000000000001],[4.550000000000001,52.35000000000001],[4.550000000000001,52.45000000000001],[4.600000000000001,52.45000000000001],[4.600000000000001,52.55000000000001],[4.649999999999999,52.55000000000001],[4.649999999999999,52.75000000000001],[4.699999999999999,52.75000000000001],[4.699999999999999,52.900000000000006],[4.850000000000001,52.900000000000006],[4.850000000000001,52.85000000000001],[4.899999999999999,52.85000000000001],[4.899999999999999,52.900000000000006],[5.050000000000001,52.900000000000006],[5.050000000000001,52.95000000000001],[5.199999999999999,52.95000000000001],[5.25,53.05000000000001],[5.399999999999999,53.05000000000001],[5.399999999999999,53.20000000000001],[5.600000000000001,53.25000000000001],[5.600000000000001,53.30000000000001],[5.699999999999999,53.30000000000001],[5.699999999999999,53.35000000000001],[5.949999999999999,53.35000000000001],[5.949999999999999,53.400000000000006],[6.650000000000002,53.400000000000006],[6.650000000000002,53.45000000000001],[6.850000000000001,53.45000000000001],[6.850000000000001,53.400000000000006],[6.900000000000002,53.400000000000006],[6.900000000000002,53.30000000000001],[7.050000000000001,53.30000000000001],[7.050000000000001,53.25000000000001],[7.150000000000002,53.25000000000001],[7.150000000000002,53.20000000000001],[7.199999999999999,53.20000000000001],[7.199999999999999,53.25000000000001],[7.25,53.25000000000001],[7.25,53.35000000000001],[7.050000000000001,53.35000000000001],[7.050000000000001,53.50000000000001],[7.100000000000001,53.50000000000001],[7.100000000000001,53.60000000000001],[7.199999999999999,53.60000000000001],[7.199999999999999,53.650000000000006],[7.650000000000002,53.650000000000006],[7.650000000000002,53.70000000000001],[8.0,53.70000000000001],[8.0,53.650000000000006],[8.05,53.650000000000006],[8.05,53.45000000000001],[8.150000000000002,53.45000000000001],[8.150000000000002,53.400000000000006],[8.3,53.400000000000006],[8.3,53.45000000000001],[8.350000000000001,53.45000000000001],[8.350000000000001,53.55000000000001],[8.55,53.55000000000001],[8.55,53.85000000000001],[8.75,53.85000000000001],[8.75,53.80000000000001],[9.150000000000002,53.85000000000001],[9.150000000000002,53.900000000000006],[8.95,53.900000000000006],[8.95,54.05000000000001],[9.0,54.05000000000001],[9.0,54.10000000000001],[8.95,54.10000000000001],[8.95,54.150000000000006],[8.850000000000001,54.150000000000006],[8.850000000000001,54.400000000000006],[8.95,54.400000000000006],[8.95,54.45000000000001],[9.05,54.45000000000001],[9.05,54.50000000000001],[8.900000000000002,54.50000000000001],[8.900000000000002,54.60000000000001],[8.850000000000001,54.60000000000001],[8.8,54.70000000000001],[8.75,54.70000000000001],[8.7,54.80000000000001],[8.650000000000002,54.80000000000001],[8.650000000000002,55.10000000000001],[8.7,55.10000000000001],[8.7,55.25000000000001],[8.650000000000002,55.25000000000001],[8.650000000000002,55.45000000000001],[8.45,55.45000000000001],[8.45,55.50000000000001],[8.350000000000001,55.50000000000001],[8.350000000000001,55.60000000000001],[8.2,55.60000000000001],[8.2,55.95000000000001],[8.100000000000001,56.00000000000001],[8.100000000000001,56.20000000000001],[8.150000000000002,56.20000000000001],[8.150000000000002,56.60000000000001],[8.3,56.60000000000001],[8.3,56.55000000000001],[8.55,56.55000000000001],[8.55,56.60000000000001],[8.45,56.650000000000006],[8.45,56.70000000000001],[8.350000000000001,56.70000000000001],[8.350000000000001,56.95000000000001],[8.45,56.95000000000001],[8.45,57.00000000000001],[8.5,57.00000000000001],[8.55,57.10000000000001],[9.3,57.10000000000001],[9.3,57.150000000000006],[9.45,57.150000000000006],[9.45,57.20000000000001],[9.650000000000002,57.25000000000001],[9.650000000000002,57.35000000000001],[9.75,57.35000000000001],[9.8,57.45000000000001],[9.900000000000002,57.50000000000001],[9.900000000000002,57.55000000000001],[10.2,57.55000000000001],[10.2,57.60000000000001],[10.45,57.60000000000001],[10.45,57.50000000000001],[10.5,57.50000000000001],[10.5,57.25000000000001],[12.150000000000002,57.25000000000001],[12.150000000000002,57.30000000000001],[12.2,57.30000000000001],[12.2,57.35000000000001],[12.100000000000001,57.35000000000001],[12.100000000000001,57.45000000000001],[11.95,57.45000000000001],[11.900000000000002,57.650000000000006],[11.8,57.70000000000001],[11.8,57.80000000000001],[11.75,57.80000000000001],[11.75,57.95000000000001],[11.8,57.95000000000001],[11.8,58.00000000000001],[11.5,58.00000000000001],[11.5,58.10000000000001],[11.45,58.10000000000001],[11.45,58.25000000000001],[11.5,58.25000000000001],[11.5,58.30000000000001],[11.3,58.35000000000001],[11.3,58.50000000000001],[11.25,58.50000000000001],[11.25,58.650000000000006],[11.2,58.650000000000006],[11.2,58.85000000000001],[11.150000000000002,58.85000000000001],[11.2,59.150000000000006],[10.900000000000002,59.150000000000006],[10.900000000000002,59.20000000000001],[10.8,59.20000000000001],[10.8,59.25000000000001],[10.75,59.25000000000001],[10.75,59.35000000000001],[10.650000000000002,59.35000000000001],[10.650000000000002,59.50000000000001],[10.7,59.50000000000001],[10.650000000000002,59.60000000000001],[10.600000000000001,59.60000000000001],[10.600000000000001,59.55000000000001],[10.3,59.55000000000001],[10.3,59.45000000000001],[10.45,59.45000000000001],[10.45,59.10000000000001],[10.2,59.10000000000001],[10.150000000000002,59.00000000000001],[9.650000000000002,59.00000000000001],[9.650000000000002,58.95000000000001],[9.55,58.95000000000001],[9.5,58.85000000000001],[9.400000000000002,58.85000000000001],[9.350000000000001,58.75000000000001],[9.2,58.75000000000001],[9.2,58.650000000000006],[9.100000000000001,58.650000000000006],[9.100000000000001,58.60000000000001],[8.900000000000002,58.55000000000001],[8.900000000000002,58.45000000000001],[8.75,58.45000000000001],[8.75,58.400000000000006],[8.650000000000002,58.400000000000006],[8.600000000000001,58.30000000000001],[8.5,58.30000000000001],[8.5,58.25000000000001],[8.400000000000002,58.25000000000001],[8.400000000000002,58.20000000000001],[8.3,58.20000000000001],[8.3,58.150000000000006],[8.0,58.150000000000006],[8.0,58.10000000000001],[7.850000000000001,58.10000000000001],[7.850000000000001,58.05000000000001],[7.650000000000002,58.05000000000001],[7.650000000000002,58.00000000000001],[7.350000000000001,58.00000000000001],[7.350000000000001,58.05000000000001],[6.900000000000002,58.05000000000001],[6.900000000000002,58.10000000000001],[6.699999999999999,58.10000000000001],[6.699999999999999,58.25000000000001],[6.5,58.25000000000001],[6.5,58.30000000000001],[6.25,58.30000000000001],[6.25,58.35000000000001],[6.100000000000001,58.35000000000001],[6.050000000000001,58.45000000000001],[5.850000000000001,58.45000000000001],[5.800000000000001,58.55000000000001],[5.649999999999999,58.55000000000001],[5.600000000000001,58.650000000000006],[5.550000000000001,58.650000000000006],[5.550000000000001,58.85000000000001],[5.600000000000001,58.85000000000001],[5.600000000000001,58.95000000000001],[5.75,58.95000000000001],[5.75,58.900000000000006],[5.800000000000001,58.900000000000006],[5.800000000000001,58.95000000000001],[6.050000000000001,58.95000000000001],[6.050000000000001,59.05000000000001],[5.949999999999999,59.05000000000001],[5.949999999999999,59.20000000000001],[6.199999999999999,59.20000000000001],[6.199999999999999,59.30000000000001],[6.150000000000002,59.30000000000001],[6.150000000000002,59.35000000000001],[6.050000000000001,59.35000000000001],[6.050000000000001,59.400000000000006],[5.899999999999999,59.400000000000006],[5.899999999999999,59.35000000000001],[5.600000000000001,59.35000000000001],[5.600000000000001,59.30000000000001],[5.25,59.30000000000001],[5.25,59.55000000000001],[5.300000000000001,59.55000000000001],[5.300000000000001,59.60000000000001],[5.399999999999999,59.60000000000001],[5.399999999999999,59.650000000000006],[5.800000000000001,59.650000000000006],[5.800000000000001,59.70000000000001],[5.949999999999999,59.70000000000001],[5.949999999999999,59.80000000000001],[5.850000000000001,59.80000000000001],[5.850000000000001,59.95000000000001],[6.0,59.95000000000001],[6.050000000000001,60.05000000000001],[6.150000000000002,60.05000000000001],[6.150000000000002,60.10000000000001],[6.199999999999999,60.10000000000001],[6.199999999999999,60.30000000000001],[6.0,60.30000000000001],[6.0,60.25000000000001],[5.949999999999999,60.25000000000001],[5.949999999999999,60.150000000000006],[5.899999999999999,60.150000000000006],[5.899999999999999,60.00000000000001],[5.75,60.00000000000001],[5.75,60.150000000000006],[5.699999999999999,60.150000000000006],[5.699999999999999,60.25000000000001],[5.5,60.25000000000001],[5.5,60.20000000000001],[5.350000000000001,60.20000000000001],[5.350000000000001,60.25000000000001],[5.149999999999999,60.25000000000001],[5.149999999999999,60.20000000000001],[5.0,60.20000000000001],[5.0,60.25000000000001],[4.949999999999999,60.25000000000001],[4.949999999999999,60.400000000000006],[5.149999999999999,60.400000000000006],[5.149999999999999,60.45000000000001],[5.050000000000001,60.50000000000001],[5.050000000000001,60.75000000000001],[5.300000000000001,60.75000000000001],[5.25,60.85000000000001],[5.100000000000001,60.85000000000001],[5.100000000000001,60.900000000000006],[5.050000000000001,60.900000000000006],[5.050000000000001,61.05000000000001],[5.350000000000001,61.05000000000001],[5.350000000000001,61.00000000000001],[5.5,61.00000000000001],[5.5,61.05000000000001],[5.699999999999999,61.05000000000001],[5.699999999999999,61.10000000000001],[6.300000000000001,61.10000000000001],[6.300000000000001,61.05000000000001],[6.550000000000001,61.05000000000001],[6.550000000000001,61.10000000000001],[6.900000000000002,61.10000000000001],[6.900000000000002,61.05000000000001],[7.050000000000001,61.05000000000001],[7.050000000000001,61.150000000000006],[6.900000000000002,61.150000000000006],[6.900000000000002,61.20000000000001],[6.650000000000002,61.20000000000001],[6.650000000000002,61.25000000000001],[6.5,61.25000000000001],[6.5,61.150000000000006],[6.199999999999999,61.150000000000006],[6.199999999999999,61.20000000000001],[5.75,61.20000000000001],[5.75,61.150000000000006],[5.350000000000001,61.10000000000001],[5.350000000000001,61.150000000000006],[5.25,61.150000000000006],[5.25,61.25000000000001],[5.199999999999999,61.25000000000001],[5.199999999999999,61.45000000000001],[5.399999999999999,61.45000000000001],[5.399999999999999,61.50000000000001],[5.199999999999999,61.50000000000001],[5.199999999999999,61.55000000000001],[5.100000000000001,61.55000000000001],[5.100000000000001,61.60000000000001],[5.050000000000001,61.60000000000001],[5.050000000000001,61.75000000000001],[5.149999999999999,61.75000000000001],[5.149999999999999,61.95000000000001],[5.300000000000001,61.95000000000001],[5.350000000000001,62.05000000000001],[5.550000000000001,62.05000000000001],[5.550000000000001,62.150000000000006],[5.949999999999999,62.150000000000006],[5.949999999999999,62.10000000000001],[6.050000000000001,62.10000000000001],[6.050000000000001,62.25000000000001],[6.100000000000001,62.25000000000001],[6.100000000000001,62.30000000000001],[6.199999999999999,62.30000000000001],[6.199999999999999,62.35000000000001],[6.350000000000001,62.35000000000001],[6.350000000000001,62.30000000000001],[6.400000000000002,62.30000000000001],[6.400000000000002,62.35000000000001],[6.550000000000001,62.35000000000001],[6.550000000000001,62.400000000000006],[6.850000000000001,62.400000000000006],[6.850000000000001,62.45000000000001],[6.800000000000001,62.45000000000001],[6.800000000000001,62.60000000000001],[7.5,62.60000000000001],[7.5,62.650000000000006],[7.550000000000001,62.650000000000006],[7.550000000000001,62.70000000000001],[7.400000000000002,62.70000000000001],[7.400000000000002,62.75000000000001],[-13.05,62.75000000000001]],[[6.300000000000001,62.60000000000001],[6.650000000000002,62.60000000000001],[6.650000000000002,62.45000000000001],[6.300000000000001,62.45000000000001],[6.300000000000001,62.60000000000001]],[[-7.2,62.30000000000001],[-6.95,62.30000000000001],[-6.95,62.25000000000001],[-6.9,62.25000000000001],[-6.9,62.10000000000001],[-7.050000000000001,62.10000000000001],[-7.050000000000001,62.150000000000006],[-7.1000000000000005,62.150000000000006],[-7.1000000000000005,62.05000000000001],[-7.25,62.05000000000001],[-7.25,62.25000000000001],[-7.2,62.25000000000001],[-7.2,62.30000000000001]],[[-1.1500000000000004,60.70000000000001],[-1.0,60.70000000000001],[-1.0,60.55000000000001],[-1.1500000000000004,60.55000000000001],[-1.1500000000000004,60.70000000000001]],[[-1.4000000000000004,60.45000000000001],[-1.1999999999999993,60.45000000000001],[-1.1999999999999993,60.25000000000001],[-1.4000000000000004,60.25000000000001],[-1.4000000000000004,60.45000000000001]],[[5.399999999999999,60.05000000000001],[5.600000000000001,60.05000000000001],[5.600000000000001,59.85000000000001],[5.5,59.85000000000001],[5.5,59.75000000000001],[5.100000000000001,59.75000000000001],[5.100000000000001,59.900000000000006],[5.399999999999999,59.95000000000001],[5.399999999999999,60.05000000000001]],[[-5.0,58.60000000000001],[-4.85,58.60000000000001],[-4.85,58.55000000000001],[-4.65,58.55000000000001],[-4.65,58.50000000000001],[-4.6,58.50000000000001],[-4.6,58.55000000000001],[-4.450000000000001,58.55000000000001],[-4.450000000000001,58.50000000000001],[-4.200000000000001,58.50000000000001],[-4.200000000000001,58.55000000000001],[-3.75,58.55000000000001],[-3.75,58.60000000000001],[-3.0999999999999996,58.60000000000001],[-3.0999999999999996,58.400000000000006],[-3.1500000000000004,58.400000000000006],[-3.1999999999999993,58.30000000000001],[-3.4000000000000004,58.30000000000001],[-3.4000000000000004,58.25000000000001],[-3.5,58.25000000000001],[-3.5500000000000007,58.150000000000006],[-3.700000000000001,58.150000000000006],[-3.700000000000001,58.10000000000001],[-3.8000000000000007,58.10000000000001],[-3.8000000000000007,58.05000000000001],[-3.8499999999999996,58.05000000000001],[-3.8499999999999996,58.00000000000001],[-4.0,58.00000000000001],[-4.0,57.900000000000006],[-4.200000000000001,57.900000000000006],[-4.200000000000001,57.55000000000001],[-4.25,57.55000000000001],[-4.25,57.45000000000001],[-4.15,57.45000000000001],[-4.1,57.55000000000001],[-3.8499999999999996,57.55000000000001],[-3.8499999999999996,57.60000000000001],[-3.75,57.60000000000001],[-3.75,57.650000000000006],[-3.4499999999999993,57.650000000000006],[-3.4499999999999993,57.70000000000001],[-3.1999999999999993,57.70000000000001],[-3.1999999999999993,57.650000000000006],[-2.9000000000000004,57.650000000000006],[-2.9000000000000004,57.70000000000001],[-2.75,57.70000000000001],[-2.75,57.650000000000006],[-2.1500000000000004,57.650000000000006],[-2.1500000000000004,57.70000000000001],[-2.0,57.70000000000001],[-2.0,57.650000000000006],[-1.9000000000000004,57.650000000000006],[-1.9000000000000004,57.60000000000001],[-1.8499999999999996,57.60000000000001],[-1.8499999999999996,57.400000000000006],[-1.9499999999999993,57.400000000000006],[-1.9499999999999993,57.35000000000001],[-2.0500000000000007,57.30000000000001],[-2.0500000000000007,57.25000000000001],[-2.0999999999999996,57.25000000000001],[-2.0999999999999996,57.05000000000001],[-2.1999999999999993,57.05000000000001],[-2.1999999999999993,56.900000000000006],[-2.4000000000000004,56.80000000000001],[-2.4000000000000004,56.75000000000001],[-2.5,56.70000000000001],[-2.5,56.60000000000001],[-2.5500000000000007,56.60000000000001],[-2.5500000000000007,56.55000000000001],[-2.6500000000000004,56.55000000000001],[-2.6500000000000004,56.50000000000001],[-2.9499999999999993,56.50000000000001],[-2.9499999999999993,56.45000000000001],[-3.1999999999999993,56.45000000000001],[-3.1999999999999993,56.35000000000001],[-3.0999999999999996,56.35000000000001],[-3.0999999999999996,56.400000000000006],[-2.8499999999999996,56.400000000000006],[-2.8499999999999996,56.25000000000001],[-3.0,56.25000000000001],[-3.0500000000000007,56.150000000000006],[-3.1999999999999993,56.150000000000006],[-3.25,56.05000000000001],[-3.700000000000001,56.05000000000001],[-3.700000000000001,56.00000000000001],[-3.5,56.00000000000001],[-3.5,55.95000000000001],[-3.0999999999999996,55.95000000000001],[-3.0999999999999996,55.900000000000006],[-3.0500000000000007,55.900000000000006],[-3.0500000000000007,55.95000000000001],[-2.9000000000000004,55.95000000000001],[-2.8499999999999996,56.05000000000001],[-2.6500000000000004,56.05000000000001],[-2.6500000000000004,56.00000000000001],[-2.5500000000000007,56.00000000000001],[-2.5500000000000007,55.95000000000001],[-2.4000000000000004,55.95000000000001],[-2.4000000000000004,55.900000000000006],[-2.0999999999999996,55.900000000000006],[-2.0999999999999996,55.80000000000001],[-2.0,55.80000000000001],[-2.0,55.75000000000001],[-1.9000000000000004,55.70000000000001],[-1.8499999999999996,55.60000000000001],[-1.6999999999999993,55.60000000000001],[-1.6999999999999993,55.55000000000001],[-1.6500000000000004,55.55000000000001],[-1.6500000000000004,55.45000000000001],[-1.5999999999999996,55.45000000000001],[-1.5999999999999996,55.25000000000001],[-1.5,55.20000000000001],[-1.5,55.05000000000001],[-1.4499999999999993,55.05000000000001],[-1.4499999999999993,55.00000000000001],[-1.4000000000000004,55.00000000000001],[-1.4000000000000004,54.900000000000006],[-1.3499999999999996,54.900000000000006],[-1.3499999999999996,54.75000000000001],[-1.25,54.75000000000001],[-1.25,54.70000000000001],[-1.1999999999999993,54.70000000000001],[-1.1999999999999993,54.60000000000001],[-0.8000000000000007,54.55000000000001],[-0.8000000000000007,54.50000000000001],[-0.6500000000000004,54.50000000000001],[-0.6500000000000004,54.45000000000001],[-0.5500000000000007,54.45000000000001],[-0.5,54.35000000000001],[-0.40000000000000036,54.35000000000001],[-0.40000000000000036,54.25000000000001],[-0.3000000000000007,54.20000000000001],[-0.3000000000000007,54.150000000000006],[-0.25,54.150000000000006],[-0.25,54.00000000000001],[-0.1999999999999993,54.00000000000001],[-0.1999999999999993,53.900000000000006],[-0.15000000000000036,53.900000000000006],[-0.15000000000000036,53.75000000000001],[-0.40000000000000036,53.75000000000001],[-0.40000000000000036,53.70000000000001],[-0.25,53.70000000000001],[-0.25,53.60000000000001],[-0.09999999999999964,53.60000000000001],[-0.09999999999999964,53.55000000000001],[0.0,53.55000000000001],[0.05000000000000071,53.45000000000001],[0.1999999999999993,53.45000000000001],[0.1999999999999993,53.35000000000001],[0.25,53.35000000000001],[0.3000000000000007,53.25000000000001],[0.34999999999999964,53.25000000000001],[0.34999999999999964,53.10000000000001],[0.15000000000000036,53.05000000000001],[0.15000000000000036,53.00000000000001],[0.05000000000000071,52.95000000000001],[0.05000000000000071,52.85000000000001],[0.1999999999999993,52.85000000000001],[0.1999999999999993,52.80000000000001],[0.4499999999999993,52.80000000000001],[0.4499999999999993,52.900000000000006],[0.5,52.900000000000006],[0.5,52.95000000000001],[1.1500000000000004,52.95000000000001],[1.1500000000000004,52.900000000000006],[1.4000000000000004,52.900000000000006],[1.4000000000000004,52.85000000000001],[1.5999999999999996,52.80000000000001],[1.5999999999999996,52.75000000000001],[1.6999999999999993,52.70000000000001],[1.6999999999999993,52.650000000000006],[1.75,52.650000000000006],[1.75,52.45000000000001],[1.6999999999999993,52.45000000000001],[1.6999999999999993,52.35000000000001],[1.5999999999999996,52.30000000000001],[1.5999999999999996,52.10000000000001],[1.4499999999999993,52.10000000000001],[1.4499999999999993,52.00000000000001],[1.25,52.00000000000001],[1.1999999999999993,51.80000000000001],[1.0500000000000007,51.80000000000001],[1.0500000000000007,51.85000000000001],[1.0,51.85000000000001],[1.0,51.80000000000001],[0.8499999999999996,51.80000000000001],[0.8499999999999996,51.75000000000001],[0.75,51.75000000000001],[0.75,51.70000000000001],[0.8499999999999996,51.70000000000001],[0.8499999999999996,51.55000000000001],[0.5,51.55000000000001],[0.5,51.45000000000001],[0.5999999999999996,51.45000000000001],[0.5999999999999996,51.35000000000001],[0.6999999999999993,51.35000000000001],[0.6999999999999993,51.400000000000006],[0.9000000000000004,51.400000000000006],[0.9000000000000004,51.35000000000001],[1.3499999999999996,51.35000000000001],[1.3499999999999996,51.150000000000006],[1.3000000000000007,51.150000000000006],[1.3000000000000007,51.10000000000001],[1.0500000000000007,51.10000000000001],[1.0500000000000007,51.05000000000001],[1.0,51.05000000000001],[0.9499999999999993,50.95000000000001],[0.6999999999999993,50.95000000000001],[0.6999999999999993,50.900000000000006],[0.5500000000000007,50.900000000000006],[0.5500000000000007,50.85000000000001],[0.34999999999999964,50.85000000000001],[0.34999999999999964,50.80000000000001],[-0.09999999999999964,50.80000000000001],[-0.09999999999999964,50.85000000000001],[-0.34999999999999964,50.85000000000001],[-0.34999999999999964,50.80000000000001],[-0.9499999999999993,50.80000000000001],[-0.9499999999999993,50.85000000000001],[-1.3000000000000007,50.85000000000001],[-1.3000000000000007,50.900000000000006],[-1.4000000000000004,50.900000000000006],[-1.4000000000000004,50.80000000000001],[-1.4499999999999993,50.80000000000001],[-1.4499999999999993,50.75000000000001],[-1.9499999999999993,50.75000000000001],[-1.9499999999999993,50.60000000000001],[-2.1500000000000004,50.60000000000001],[-2.1500000000000004,50.650000000000006],[-2.5999999999999996,50.650000000000006],[-2.5999999999999996,50.70000000000001],[-2.75,50.70000000000001],[-2.75,50.75000000000001],[-3.0,50.75000000000001],[-3.0,50.70000000000001],[-3.25,50.70000000000001],[-3.25,50.650000000000006],[-3.5,50.650000000000006],[-3.5500000000000007,50.35000000000001],[-3.6500000000000004,50.35000000000001],[-3.6500000000000004,50.25000000000001],[-4.050000000000001,50.30000000000001],[-4.050000000000001,50.35000000000001],[-4.15,50.35000000000001],[-4.15,50.400000000000006],[-4.450000000000001,50.400000000000006],[-4.450000000000001,50.35000000000001],[-4.800000000000001,50.35000000000001],[-4.800000000000001,50.25000000000001],[-4.950000000000001,50.25000000000001],[-4.950000000000001,50.150000000000006],[-5.1000000000000005,50.150000000000006],[-5.1000000000000005,50.00000000000001],[-5.300000000000001,50.00000000000001],[-5.300000000000001,50.25000000000001],[-5.2,50.25000000000001],[-5.2,50.30000000000001],[-5.15,50.30000000000001],[-5.15,50.400000000000006],[-5.050000000000001,50.400000000000006],[-5.050000000000001,50.50000000000001],[-5.0,50.50000000000001],[-5.0,50.55000000000001],[-4.85,50.55000000000001],[-4.85,50.60000000000001],[-4.75,50.60000000000001],[-4.75,50.650000000000006],[-4.700000000000001,50.650000000000006],[-4.65,50.75000000000001],[-4.550000000000001,50.75000000000001],[-4.550000000000001,50.95000000000001],[-4.300000000000001,50.95000000000001],[-4.25,51.05000000000001],[-4.200000000000001,51.05000000000001],[-4.200000000000001,51.20000000000001],[-3.4000000000000004,51.20000000000001],[-3.4000000000000004,51.150000000000006],[-3.25,51.150000000000006],[-3.25,51.20000000000001],[-3.0,51.20000000000001],[-2.9499999999999993,51.400000000000006],[-2.8499999999999996,51.400000000000006],[-2.8499999999999996,51.45000000000001],[-2.6500000000000004,51.50000000000001],[-2.6500000000000004,51.55000000000001],[-2.5500000000000007,51.60000000000001],[-2.5500000000000007,51.70000000000001],[-2.6500000000000004,51.70000000000001],[-2.6999999999999993,51.60000000000001],[-2.8499999999999996,51.60000000000001],[-2.8499999999999996,51.55000000000001],[-3.0500000000000007,51.55000000000001],[-3.0500000000000007,51.50000000000001],[-3.1500000000000004,51.50000000000001],[-3.1500000000000004,51.45000000000001],[-3.1999999999999993,51.45000000000001],[-3.1999999999999993,51.400000000000006],[-3.5500000000000007,51.400000000000006],[-3.5500000000000007,51.45000000000001],[-3.75,51.50000000000001],[-3.75,51.60000000000001],[-3.8000000000000007,51.60000000000001],[-3.8000000000000007,51.650000000000006],[-3.950000000000001,51.650000000000006],[-3.950000000000001,51.60000000000001],[-4.15,51.60000000000001],[-4.15,51.70000000000001],[-4.35,51.70000000000001],[-4.35,51.80000000000001],[-4.450000000000001,51.80000000000001],[-4.450000000000001,51.75000000000001],[-4.700000000000001,51.75000000000001],[-4.700000000000001,51.650000000000006],[-5.050000000000001,51.650000000000006],[-5.050000000000001,51.75000000000001],[-5.1000000000000005,51.75000000000001],[-5.1000000000000005,51.95000000000001],[-5.050000000000001,51.95000000000001],[-5.050000000000001,52.00000000000001],[-4.85,52.00000000000001],[-4.85,52.05000000000001],[-4.75,52.05000000000001],[-4.75,52.10000000000001],[-4.5,52.10000000000001],[-4.5,52.150000000000006],[-4.4,52.150000000000006],[-4.4,52.20000000000001],[-4.25,52.20000000000001],[-4.25,52.25000000000001],[-4.15,52.25000000000001],[-4.15,52.35000000000001],[-4.050000000000001,52.400000000000006],[-4.050000000000001,52.80000000000001],[-4.1,52.80000000000001],[-4.1,52.95000000000001],[-4.35,52.95000000000001],[-4.35,53.10000000000001],[-4.300000000000001,53.10000000000001],[-4.300000000000001,53.150000000000006],[-4.450000000000001,53.150000000000006],[-4.450000000000001,53.20000000000001],[-4.550000000000001,53.25000000000001],[-4.550000000000001,53.400000000000006],[-4.25,53.400000000000006],[-4.25,53.30000000000001],[-4.15,53.30000000000001],[-4.15,53.20000000000001],[-3.8499999999999996,53.25000000000001],[-3.8499999999999996,53.30000000000001],[-3.700000000000001,53.30000000000001],[-3.700000000000001,53.25000000000001],[-3.5500000000000007,53.25000000000001],[-3.5500000000000007,53.30000000000001],[-3.25,53.30000000000001],[-3.25,53.25000000000001],[-3.0999999999999996,53.25000000000001],[-3.0999999999999996,53.400000000000006],[-3.0,53.400000000000006],[-3.0,53.45000000000001],[-3.0500000000000007,53.45000000000001],[-3.0500000000000007,53.60000000000001],[-3.0,53.60000000000001],[-2.9499999999999993,53.70000000000001],[-2.9000000000000004,53.70000000000001],[-2.9000000000000004,53.75000000000001],[-3.0500000000000007,53.75000000000001],[-3.0500000000000007,53.900000000000006],[-2.8499999999999996,53.95000000000001],[-2.8499999999999996,54.05000000000001],[-2.8000000000000007,54.05000000000001],[-2.8000000000000007,54.20000000000001],[-3.1999999999999993,54.20000000000001],[-3.1999999999999993,54.25000000000001],[-3.4000000000000004,54.25000000000001],[-3.4000000000000004,54.30000000000001],[-3.4499999999999993,54.30000000000001],[-3.4499999999999993,54.400000000000006],[-3.5500000000000007,54.45000000000001],[-3.5500000000000007,54.650000000000006],[-3.4499999999999993,54.70000000000001],[-3.4499999999999993,54.80000000000001],[-3.4000000000000004,54.80000000000001],[-3.4000000000000004,54.85000000000001],[-3.3000000000000007,54.85000000000001],[-3.3000000000000007,54.900000000000006],[-3.0500000000000007,54.900000000000006],[-3.0500000000000007,55.00000000000001],[-3.5999999999999996,55.00000000000001],[-3.5999999999999996,54.900000000000006],[-3.8000000000000007,54.900000000000006],[-3.8499999999999996,54.80000000000001],[-4.200000000000001,54.80000000000001],[-4.200000000000001,54.85000000000001],[-4.300000000000001,54.85000000000001],[-4.300000000000001,54.900000000000006],[-4.450000000000001,54.900000000000006],[-4.450000000000001,54.75000000000001],[-4.6,54.75000000000001],[-4.6,54.80000000000001],[-4.700000000000001,54.80000000000001],[-4.700000000000001,54.85000000000001],[-4.800000000000001,54.85000000000001],[-4.800000000000001,54.900000000000006],[-4.950000000000001,54.900000000000006],[-4.950000000000001,54.95000000000001],[-5.0,54.95000000000001],[-5.0,55.10000000000001],[-4.9,55.150000000000006],[-4.85,55.25000000000001],[-4.800000000000001,55.25000000000001],[-4.800000000000001,55.35000000000001],[-4.6,55.45000000000001],[-4.6,55.50000000000001],[-4.65,55.50000000000001],[-4.65,55.60000000000001],[-4.85,55.70000000000001],[-4.85,55.80000000000001],[-4.9,55.80000000000001],[-4.9,55.95000000000001],[-4.700000000000001,55.95000000000001],[-4.700000000000001,55.900000000000006],[-4.6,55.900000000000006],[-4.65,56.00000000000001],[-4.950000000000001,56.00000000000001],[-4.950000000000001,55.900000000000006],[-5.3500000000000005,55.900000000000006],[-5.3500000000000005,56.05000000000001],[-5.4,56.05000000000001],[-5.4,56.00000000000001],[-5.45,56.00000000000001],[-5.45,55.900000000000006],[-5.4,55.900000000000006],[-5.4,55.75000000000001],[-5.5,55.70000000000001],[-5.5,55.50000000000001],[-5.550000000000001,55.50000000000001],[-5.550000000000001,55.35000000000001],[-5.7,55.35000000000001],[-5.7,55.55000000000001],[-5.65,55.55000000000001],[-5.65,55.70000000000001],[-5.6000000000000005,55.70000000000001],[-5.6000000000000005,55.900000000000006],[-5.65,55.900000000000006],[-5.65,56.05000000000001],[-5.550000000000001,56.05000000000001],[-5.550000000000001,56.25000000000001],[-5.5,56.25000000000001],[-5.5,56.400000000000006],[-5.4,56.45000000000001],[-5.4,56.55000000000001],[-5.3500000000000005,56.55000000000001],[-5.300000000000001,56.650000000000006],[-5.2,56.650000000000006],[-5.2,56.70000000000001],[-5.300000000000001,56.75000000000001],[-5.300000000000001,56.70000000000001],[-5.4,56.70000000000001],[-5.4,56.650000000000006],[-5.5,56.650000000000006],[-5.550000000000001,56.55000000000001],[-5.9,56.55000000000001],[-5.9,56.60000000000001],[-5.95,56.60000000000001],[-5.95,56.75000000000001],[-5.9,56.75000000000001],[-5.9,56.80000000000001],[-5.75,56.80000000000001],[-5.75,56.95000000000001],[-5.65,56.95000000000001],[-5.65,57.10000000000001],[-5.550000000000001,57.10000000000001],[-5.550000000000001,57.150000000000006],[-5.6000000000000005,57.150000000000006],[-5.6000000000000005,57.400000000000006],[-5.800000000000001,57.400000000000006],[-5.800000000000001,57.55000000000001],[-5.65,57.55000000000001],[-5.65,57.60000000000001],[-5.7,57.60000000000001],[-5.7,57.75000000000001],[-5.6000000000000005,57.75000000000001],[-5.6000000000000005,57.85000000000001],[-5.45,57.85000000000001],[-5.45,57.900000000000006],[-5.2,57.900000000000006],[-5.2,58.00000000000001],[-5.300000000000001,58.00000000000001],[-5.300000000000001,58.20000000000001],[-5.25,58.20000000000001],[-5.25,58.25000000000001],[-5.1000000000000005,58.25000000000001],[-5.1000000000000005,58.400000000000006],[-5.050000000000001,58.400000000000006],[-5.050000000000001,58.55000000000001],[-5.0,58.55000000000001],[-5.0,58.60000000000001]],[[-6.4,58.45000000000001],[-6.25,58.45000000000001],[-6.25,58.30000000000001],[-6.3500000000000005,58.30000000000001],[-6.3500000000000005,58.20000000000001],[-6.4,58.20000000000001],[-6.4,58.00000000000001],[-6.5,58.00000000000001],[-6.5,57.95000000000001],[-6.7,57.95000000000001],[-6.7,57.900000000000006],[-6.8500000000000005,57.900000000000006],[-6.8500000000000005,57.95000000000001],[-7.050000000000001,57.95000000000001],[-7.050000000000001,58.150000000000006],[-6.8500000000000005,58.150000000000006],[-6.8500000000000005,58.25000000000001],[-6.800000000000001,58.25000000000001],[-6.800000000000001,58.30000000000001],[-6.5,58.35000000000001],[-6.5,58.400000000000006],[-6.4,58.400000000000006],[-6.4,58.45000000000001]],[[-7.3500000000000005,57.650000000000006],[-7.15,57.650000000000006],[-7.15,57.50000000000001],[-7.2,57.50000000000001],[-7.2,57.400000000000006],[-7.3500000000000005,57.400000000000006],[-7.3500000000000005,57.650000000000006]],[[-6.3500000000000005,57.60000000000001],[-6.15,57.60000000000001],[-6.15,57.45000000000001],[-6.2,57.45000000000001],[-6.2,57.400000000000006],[-6.1000000000000005,57.35000000000001],[-6.1000000000000005,57.20000000000001],[-6.3500000000000005,57.20000000000001],[-6.3500000000000005,57.25000000000001],[-6.4,57.25000000000001],[-6.4,57.35000000000001],[-6.45,57.35000000000001],[-6.45,57.50000000000001],[-6.3500000000000005,57.50000000000001],[-6.3500000000000005,57.60000000000001]],[[-6.0,56.50000000000001],[-5.800000000000001,56.50000000000001],[-5.800000000000001,56.35000000000001],[-6.0,56.35000000000001],[-6.0,56.50000000000001]],[[-6.25,55.85000000000001],[-6.1000000000000005,55.85000000000001],[-6.1000000000000005,55.650000000000006],[-6.25,55.650000000000006],[-6.25,55.85000000000001]],[[-5.3500000000000005,55.650000000000006],[-5.15,55.650000000000006],[-5.15,55.45000000000001],[-5.300000000000001,55.45000000000001],[-5.300000000000001,55.50000000000001],[-5.3500000000000005,55.50000000000001],[-5.3500000000000005,55.650000000000006]],[[-7.3500000000000005,55.35000000000001],[-7.2,55.35000000000001],[-7.2,55.30000000000001],[-7.15,55.30000000000001],[-7.15,55.150000000000006],[-7.25,55.150000000000006],[-7.25,55.05000000000001],[-7.0,55.05000000000001],[-6.95,55.150000000000006],[-6.7,55.150000000000006],[-6.7,55.20000000000001],[-6.1000000000000005,55.20000000000001],[-6.1000000000000005,55.05000000000001],[-6.0,55.05000000000001],[-6.0,54.95000000000001],[-5.9,54.95000000000001],[-5.9,54.900000000000006],[-5.8500000000000005,54.900000000000006],[-5.8500000000000005,54.70000000000001],[-5.95,54.70000000000001],[-5.95,54.650000000000006],[-5.9,54.650000000000006],[-5.9,54.60000000000001],[-5.7,54.60000000000001],[-5.7,54.50000000000001],[-5.65,54.50000000000001],[-5.65,54.25000000000001],[-5.9,54.25000000000001],[-5.9,54.10000000000001],[-6.25,54.10000000000001],[-6.25,54.00000000000001],[-6.3500000000000005,54.00000000000001],[-6.3500000000000005,53.95000000000001],[-6.4,53.95000000000001],[-6.3500000000000005,53.85000000000001],[-6.25,53.85000000000001],[-6.25,53.60000000000001],[-6.15,53.55000000000001],[-6.15,53.400000000000006],[-6.2,53.400000000000006],[-6.2,53.30000000000001],[-6.1000000000000005,53.25000000000001],[-6.1000000000000005,53.10000000000001],[-6.050000000000001,53.10000000000001],[-6.050000000000001,52.900000000000006],[-6.15,52.85000000000001],[-6.15,52.75000000000001],[-6.2,52.75000000000001],[-6.2,52.650000000000006],[-6.25,52.650000000000006],[-6.25,52.50000000000001],[-6.3500000000000005,52.45000000000001],[-6.3500000000000005,52.400000000000006],[-6.45,52.400000000000006],[-6.45,52.35000000000001],[-6.5,52.35000000000001],[-6.5,52.20000000000001],[-6.65,52.20000000000001],[-6.65,52.25000000000001],[-7.0,52.25000000000001],[-7.0,52.20000000000001],[-7.15,52.20000000000001],[-7.15,52.150000000000006],[-7.5,52.150000000000006],[-7.5,52.10000000000001],[-7.65,52.10000000000001],[-7.65,52.00000000000001],[-7.7,52.00000000000001],[-7.7,51.95000000000001],[-7.9,51.95000000000001],[-7.9,51.900000000000006],[-8.0,51.900000000000006],[-8.05,51.80000000000001],[-8.2,51.80000000000001],[-8.2,51.85000000000001],[-8.3,51.85000000000001],[-8.3,51.75000000000001],[-8.4,51.75000000000001],[-8.4,51.70000000000001],[-8.55,51.70000000000001],[-8.55,51.650000000000006],[-8.7,51.650000000000006],[-8.7,51.60000000000001],[-9.0,51.60000000000001],[-9.0,51.55000000000001],[-9.200000000000001,51.55000000000001],[-9.200000000000001,51.50000000000001],[-9.450000000000001,51.50000000000001],[-9.450000000000001,51.55000000000001],[-9.5,51.55000000000001],[-9.5,51.75000000000001],[-9.600000000000001,51.75000000000001],[-9.600000000000001,51.70000000000001],[-9.75,51.70000000000001],[-9.75,51.85000000000001],[-9.850000000000001,51.85000000000001],[-9.850000000000001,51.80000000000001],[-10.15,51.80000000000001],[-10.15,51.85000000000001],[-10.200000000000001,51.85000000000001],[-10.200000000000001,52.00000000000001],[-10.0,52.00000000000001],[-10.0,52.05000000000001],[-9.8,52.10000000000001],[-9.8,52.400000000000006],[-9.75,52.400000000000006],[-9.75,52.45000000000001],[-9.65,52.45000000000001],[-9.65,52.55000000000001],[-9.350000000000001,52.55000000000001],[-9.350000000000001,52.60000000000001],[-9.3,52.60000000000001],[-9.3,52.650000000000006],[-9.5,52.650000000000006],[-9.5,52.80000000000001],[-9.450000000000001,52.80000000000001],[-9.450000000000001,52.900000000000006],[-9.350000000000001,52.900000000000006],[-9.350000000000001,53.05000000000001],[-9.3,53.05000000000001],[-9.3,53.10000000000001],[-9.15,53.10000000000001],[-9.15,53.150000000000006],[-8.95,53.150000000000006],[-8.95,53.20000000000001],[-8.9,53.20000000000001],[-8.95,53.30000000000001],[-9.100000000000001,53.30000000000001],[-9.100000000000001,53.25000000000001],[-9.65,53.25000000000001],[-9.65,53.400000000000006],[-9.700000000000001,53.400000000000006],[-9.700000000000001,53.35000000000001],[-9.850000000000001,53.35000000000001],[-9.850000000000001,53.400000000000006],[-10.05,53.400000000000006],[-10.05,53.60000000000001],[-9.9,53.60000000000001],[-9.9,53.75000000000001],[-9.600000000000001,53.75000000000001],[-9.600000000000001,53.900000000000006],[-9.850000000000001,53.900000000000006],[-9.850000000000001,54.00000000000001],[-9.9,54.00000000000001],[-9.9,54.25000000000001],[-9.8,54.25000000000001],[-9.8,54.30000000000001],[-9.25,54.30000000000001],[-9.200000000000001,54.20000000000001],[-9.05,54.20000000000001],[-9.05,54.25000000000001],[-8.600000000000001,54.25000000000001],[-8.600000000000001,54.30000000000001],[-8.55,54.30000000000001],[-8.55,54.400000000000006],[-8.45,54.400000000000006],[-8.45,54.45000000000001],[-8.25,54.45000000000001],[-8.25,54.55000000000001],[-8.15,54.55000000000001],[-8.15,54.650000000000006],[-8.5,54.650000000000006],[-8.5,54.85000000000001],[-8.350000000000001,54.85000000000001],[-8.350000000000001,55.05000000000001],[-8.3,55.05000000000001],[-8.3,55.10000000000001],[-8.15,55.10000000000001],[-8.15,55.150000000000006],[-7.800000000000001,55.150000000000006],[-7.800000000000001,55.25000000000001],[-7.65,55.25000000000001],[-7.65,55.150000000000006],[-7.550000000000001,55.150000000000006],[-7.550000000000001,55.05000000000001],[-7.45,55.05000000000001],[-7.45,55.25000000000001],[-7.4,55.25000000000001],[-7.3500000000000005,55.35000000000001]],[[-4.550000000000001,54.35000000000001],[-4.4,54.35000000000001],[-4.4,54.20000000000001],[-4.450000000000001,54.20000000000001],[-4.450000000000001,54.150000000000006],[-4.6,54.150000000000006],[-4.6,54.30000000000001],[-4.550000000000001,54.30000000000001],[-4.550000000000001,54.35000000000001]]]}}]}