{"type":"FeatureCollection","name":"tidal_model_domain","features":[{"type":"Feature","properties":{"kind":"domain","atlases":["NORKYST_LOFOTEN"],"source_file":"norkyst_lofoten_20250919.nc","wet_cells":52178,"grid_deg":0.01,"area_deg2":7.64},"geometry":{"type":"MultiPolygon","coordinates":[[[[14.129999999999999,66.33],[14.15,66.33],[14.15,66.32],[14.14,66.32],[14.14,66.31],[14.120000000000001,66.31],[14.120000000000001,66.3],[14.08,66.3],[14.08,66.28999999999999],[14.030000000000001,66.28999999999999],[14.02,66.27],[13.96,66.27],[13.96,66.25999999999999],[13.95,66.25999999999999],[13.95,66.27],[13.92,66.27],[13.92,66.28],[13.91,66.28],[13.91,66.28999999999999],[13.93,66.28999999999999],[13.93,66.3],[13.96,66.3],[13.96,66.31],[14.05,66.31],[14.05,66.32],[14.09,66.32],[14.09,66.33],[14.120000000000001,66.33],[14.120000000000001,66.33999999999999],[14.129999999999999,66.33999999999999],[14.129999999999999,66.33]]],[[[12.71,68.99],[12.75,68.99],[12.75,68.97999999999999],[12.8,68.97999999999999],[12.8,68.97],[12.83,68.97],[12.83,68.96],[12.89,68.96],[12.89,68.95],[12.92,68.95],[12.92,68.94],[12.97,68.94],[12.97,68.92999999999999],[13.010000000000002,68.92999999999999],[13.010000000000002,68.92],[13.06,68.92],[13.06,68.91],[13.09,68.91],[13.09,68.89999999999999],[13.15,68.89999999999999],[13.15,68.89],[13.18,68.89],[13.18,68.88],[13.23,68.88],[13.23,68.86999999999999],[13.27,68.86999999999999],[13.27,68.86],[13.3,68.86],[13.3,68.85],[13.350000000000001,68.85],[13.350000000000001,68.83999999999999],[13.39,68.83999999999999],[13.39,68.83],[13.440000000000001,68.83],[13.440000000000001,68.82],[13.47,68.82],[13.47,68.81],[13.52,68.81],[13.52,68.8],[13.56,68.8],[13.56,68.78999999999999],[13.61,68.78999999999999],[13.61,68.78],[13.64,68.78],[13.64,68.77],[13.68,68.77],[13.68,68.75999999999999],[13.73,68.75999999999999],[13.73,68.75],[13.760000000000002,68.75],[13.760000000000002,68.74],[13.81,68.74],[13.81,68.72999999999999],[13.850000000000001,68.72999999999999],[13.850000000000001,68.72],[13.879999999999999,68.72],[13.879999999999999,68.71],[13.93,68.71],[13.93,68.7],[13.97,68.7],[13.97,68.69],[14.02,68.69],[14.02,68.67999999999999],[14.05,68.67999999999999],[14.05,68.67],[14.100000000000001,68.67],[14.100000000000001,68.66],[14.14,68.66],[14.14,68.64999999999999],[14.17,68.64999999999999],[14.17,68.64],[14.22,68.64],[14.22,68.63],[14.25,68.63],[14.25,68.61999999999999],[14.3,68.61999999999999],[14.3,68.61],[14.34,68.61],[14.34,68.6],[14.370000000000001,68.6],[14.370000000000001,68.58999999999999],[14.42,68.58999999999999],[14.42,68.58],[14.45,68.58],[14.45,68.57],[14.49,68.57],[14.49,68.56],[14.54,68.56],[14.54,68.55],[14.57,68.55],[14.57,68.53999999999999],[14.620000000000001,68.53999999999999],[14.620000000000001,68.53],[14.66,68.53],[14.66,68.52],[14.690000000000001,68.52],[14.690000000000001,68.50999999999999],[14.71,68.50999999999999],[14.71,68.5],[14.77,68.5],[14.77,68.49],[14.8,68.49],[14.8,68.47999999999999],[14.850000000000001,68.47999999999999],[14.850000000000001,68.47],[14.89,68.47],[14.89,68.46],[14.92,68.46],[14.92,68.45],[14.89,68.45],[14.89,68.42999999999999],[14.879999999999999,68.42999999999999],[14.879999999999999,68.39999999999999],[14.89,68.39999999999999],[14.89,68.39],[14.850000000000001,68.39],[14.850000000000001,68.39999999999999],[14.84,68.39999999999999],[14.84,68.42999999999999],[14.760000000000002,68.42999999999999],[14.760000000000002,68.44],[14.72,68.44],[14.72,68.42],[14.71,68.42],[14.71,68.41],[14.7,68.41],[14.7,68.42],[14.68,68.42],[14.68,68.42999999999999],[14.66,68.42999999999999],[14.66,68.44],[14.620000000000001,68.44],[14.620000000000001,68.42999999999999],[14.56,68.42999999999999],[14.56,68.39999999999999],[14.59,68.39999999999999],[14.58,68.38],[14.57,68.38],[14.57,68.39],[14.530000000000001,68.39],[14.530000000000001,68.39999999999999],[14.47,68.39999999999999],[14.47,68.39],[14.43,68.39],[14.43,68.33999999999999],[14.45,68.33999999999999],[14.45,68.33],[14.440000000000001,68.33],[14.440000000000001,68.32],[14.41,68.32],[14.41,68.33],[14.39,68.33],[14.39,68.33999999999999],[14.33,68.33999999999999],[14.33,68.33],[14.32,68.33],[14.32,68.28999999999999],[14.34,68.28999999999999],[14.34,68.28],[14.3,68.28],[14.3,68.27],[14.29,68.27],[14.29,68.24],[14.280000000000001,68.24],[14.280000000000001,68.22999999999999],[14.27,68.22999999999999],[14.27,68.24],[14.22,68.24],[14.22,68.17],[14.27,68.17],[14.27,68.17999999999999],[14.33,68.17999999999999],[14.33,68.19],[14.4,68.19],[14.4,68.21],[14.41,68.21],[14.41,68.22],[14.42,68.22],[14.42,68.21],[14.510000000000002,68.21],[14.52,68.22999999999999],[14.54,68.22999999999999],[14.54,68.24],[14.58,68.24],[14.58,68.25],[14.620000000000001,68.25],[14.620000000000001,68.24],[14.67,68.24],[14.67,68.25],[14.68,68.25],[14.68,68.28],[14.690000000000001,68.28],[14.7,68.3],[14.71,68.3],[14.71,68.33999999999999],[14.72,68.33999999999999],[14.72,68.35],[14.760000000000002,68.35],[14.760000000000002,68.33],[14.780000000000001,68.33],[14.780000000000001,68.32],[14.75,68.32],[14.75,68.3],[14.73,68.28999999999999],[14.73,68.25999999999999],[14.760000000000002,68.25999999999999],[14.77,68.28],[14.81,68.28],[14.81,68.28999999999999],[14.83,68.28999999999999],[14.84,68.31],[14.89,68.31],[14.9,68.33],[14.95,68.33],[14.95,68.33999999999999],[14.97,68.33999999999999],[14.97,68.35],[14.98,68.35],[14.98,68.36999999999999],[15.05,68.36999999999999],[15.05,68.38],[15.07,68.38],[15.07,68.39999999999999],[15.08,68.39999999999999],[15.08,68.41],[15.120000000000001,68.41],[15.120000000000001,68.39999999999999],[15.100000000000001,68.39],[15.100000000000001,68.38],[15.09,68.38],[15.09,68.36999999999999],[15.07,68.36],[15.07,68.35],[15.06,68.35],[15.05,68.33],[15.0,68.33],[15.0,68.3],[15.010000000000002,68.3],[15.010000000000002,68.28],[15.08,68.28],[15.09,68.3],[15.11,68.3],[15.11,68.31],[15.14,68.31],[15.15,68.33],[15.16,68.33],[15.16,68.32],[15.2,68.32],[15.2,68.33],[15.22,68.33],[15.22,68.33999999999999],[15.24,68.33999999999999],[15.24,68.35],[15.260000000000002,68.35],[15.260000000000002,68.36999999999999],[15.280000000000001,68.36999999999999],[15.280000000000001,68.36],[15.32,68.36],[15.32,68.35],[15.350000000000001,68.35],[15.350000000000001,68.33999999999999],[15.4,68.33999999999999],[15.4,68.33],[15.43,68.33],[15.43,68.32],[15.46,68.32],[15.46,68.31],[15.510000000000002,68.31],[15.510000000000002,68.3],[15.55,68.3],[15.55,68.28999999999999],[15.58,68.28999999999999],[15.58,68.28],[15.63,68.28],[15.63,68.27],[15.66,68.27],[15.66,68.25999999999999],[15.72,68.25],[15.72,68.24],[15.77,68.24],[15.77,68.22999999999999],[15.8,68.22999999999999],[15.8,68.22],[15.84,68.22],[15.84,68.21],[15.870000000000001,68.21],[15.870000000000001,68.2],[15.86,68.2],[15.86,68.17],[15.870000000000001,68.17],[15.870000000000001,68.16],[15.89,68.16],[15.9,68.14],[15.86,68.13],[15.850000000000001,68.11],[15.8,68.11],[15.79,68.08999999999999],[15.780000000000001,68.08999999999999],[15.780000000000001,68.1],[15.73,68.1],[15.72,68.08],[15.65,68.08],[15.64,68.1],[15.620000000000001,68.1],[15.620000000000001,68.11],[15.63,68.11],[15.63,68.11999999999999],[15.64,68.11999999999999],[15.64,68.11],[15.72,68.11],[15.72,68.17],[15.690000000000001,68.17],[15.690000000000001,68.17999999999999],[15.67,68.17999999999999],[15.67,68.19],[15.620000000000001,68.19],[15.620000000000001,68.14999999999999],[15.61,68.14999999999999],[15.61,68.14],[15.600000000000001,68.14],[15.600000000000001,68.14999999999999],[15.57,68.14999999999999],[15.57,68.13],[15.54,68.13],[15.54,68.11999999999999],[15.52,68.11999999999999],[15.52,68.11],[15.5,68.11],[15.5,68.16],[15.46,68.16],[15.46,68.14999999999999],[15.440000000000001,68.14999999999999],[15.440000000000001,68.14],[15.4,68.14],[15.4,68.13],[15.39,68.13],[15.38,68.11],[15.34,68.11],[15.34,68.08999999999999],[15.33,68.08999999999999],[15.33,68.07],[15.32,68.07],[15.32,68.06],[15.29,68.06],[15.29,68.03],[15.3,68.03],[15.3,68.02],[15.36,68.02],[15.36,68.00999999999999],[15.440000000000001,68.00999999999999],[15.440000000000001,68.03999999999999],[15.45,68.03999999999999],[15.45,68.05],[15.510000000000002,68.05],[15.510000000000002,68.06],[15.530000000000001,68.06],[15.530000000000001,68.08],[15.59,68.08],[15.59,68.05],[15.73,68.05],[15.73,68.03999999999999],[15.74,68.03999999999999],[15.74,68.0],[15.780000000000001,68.0],[15.780000000000001,67.99],[15.81,67.99],[15.81,67.97999999999999],[15.88,67.97999999999999],[15.88,67.97],[15.92,67.97],[15.92,67.96],[15.9,67.96],[15.9,67.95],[15.870000000000001,67.95],[15.870000000000001,67.92],[15.88,67.92],[15.88,67.91],[15.84,67.91],[15.83,67.95],[15.79,67.96],[15.79,67.97],[15.68,67.97],[15.68,67.96],[15.64,67.96],[15.64,67.95],[15.59,67.95],[15.59,67.92999999999999],[15.58,67.92999999999999],[15.58,67.92],[15.57,67.92],[15.57,67.92999999999999],[15.55,67.92999999999999],[15.55,67.94],[15.5,67.94],[15.5,67.92999999999999],[15.440000000000001,67.92999999999999],[15.440000000000001,67.92],[15.39,67.92],[15.39,67.91],[15.3,67.91],[15.3,67.89999999999999],[15.260000000000002,67.89],[15.25,67.86999999999999],[15.24,67.86999999999999],[15.24,67.88],[15.22,67.88],[15.22,67.89],[15.2,67.89],[15.2,67.89999999999999],[15.16,67.89999999999999],[15.16,67.89],[15.13,67.89],[15.13,67.89999999999999],[14.940000000000001,67.89999999999999],[14.940000000000001,67.89],[14.91,67.89],[14.91,67.86],[14.95,67.86],[14.95,67.86999999999999],[15.030000000000001,67.86999999999999],[15.030000000000001,67.86],[15.02,67.86],[15.02,67.85],[14.95,67.85],[14.95,67.83999999999999],[14.89,67.83999999999999],[14.89,67.83],[14.879999999999999,67.83],[14.879999999999999,67.83999999999999],[14.79,67.83999999999999],[14.79,67.83],[14.77,67.83],[14.77,67.8],[14.82,67.8],[14.82,67.78999999999999],[14.84,67.78999999999999],[14.84,67.78],[14.96,67.78],[14.96,67.78999999999999],[15.02,67.78999999999999],[15.02,67.77],[15.100000000000001,67.77],[15.100000000000001,67.75999999999999],[15.120000000000001,67.75999999999999],[15.120000000000001,67.75],[15.030000000000001,67.75],[15.030000000000001,67.74],[15.02,67.74],[15.02,67.75],[14.96,67.75],[14.96,67.74],[14.89,67.74],[14.89,67.71],[14.879999999999999,67.71],[14.879999999999999,67.7],[14.84,67.7],[14.84,67.69],[14.780000000000001,67.69],[14.780000000000001,67.66],[14.93,67.66],[14.93,67.67],[14.97,67.67],[14.97,67.67999999999999],[15.030000000000001,67.67999999999999],[15.030000000000001,67.69],[15.08,67.69],[15.08,67.7],[15.100000000000001,67.7],[15.100000000000001,67.71],[15.15,67.71],[15.15,67.72],[15.18,67.72],[15.18,67.72999999999999],[15.2,67.72999999999999],[15.2,67.75],[15.21,67.75],[15.21,67.75999999999999],[15.24,67.75999999999999],[15.24,67.77],[15.27,67.77],[15.27,67.78],[15.33,67.78999999999999],[15.33,67.8],[15.38,67.8],[15.39,67.83999999999999],[15.41,67.83999999999999],[15.41,67.85],[15.46,67.85],[15.46,67.83999999999999],[15.45,67.83999999999999],[15.45,67.81],[15.47,67.81],[15.47,67.8],[15.510000000000002,67.8],[15.510000000000002,67.78999999999999],[15.54,67.78999999999999],[15.54,67.78],[15.61,67.78],[15.61,67.78999999999999],[15.620000000000001,67.78999999999999],[15.620000000000001,67.78],[15.65,67.78],[15.65,67.77],[15.68,67.77],[15.68,67.75999999999999],[15.73,67.75999999999999],[15.73,67.75],[15.760000000000002,67.75],[15.760000000000002,67.74],[15.79,67.74],[15.79,67.72],[15.8,67.72],[15.8,67.71],[15.83,67.71],[15.83,67.7],[15.850000000000001,67.7],[15.850000000000001,67.69],[15.81,67.69],[15.81,67.7],[15.780000000000001,67.7],[15.780000000000001,67.71],[15.760000000000002,67.71],[15.760000000000002,67.72999999999999],[15.690000000000001,67.72999999999999],[15.690000000000001,67.74],[15.66,67.74],[15.66,67.75],[15.63,67.75],[15.63,67.75999999999999],[15.56,67.75999999999999],[15.56,67.77],[15.52,67.77],[15.52,67.75999999999999],[15.440000000000001,67.75999999999999],[15.440000000000001,67.72999999999999],[15.46,67.72999999999999],[15.46,67.72],[15.56,67.72],[15.56,67.71],[15.58,67.71],[15.58,67.7],[15.530000000000001,67.7],[15.52,67.67999999999999],[15.510000000000002,67.67999999999999],[15.510000000000002,67.69],[15.47,67.69],[15.47,67.7],[15.4,67.7],[15.39,67.72],[15.36,67.72],[15.36,67.72999999999999],[15.33,67.72999999999999],[15.33,67.74],[15.3,67.74],[15.3,67.7],[15.33,67.7],[15.32,67.67999999999999],[15.280000000000001,67.67999999999999],[15.280000000000001,67.69],[15.25,67.69],[15.25,67.67999999999999],[15.21,67.67],[15.21,67.66],[15.18,67.66],[15.18,67.63],[15.25,67.63],[15.25,67.64],[15.29,67.64],[15.29,67.63],[15.32,67.63],[15.32,67.61999999999999],[15.370000000000001,67.61999999999999],[15.370000000000001,67.61],[15.43,67.61],[15.43,67.6],[15.42,67.6],[15.42,67.58999999999999],[15.38,67.58999999999999],[15.38,67.6],[15.33,67.6],[15.33,67.61],[15.3,67.61],[15.3,67.61999999999999],[15.24,67.61999999999999],[15.24,67.61],[15.22,67.61],[15.22,67.55],[15.260000000000002,67.55],[15.260000000000002,67.53999999999999],[15.32,67.53999999999999],[15.32,67.53],[15.350000000000001,67.53],[15.350000000000001,67.53999999999999],[15.39,67.53999999999999],[15.39,67.53],[15.42,67.53],[15.42,67.53999999999999],[15.46,67.53999999999999],[15.46,67.53],[15.49,67.53],[15.5,67.50999999999999],[15.530000000000001,67.50999999999999],[15.530000000000001,67.52],[15.55,67.52],[15.55,67.53],[15.59,67.53],[15.59,67.53999999999999],[15.61,67.53999999999999],[15.61,67.55],[15.63,67.55],[15.63,67.56],[15.65,67.56],[15.65,67.57],[15.71,67.57],[15.71,67.58],[15.8,67.58],[15.8,67.58999999999999],[15.88,67.58999999999999],[15.88,67.58],[15.870000000000001,67.58],[15.870000000000001,67.57],[15.79,67.57],[15.79,67.56],[15.72,67.56],[15.72,67.55],[15.65,67.55],[15.64,67.53],[15.61,67.53],[15.61,67.52],[15.55,67.50999999999999],[15.55,67.5],[15.54,67.5],[15.54,67.47],[15.56,67.47],[15.56,67.46],[15.54,67.46],[15.54,67.42999999999999],[15.58,67.42],[15.58,67.41],[15.64,67.42],[15.63,67.39999999999999],[15.61,67.39999999999999],[15.61,67.36999999999999],[15.63,67.36999999999999],[15.63,67.36],[15.59,67.36],[15.59,67.38],[15.54,67.38],[15.54,67.41],[15.530000000000001,67.41],[15.530000000000001,67.42999999999999],[15.49,67.42999999999999],[15.49,67.44],[15.47,67.44],[15.47,67.45],[15.48,67.45],[15.48,67.47999999999999],[15.46,67.47999999999999],[15.46,67.49],[15.440000000000001,67.49],[15.440000000000001,67.5],[15.31,67.5],[15.31,67.50999999999999],[15.280000000000001,67.50999999999999],[15.280000000000001,67.5],[15.25,67.5],[15.25,67.49],[15.22,67.49],[15.22,67.47],[15.2,67.47],[15.2,67.46],[15.18,67.46],[15.18,67.45],[15.16,67.45],[15.16,67.44],[15.15,67.44],[15.15,67.45],[15.14,67.45],[15.14,67.46],[15.16,67.46],[15.15,67.52],[15.100000000000001,67.52],[15.100000000000001,67.50999999999999],[15.06,67.50999999999999],[15.06,67.5],[15.04,67.5],[15.04,67.49],[15.030000000000001,67.49],[15.02,67.50999999999999],[15.04,67.50999999999999],[15.04,67.53999999999999],[15.02,67.55],[15.02,67.56],[14.99,67.56],[14.99,67.58],[14.95,67.58],[14.95,67.57],[14.89,67.57],[14.89,67.56],[14.870000000000001,67.56],[14.870000000000001,67.55],[14.83,67.55],[14.83,67.53999999999999],[14.81,67.53999999999999],[14.81,67.53],[14.77,67.53],[14.77,67.52],[14.75,67.52],[14.75,67.50999999999999],[14.71,67.50999999999999],[14.71,67.5],[14.690000000000001,67.5],[14.690000000000001,67.49],[14.66,67.49],[14.66,67.46],[14.75,67.46],[14.75,67.45],[14.780000000000001,67.45],[14.780000000000001,67.46],[14.89,67.46],[14.89,67.45],[14.96,67.45],[14.96,67.44],[14.95,67.44],[14.95,67.42999999999999],[14.91,67.42999999999999],[14.91,67.42],[14.89,67.42],[14.89,67.41],[14.86,67.41],[14.86,67.42999999999999],[14.850000000000001,67.42999999999999],[14.850000000000001,67.44],[14.77,67.44],[14.77,67.42999999999999],[14.760000000000002,67.42999999999999],[14.760000000000002,67.44],[14.629999999999999,67.44],[14.629999999999999,67.39999999999999],[14.64,67.39999999999999],[14.629999999999999,67.38],[14.59,67.38],[14.59,67.36999999999999],[14.56,67.36999999999999],[14.56,67.35],[14.510000000000002,67.35],[14.510000000000002,67.33999999999999],[14.5,67.33999999999999],[14.5,67.33],[14.48,67.33],[14.48,67.32],[14.440000000000001,67.32],[14.440000000000001,67.31],[14.39,67.31],[14.39,67.3],[14.379999999999999,67.3],[14.379999999999999,67.27],[14.510000000000002,67.27],[14.510000000000002,67.28],[14.620000000000001,67.28],[14.620000000000001,67.28999999999999],[14.66,67.28999999999999],[14.66,67.3],[14.7,67.3],[14.7,67.31],[14.71,67.31],[14.71,67.3],[14.72,67.3],[14.72,67.28],[14.71,67.28],[14.71,67.25],[14.780000000000001,67.25],[14.780000000000001,67.25999999999999],[14.81,67.25999999999999],[14.81,67.27],[14.84,67.27],[14.84,67.3],[14.9,67.3],[14.9,67.28999999999999],[15.0,67.28999999999999],[15.0,67.31],[15.02,67.31],[15.02,67.32],[15.13,67.32],[15.13,67.33],[15.17,67.33],[15.17,67.32],[15.16,67.32],[15.16,67.3],[15.14,67.28999999999999],[15.14,67.25999999999999],[15.24,67.25999999999999],[15.24,67.27],[15.32,67.27],[15.32,67.25999999999999],[15.350000000000001,67.25999999999999],[15.350000000000001,67.25],[15.38,67.25],[15.38,67.25999999999999],[15.42,67.25999999999999],[15.43,67.24],[15.41,67.24],[15.41,67.21],[15.440000000000001,67.21],[15.440000000000001,67.19],[15.47,67.19],[15.47,67.17999999999999],[15.48,67.17999999999999],[15.48,67.16],[15.47,67.16],[15.47,67.14999999999999],[15.45,67.14999999999999],[15.45,67.11],[15.43,67.11],[15.43,67.1],[15.42,67.1],[15.42,67.11],[15.4,67.11],[15.4,67.13],[15.39,67.13],[15.39,67.14],[15.41,67.14999999999999],[15.41,67.17999999999999],[15.38,67.17999999999999],[15.38,67.19],[15.31,67.19],[15.31,67.2],[15.280000000000001,67.2],[15.280000000000001,67.21],[15.24,67.21],[15.24,67.22],[15.190000000000001,67.22],[15.190000000000001,67.21],[15.13,67.21],[15.13,67.22999999999999],[15.07,67.22999999999999],[15.07,67.24],[15.04,67.24],[15.04,67.22999999999999],[15.02,67.22999999999999],[15.02,67.22],[15.0,67.22],[15.0,67.21],[14.96,67.2],[14.96,67.17],[14.97,67.17],[14.97,67.16],[14.98,67.16],[14.99,67.14],[15.010000000000002,67.14],[15.0,67.11999999999999],[14.97,67.11999999999999],[14.97,67.13],[14.95,67.13],[14.95,67.14999999999999],[14.9,67.14999999999999],[14.89,67.17],[14.879999999999999,67.17],[14.879999999999999,67.17999999999999],[14.9,67.17999999999999],[14.9,67.19],[14.93,67.19],[14.93,67.2],[14.940000000000001,67.2],[14.940000000000001,67.22],[14.95,67.22],[14.95,67.25],[14.91,67.25],[14.91,67.24],[14.89,67.24],[14.89,67.22999999999999],[14.84,67.22999999999999],[14.84,67.24],[14.780000000000001,67.24],[14.780000000000001,67.22999999999999],[14.74,67.22999999999999],[14.74,67.22],[14.72,67.22],[14.72,67.21],[14.67,67.21],[14.67,67.24],[14.620000000000001,67.24],[14.620000000000001,67.22999999999999],[14.61,67.22999999999999],[14.61,67.24],[14.57,67.24],[14.57,67.22999999999999],[14.56,67.22999999999999],[14.56,67.24],[14.5,67.24],[14.5,67.22999999999999],[14.379999999999999,67.22],[14.379999999999999,67.19],[14.41,67.19],[14.41,67.17999999999999],[14.4,67.17999999999999],[14.4,67.17],[14.39,67.17],[14.39,67.17999999999999],[14.34,67.17999999999999],[14.34,67.17],[14.33,67.17],[14.33,67.14999999999999],[14.32,67.14999999999999],[14.32,67.08],[14.31,67.08],[14.31,67.07],[14.280000000000001,67.07],[14.280000000000001,67.05],[14.260000000000002,67.03999999999999],[14.260000000000002,67.00999999999999],[14.23,67.00999999999999],[14.23,67.0],[14.21,67.0],[14.21,66.99],[14.16,66.99],[14.15,67.00999999999999],[14.129999999999999,67.00999999999999],[14.129999999999999,67.02],[14.120000000000001,67.02],[14.120000000000001,67.03999999999999],[14.11,67.03999999999999],[14.100000000000001,67.06],[14.04,67.07],[14.04,67.06],[14.02,67.06],[14.02,67.02],[14.04,67.02],[14.05,67.0],[14.04,67.0],[14.04,66.99],[14.010000000000002,66.99],[14.010000000000002,66.97999999999999],[13.96,66.97999999999999],[13.96,67.00999999999999],[13.95,67.00999999999999],[13.95,67.02],[13.92,67.02],[13.92,67.00999999999999],[13.89,67.00999999999999],[13.89,67.0],[13.870000000000001,67.0],[13.86,66.97999999999999],[13.83,66.97999999999999],[13.83,66.99],[13.79,66.99],[13.79,66.96],[13.780000000000001,66.96],[13.780000000000001,66.95],[13.59,66.95],[13.59,66.94],[13.58,66.94],[13.58,66.95],[13.54,66.95],[13.54,66.91],[13.620000000000001,66.91],[13.620000000000001,66.89999999999999],[13.66,66.89],[13.66,66.88],[13.690000000000001,66.88],[13.690000000000001,66.86999999999999],[13.71,66.86999999999999],[13.71,66.83999999999999],[13.74,66.83999999999999],[13.74,66.85],[13.75,66.85],[13.75,66.83999999999999],[13.760000000000002,66.83999999999999],[13.760000000000002,66.82],[13.79,66.82],[13.79,66.81],[14.0,66.81],[14.0,66.8],[13.99,66.8],[13.99,66.78999999999999],[13.98,66.78999999999999],[13.98,66.8],[13.940000000000001,66.8],[13.940000000000001,66.78999999999999],[13.91,66.78999999999999],[13.91,66.8],[13.879999999999999,66.8],[13.879999999999999,66.78999999999999],[13.84,66.78999999999999],[13.84,66.8],[13.81,66.8],[13.81,66.78999999999999],[13.8,66.78999999999999],[13.8,66.8],[13.77,66.8],[13.77,66.81],[13.74,66.81],[13.74,66.8],[13.73,66.8],[13.73,66.81],[13.600000000000001,66.81],[13.600000000000001,66.8],[13.58,66.8],[13.58,66.77],[13.64,66.77],[13.64,66.75999999999999],[13.629999999999999,66.75999999999999],[13.629999999999999,66.75],[13.620000000000001,66.75],[13.620000000000001,66.75999999999999],[13.56,66.75999999999999],[13.56,66.72999999999999],[13.57,66.72999999999999],[13.57,66.71],[13.629999999999999,66.71],[13.629999999999999,66.72],[13.690000000000001,66.72],[13.690000000000001,66.72999999999999],[13.75,66.72999999999999],[13.74,66.71],[13.7,66.71],[13.7,66.7],[13.68,66.7],[13.68,66.69],[13.67,66.69],[13.67,66.7],[13.620000000000001,66.7],[13.620000000000001,66.69],[13.61,66.69],[13.61,66.7],[13.54,66.7],[13.530000000000001,66.72],[13.46,66.72],[13.46,66.72999999999999],[13.280000000000001,66.72999999999999],[13.280000000000001,66.7],[13.34,66.7],[13.34,66.69],[13.370000000000001,66.69],[13.370000000000001,66.7],[13.379999999999999,66.7],[13.379999999999999,66.69],[13.52,66.67999999999999],[13.52,66.67],[13.54,66.67],[13.54,66.66],[13.52,66.64999999999999],[13.52,66.66],[13.379999999999999,66.66],[13.379999999999999,66.67],[13.32,66.67],[13.32,66.64],[13.34,66.64],[13.34,66.63],[13.280000000000001,66.63],[13.280000000000001,66.61999999999999],[13.24,66.61999999999999],[13.24,66.6],[13.23,66.6],[13.23,66.58999999999999],[13.21,66.58999999999999],[13.21,66.56],[13.24,66.56],[13.24,66.55],[13.3,66.55],[13.3,66.56],[13.42,66.56],[13.42,66.57],[13.47,66.57],[13.47,66.58],[13.49,66.58999999999999],[13.49,66.58],[13.5,66.58],[13.5,66.56],[13.57,66.56],[13.57,66.55],[13.600000000000001,66.55],[13.600000000000001,66.53999999999999],[13.65,66.53999999999999],[13.64,66.52],[13.61,66.52],[13.61,66.53],[13.58,66.53],[13.58,66.53999999999999],[13.510000000000002,66.53999999999999],[13.510000000000002,66.55],[13.48,66.55],[13.48,66.53999999999999],[13.47,66.53999999999999],[13.47,66.55],[13.43,66.55],[13.43,66.53999999999999],[13.33,66.53999999999999],[13.33,66.53],[13.3,66.53],[13.3,66.5],[13.280000000000001,66.5],[13.280000000000001,66.47],[13.32,66.47],[13.32,66.47999999999999],[13.33,66.47999999999999],[13.33,66.47],[13.350000000000001,66.47],[13.350000000000001,66.46],[13.3,66.46],[13.3,66.45],[13.25,66.45],[13.25,66.46],[13.24,66.46],[13.24,66.47999999999999],[13.23,66.47999999999999],[13.22,66.5],[13.21,66.5],[13.21,66.52],[13.2,66.52],[13.2,66.53],[13.14,66.53],[13.129999999999999,66.55],[13.08,66.55],[13.08,66.53999999999999],[13.04,66.53999999999999],[13.04,66.53],[12.940000000000001,66.53],[12.940000000000001,66.53999999999999],[12.89,66.53999999999999],[12.88,66.56],[12.82,66.56],[12.82,66.57],[12.790000000000001,66.57],[12.790000000000001,66.58],[12.74,66.58],[12.74,66.58999999999999],[12.71,66.58999999999999],[12.71,66.6],[12.68,66.6],[12.68,66.61],[12.58,66.61999999999999],[12.58,66.63],[12.55,66.63],[12.55,66.64],[12.5,66.64],[12.5,66.64999999999999],[12.47,66.64999999999999],[12.47,66.66],[12.43,66.66],[12.43,66.67],[12.35,66.67999999999999],[12.35,66.69],[12.32,66.69],[12.32,66.7],[12.27,66.7],[12.27,66.71],[12.24,66.71],[12.24,66.72],[12.14,66.72999999999999],[12.14,66.74],[12.11,66.74],[12.11,66.75],[12.06,66.75],[12.06,66.75999999999999],[12.030000000000001,66.75999999999999],[12.030000000000001,66.77],[11.98,66.77],[11.98,66.78],[11.95,66.78],[11.95,66.78999999999999],[11.91,66.78999999999999],[11.91,66.8],[11.870000000000001,66.8],[11.870000000000001,66.81],[11.83,66.81],[11.83,66.82],[11.780000000000001,66.82],[11.780000000000001,66.83],[11.75,66.83],[11.75,66.83999999999999],[11.7,66.83999999999999],[11.7,66.85],[11.67,66.85],[11.67,66.86],[11.57,66.86999999999999],[11.57,66.88],[11.540000000000001,66.88],[11.540000000000001,66.89],[11.49,66.89],[11.49,66.89999999999999],[11.46,66.89999999999999],[11.46,66.91],[11.36,66.92],[11.36,66.92999999999999],[11.33,66.92999999999999],[11.33,66.94],[11.280000000000001,66.94],[11.280000000000001,66.95],[11.25,66.95],[11.25,66.96],[11.15,66.97],[11.15,66.97999999999999],[11.120000000000001,66.97999999999999],[11.120000000000001,66.99],[11.07,66.99],[11.07,67.0],[11.04,67.0],[11.04,67.00999999999999],[10.94,67.02],[10.94,67.03],[10.91,67.03],[10.91,67.03999999999999],[10.81,67.05],[10.81,67.06],[10.780000000000001,67.06],[10.780000000000001,67.07],[10.68,67.08],[10.68,67.08999999999999],[10.65,67.08999999999999],[10.65,67.1],[10.55,67.11],[10.55,67.11999999999999],[10.52,67.11999999999999],[10.52,67.13],[10.42,67.14],[10.42,67.14999999999999],[10.39,67.14999999999999],[10.39,67.16],[10.290000000000001,67.17],[10.290000000000001,67.17999999999999],[10.26,67.17999999999999],[10.26,67.19],[10.16,67.2],[10.16,67.21],[10.13,67.21],[10.13,67.22],[10.030000000000001,67.22999999999999],[10.030000000000001,67.24],[9.99,67.24],[9.99,67.25],[9.94,67.25],[9.94,67.25999999999999],[9.89,67.25999999999999],[9.89,67.27],[9.88,67.27],[9.88,67.28],[9.9,67.28],[9.91,67.3],[9.93,67.3],[9.93,67.32],[9.97,67.33],[9.98,67.35],[10.0,67.35],[10.01,67.36999999999999],[10.030000000000001,67.36999999999999],[10.040000000000001,67.39],[10.06,67.39],[10.07,67.41],[10.11,67.42],[10.120000000000001,67.44],[10.14,67.44],[10.15,67.46],[10.17,67.46],[10.17,67.47],[10.19,67.47999999999999],[10.19,67.49],[10.21,67.49],[10.22,67.50999999999999],[10.24,67.50999999999999],[10.25,67.53],[10.27,67.53],[10.280000000000001,67.55],[10.3,67.55],[10.31,67.57],[10.35,67.58],[10.36,67.6],[10.38,67.6],[10.39,67.61999999999999],[10.41,67.61999999999999],[10.42,67.64],[10.46,67.64999999999999],[10.47,67.67],[10.49,67.67],[10.5,67.69],[10.52,67.69],[10.530000000000001,67.71],[10.57,67.72],[10.58,67.74],[10.6,67.74],[10.61,67.75999999999999],[10.63,67.75999999999999],[10.64,67.78],[10.68,67.78999999999999],[10.69,67.81],[10.71,67.81],[10.72,67.83],[10.74,67.83],[10.74,67.83999999999999],[10.75,67.83999999999999],[10.75,67.85],[10.790000000000001,67.86],[10.8,67.88],[10.82,67.88],[10.83,67.89999999999999],[10.85,67.89999999999999],[10.86,67.92],[10.9,67.92999999999999],[10.91,67.95],[10.93,67.95],[10.94,67.97],[10.96,67.97],[10.97,67.99],[10.99,67.99],[10.99,68.0],[11.01,68.0],[11.02,68.02],[11.04,68.02],[11.05,68.03999999999999],[11.07,68.03999999999999],[11.08,68.06],[11.120000000000001,68.07],[11.13,68.08999999999999],[11.15,68.08999999999999],[11.16,68.11],[11.18,68.11],[11.190000000000001,68.13],[11.21,68.13],[11.21,68.14],[11.24,68.14],[11.25,68.16],[11.27,68.16],[11.280000000000001,68.17999999999999],[11.32,68.19],[11.32,68.2],[11.33,68.2],[11.33,68.21],[11.35,68.21],[11.36,68.22999999999999],[11.38,68.22999999999999],[11.39,68.25],[11.43,68.25999999999999],[11.440000000000001,68.28],[11.46,68.28],[11.47,68.3],[11.49,68.3],[11.49,68.31],[11.52,68.31],[11.530000000000001,68.33],[11.55,68.33],[11.55,68.33999999999999],[11.56,68.33999999999999],[11.56,68.35],[11.58,68.35],[11.59,68.36999999999999],[11.61,68.36999999999999],[11.61,68.38],[11.63,68.38],[11.64,68.39999999999999],[11.66,68.39999999999999],[11.67,68.42],[11.690000000000001,68.42],[11.690000000000001,68.42999999999999],[11.72,68.42999999999999],[11.73,68.45],[11.75,68.45],[11.76,68.47],[11.780000000000001,68.47],[11.790000000000001,68.49],[11.83,68.5],[11.84,68.52],[11.870000000000001,68.52],[11.88,68.53999999999999],[11.92,68.55],[11.92,68.56],[11.93,68.56],[11.93,68.57],[11.95,68.57],[11.96,68.58999999999999],[11.98,68.58999999999999],[11.99,68.61],[12.02,68.61],[12.02,68.61999999999999],[12.040000000000001,68.61999999999999],[12.05,68.64],[12.07,68.64],[12.08,68.66],[12.1,68.66],[12.1,68.67],[12.120000000000001,68.67],[12.13,68.69],[12.16,68.69],[12.17,68.71],[12.190000000000001,68.71],[12.190000000000001,68.72],[12.21,68.72],[12.22,68.74],[12.24,68.74],[12.25,68.75999999999999],[12.280000000000001,68.75999999999999],[12.280000000000001,68.77],[12.3,68.77],[12.31,68.78999999999999],[12.33,68.78999999999999],[12.34,68.81],[12.36,68.81],[12.370000000000001,68.83],[12.4,68.83],[12.4,68.83999999999999],[12.42,68.83999999999999],[12.43,68.86],[12.45,68.86],[12.46,68.88],[12.49,68.88],[12.49,68.89],[12.51,68.89],[12.52,68.91],[12.540000000000001,68.91],[12.540000000000001,68.92],[12.55,68.92],[12.55,68.92999999999999],[12.57,68.92999999999999],[12.57,68.94],[12.6,68.94],[12.61,68.96],[12.63,68.96],[12.63,68.97],[12.64,68.97],[12.64,68.97999999999999],[12.66,68.97999999999999],[12.66,68.99],[12.690000000000001,68.99],[12.690000000000001,69.0],[12.71,69.0],[12.71,68.99]],[[13.879999999999999,68.33999999999999],[13.870000000000001,68.32],[13.86,68.32],[13.86,68.31],[13.84,68.31],[13.83,68.28999999999999],[13.79,68.28999999999999],[13.79,68.3],[13.760000000000002,68.3],[13.760000000000002,68.28999999999999],[13.72,68.28999999999999],[13.71,68.31],[13.65,68.31],[13.65,68.3],[13.57,68.28999999999999],[13.57,68.25],[13.629999999999999,68.25],[13.629999999999999,68.24],[13.620000000000001,68.24],[13.620000000000001,68.22999999999999],[13.530000000000001,68.22999999999999],[13.530000000000001,68.2],[13.54,68.2],[13.54,68.19],[13.52,68.17999999999999],[13.52,68.14999999999999],[13.54,68.14999999999999],[13.54,68.14],[13.49,68.14],[13.49,68.13],[13.48,68.13],[13.48,68.11],[13.47,68.11],[13.47,68.08],[13.48,68.08],[13.48,68.06],[13.510000000000002,68.06],[13.510000000000002,68.07],[13.55,68.07],[13.55,68.08],[13.57,68.08],[13.57,68.11999999999999],[13.55,68.11999999999999],[13.55,68.13],[13.59,68.13],[13.59,68.14],[13.600000000000001,68.14],[13.600000000000001,68.13],[13.629999999999999,68.13],[13.629999999999999,68.11999999999999],[13.64,68.11999999999999],[13.64,68.08],[13.67,68.08],[13.67,68.08999999999999],[13.73,68.08999999999999],[13.73,68.11999999999999],[13.74,68.11999999999999],[13.74,68.13],[13.780000000000001,68.13],[13.780000000000001,68.11999999999999],[13.850000000000001,68.11999999999999],[13.850000000000001,68.14999999999999],[13.81,68.14999999999999],[13.82,68.17],[13.86,68.17],[13.86,68.17999999999999],[13.879999999999999,68.17999999999999],[13.879999999999999,68.19],[13.99,68.19],[13.99,68.2],[14.0,68.2],[14.0,68.19],[14.030000000000001,68.19],[14.030000000000001,68.2],[14.06,68.2],[14.06,68.21],[14.08,68.21],[14.08,68.22],[14.129999999999999,68.22],[14.129999999999999,68.24],[14.15,68.24],[14.15,68.27],[14.129999999999999,68.27],[14.129999999999999,68.28],[14.11,68.28],[14.11,68.28999999999999],[14.08,68.28999999999999],[14.08,68.28],[14.06,68.28],[14.06,68.27],[14.030000000000001,68.27],[14.030000000000001,68.25999999999999],[13.99,68.27],[13.99,68.28],[14.010000000000002,68.28],[14.010000000000002,68.33],[14.0,68.33],[14.0,68.33999999999999],[13.98,68.33999999999999],[13.98,68.35],[13.95,68.35],[13.95,68.33999999999999],[13.879999999999999,68.33999999999999]],[[14.129999999999999,68.31],[14.129999999999999,68.3],[14.15,68.3],[14.15,68.28],[14.190000000000001,68.27],[14.190000000000001,68.25999999999999],[14.24,68.25999999999999],[14.25,68.28],[14.27,68.28],[14.27,68.31],[14.25,68.32],[14.25,68.33],[14.22,68.33],[14.22,68.32],[14.21,68.32],[14.21,68.33],[14.17,68.33],[14.17,68.33999999999999],[14.08,68.33999999999999],[14.08,68.31],[14.129999999999999,68.31]],[[14.870000000000001,68.3],[14.870000000000001,68.28999999999999],[14.84,68.28999999999999],[14.83,68.27],[14.81,68.27],[14.81,68.25999999999999],[14.8,68.25999999999999],[14.8,68.22999999999999],[14.870000000000001,68.22999999999999],[14.879999999999999,68.25],[14.92,68.25],[14.93,68.27],[14.940000000000001,68.27],[14.940000000000001,68.31],[14.91,68.31],[14.91,68.3],[14.870000000000001,68.3]],[[14.79,68.19],[14.79,68.22],[14.75,68.22],[14.75,68.19],[14.79,68.19]],[[13.32,68.13],[13.32,68.11999999999999],[13.36,68.11],[13.36,68.1],[13.350000000000001,68.1],[13.350000000000001,68.08],[13.32,68.08],[13.32,68.11],[13.24,68.11],[13.24,68.08],[13.2,68.08],[13.2,68.07],[13.18,68.06],[13.18,68.03],[13.2,68.03],[13.2,68.02],[13.23,68.02],[13.23,68.03999999999999],[13.25,68.05],[13.25,68.03999999999999],[13.27,68.03999999999999],[13.27,68.03],[13.260000000000002,68.03],[13.260000000000002,68.0],[13.29,68.0],[13.29,68.00999999999999],[13.33,68.00999999999999],[13.33,68.02],[13.350000000000001,68.02],[13.350000000000001,68.03],[13.39,68.03],[13.4,68.07],[13.42,68.08],[13.42,68.11],[13.440000000000001,68.11],[13.440000000000001,68.11999999999999],[13.45,68.11999999999999],[13.45,68.14999999999999],[13.440000000000001,68.14999999999999],[13.440000000000001,68.16],[13.41,68.16],[13.41,68.17],[13.379999999999999,68.17],[13.379999999999999,68.16],[13.370000000000001,68.16],[13.370000000000001,68.17],[13.31,68.17],[13.31,68.13],[13.32,68.13]],[[15.83,68.13],[15.83,68.16],[15.780000000000001,68.16],[15.780000000000001,68.13],[15.83,68.13]],[[13.06,68.08],[13.06,68.07],[13.04,68.07],[13.04,68.06],[13.010000000000002,68.06],[13.0,68.03999999999999],[12.98,68.03999999999999],[12.98,68.03],[12.97,68.03],[12.97,67.97999999999999],[12.92,67.97999999999999],[12.92,67.94],[12.91,67.94],[12.9,67.92],[12.89,67.92],[12.89,67.91],[12.86,67.91],[12.86,67.86999999999999],[12.84,67.86],[12.84,67.83],[12.89,67.83],[12.9,67.85],[12.92,67.85],[12.93,67.86999999999999],[12.98,67.86999999999999],[12.98,67.88],[13.04,67.88],[13.05,67.89999999999999],[13.07,67.89999999999999],[13.07,67.94],[13.010000000000002,67.94],[13.010000000000002,67.95],[12.99,67.95],[12.99,67.96],[13.02,67.96],[13.02,67.97999999999999],[13.06,67.97999999999999],[13.06,67.96],[13.07,67.96],[13.07,67.95],[13.11,67.95],[13.11,67.96],[13.120000000000001,67.96],[13.120000000000001,67.95],[13.16,67.95],[13.16,67.96],[13.17,67.96],[13.17,67.99],[13.16,67.99],[13.16,68.03],[13.100000000000001,68.03],[13.100000000000001,68.02],[13.08,68.02],[13.08,68.03],[13.100000000000001,68.03999999999999],[13.100000000000001,68.05],[13.129999999999999,68.05],[13.129999999999999,68.06],[13.15,68.07],[13.15,68.1],[13.129999999999999,68.1],[13.129999999999999,68.11],[13.100000000000001,68.11],[13.100000000000001,68.08],[13.06,68.08]],[[15.2,68.02],[15.2,68.00999999999999],[15.18,68.00999999999999],[15.18,67.97],[15.27,67.97],[15.27,68.0],[15.260000000000002,68.0],[15.260000000000002,68.02],[15.24,68.02],[15.24,68.03],[15.21,68.03],[15.21,68.02],[15.2,68.02]],[[15.510000000000002,68.02],[15.510000000000002,68.00999999999999],[15.49,68.00999999999999],[15.49,67.97999999999999],[15.530000000000001,67.97999999999999],[15.530000000000001,67.99],[15.7,67.99],[15.7,68.03],[15.600000000000001,68.03],[15.600000000000001,68.02],[15.510000000000002,68.02]],[[15.06,67.99],[15.06,67.97],[15.05,67.97],[15.05,67.96],[15.04,67.96],[15.04,67.97],[14.97,67.97],[14.97,67.96],[14.95,67.95],[14.95,67.92],[15.120000000000001,67.92],[15.120000000000001,67.91],[15.24,67.92],[15.24,67.95],[15.190000000000001,67.95],[15.190000000000001,67.96],[15.16,67.96],[15.16,67.95],[15.15,67.95],[15.15,67.96],[15.13,67.96],[15.13,67.97],[15.11,67.97],[15.11,68.0],[15.08,68.0],[15.08,67.99],[15.06,67.99]],[[12.690000000000001,67.66],[12.690000000000001,67.64],[12.72,67.64],[12.72,67.67],[12.71,67.67],[12.71,67.69],[12.67,67.69],[12.67,67.66],[12.690000000000001,67.66]],[[12.6,67.63],[12.6,67.66],[12.57,67.66],[12.57,67.63],[12.6,67.63]],[[15.06,67.56],[15.06,67.55],[15.13,67.55],[15.13,67.58],[15.100000000000001,67.58],[15.100000000000001,67.58999999999999],[15.04,67.58999999999999],[15.04,67.56],[15.06,67.56]],[[15.2,67.5],[15.2,67.53],[15.17,67.53],[15.17,67.5],[15.2,67.5]],[[14.33,67.42999999999999],[14.33,67.42],[14.280000000000001,67.42],[14.280000000000001,67.41],[14.27,67.41],[14.27,67.38],[14.31,67.38],[14.31,67.39],[14.39,67.39],[14.39,67.39999999999999],[14.41,67.39999999999999],[14.41,67.42999999999999],[14.4,67.42999999999999],[14.4,67.44],[14.34,67.44],[14.34,67.42999999999999],[14.33,67.42999999999999]],[[13.99,67.25999999999999],[13.99,67.28999999999999],[13.96,67.28999999999999],[13.96,67.25999999999999],[13.99,67.25999999999999]],[[14.21,67.17],[14.21,67.14],[14.18,67.14],[14.17,67.11999999999999],[14.16,67.11999999999999],[14.15,67.14],[14.129999999999999,67.14],[14.129999999999999,67.14999999999999],[14.100000000000001,67.14999999999999],[14.100000000000001,67.16],[14.06,67.16],[14.06,67.14999999999999],[14.05,67.14999999999999],[14.05,67.11999999999999],[14.030000000000001,67.11999999999999],[14.030000000000001,67.08999999999999],[14.09,67.08999999999999],[14.09,67.08],[14.120000000000001,67.08],[14.120000000000001,67.07],[14.14,67.07],[14.14,67.05],[14.15,67.05],[14.15,67.03],[14.16,67.03],[14.16,67.02],[14.18,67.02],[14.18,67.00999999999999],[14.21,67.00999999999999],[14.21,67.02],[14.23,67.02],[14.23,67.06],[14.21,67.06],[14.21,67.07],[14.22,67.07],[14.22,67.1],[14.23,67.1],[14.23,67.11],[14.25,67.11],[14.25,67.13],[14.260000000000002,67.13],[14.260000000000002,67.14],[14.280000000000001,67.14],[14.280000000000001,67.14999999999999],[14.29,67.14999999999999],[14.29,67.19],[14.23,67.19],[14.23,67.17],[14.21,67.17]],[[13.96,67.11999999999999],[13.96,67.14999999999999],[13.93,67.14999999999999],[13.93,67.11999999999999],[13.96,67.11999999999999]],[[13.82,67.05],[13.82,67.08],[13.79,67.08],[13.79,67.05],[13.82,67.05]],[[13.530000000000001,66.92999999999999],[13.530000000000001,66.96],[13.5,66.96],[13.5,66.92999999999999],[13.530000000000001,66.92999999999999]],[[13.510000000000002,66.8],[13.510000000000002,66.77],[13.57,66.77],[13.57,66.81],[13.530000000000001,66.81],[13.530000000000001,66.8],[13.510000000000002,66.8]],[[13.370000000000001,66.78],[13.370000000000001,66.78999999999999],[13.34,66.78999999999999],[13.34,66.78],[13.32,66.78],[13.32,66.75],[13.41,66.75],[13.41,66.75999999999999],[13.47,66.75999999999999],[13.47,66.78999999999999],[13.46,66.78999999999999],[13.46,66.8],[13.41,66.8],[13.41,66.78],[13.370000000000001,66.78]],[[13.08,66.64999999999999],[13.08,66.66],[13.100000000000001,66.66],[13.100000000000001,66.69],[13.05,66.69],[13.05,66.64999999999999],[13.08,66.64999999999999]],[[13.25,66.64],[13.25,66.67],[13.23,66.67],[13.23,66.67999999999999],[13.2,66.67999999999999],[13.2,66.64],[13.25,66.64]],[[13.29,66.64],[13.29,66.67],[13.260000000000002,66.67],[13.260000000000002,66.64],[13.29,66.64]],[[13.010000000000002,66.61],[13.010000000000002,66.6],[13.05,66.6],[13.05,66.64],[13.0,66.64],[13.0,66.61],[13.010000000000002,66.61]],[[13.129999999999999,66.58999999999999],[13.129999999999999,66.61999999999999],[13.120000000000001,66.61999999999999],[13.120000000000001,66.63],[13.09,66.63],[13.09,66.58999999999999],[13.129999999999999,66.58999999999999]]],[[[16.35,68.07],[16.37,68.07],[16.37,68.03999999999999],[16.44,68.03999999999999],[16.44,68.03],[16.5,68.03],[16.5,68.02],[16.52,68.02],[16.52,68.00999999999999],[16.490000000000002,68.00999999999999],[16.490000000000002,67.97999999999999],[16.48,67.97999999999999],[16.48,67.97],[16.45,67.97],[16.45,67.99],[16.43,67.99],[16.43,68.00999999999999],[16.41,68.00999999999999],[16.41,68.02],[16.37,68.02],[16.37,68.03],[16.34,68.03],[16.34,68.0],[16.35,68.0],[16.36,67.97999999999999],[16.4,67.97],[16.4,67.96],[16.45,67.96],[16.45,67.92999999999999],[16.41,67.92999999999999],[16.41,67.94],[16.39,67.94],[16.39,67.95],[16.36,67.95],[16.36,67.96],[16.34,67.96],[16.34,67.97999999999999],[16.32,67.97999999999999],[16.32,68.0],[16.3,68.00999999999999],[16.3,68.02],[16.28,68.02],[16.28,68.03],[16.240000000000002,68.03],[16.240000000000002,68.0],[16.28,67.97999999999999],[16.28,67.94],[16.26,67.94],[16.26,67.91],[16.28,67.91],[16.28,67.89999999999999],[16.310000000000002,67.89999999999999],[16.310000000000002,67.89],[16.34,67.89],[16.34,67.88],[16.380000000000003,67.88],[16.380000000000003,67.86999999999999],[16.46,67.86],[16.46,67.85],[16.44,67.85],[16.44,67.83999999999999],[16.39,67.83999999999999],[16.39,67.85],[16.37,67.85],[16.37,67.86],[16.35,67.86],[16.35,67.86999999999999],[16.3,67.86999999999999],[16.29,67.89],[16.22,67.89],[16.22,67.89999999999999],[16.2,67.89999999999999],[16.2,67.92],[16.21,67.92],[16.21,67.94],[16.22,67.94],[16.22,67.97999999999999],[16.19,67.97999999999999],[16.19,68.00999999999999],[16.17,68.00999999999999],[16.16,68.03],[16.1,68.03],[16.1,68.05],[16.08,68.05],[16.08,68.06],[16.09,68.06],[16.09,68.08],[16.1,68.08],[16.1,68.11],[16.12,68.11999999999999],[16.12,68.14],[16.14,68.14],[16.14,68.13],[16.18,68.13],[16.18,68.11999999999999],[16.21,68.11999999999999],[16.21,68.11],[16.26,68.11],[16.27,68.08999999999999],[16.23,68.08999999999999],[16.23,68.06],[16.26,68.06],[16.26,68.05],[16.28,68.05],[16.28,68.03999999999999],[16.310000000000002,68.03999999999999],[16.310000000000002,68.05],[16.32,68.05],[16.32,68.08],[16.35,68.08],[16.35,68.07]]],[[[16.29,68.08],[16.29,68.08999999999999],[16.32,68.08999999999999],[16.32,68.08],[16.29,68.08]]],[[[14.93,68.44],[14.93,68.45],[14.940000000000001,68.45],[14.940000000000001,68.44],[14.93,68.44]]]]}}]}