{"type":"FeatureCollection","name":"tidal_model_domain","features":[{"type":"Feature","properties":{"kind":"domain","atlases":["NORKYST_VESTLAND"],"source_file":"norkyst_vestland_20250919.nc","wet_cells":65852,"grid_deg":0.01,"area_deg2":7.36},"geometry":{"type":"MultiPolygon","coordinates":[[[[6.3500000000000005,59.63],[6.33,59.620000000000005],[6.33,59.58],[6.32,59.58],[6.3100000000000005,59.56],[6.300000000000001,59.56],[6.300000000000001,59.53],[6.36,59.54],[6.36,59.550000000000004],[6.430000000000001,59.550000000000004],[6.430000000000001,59.56],[6.49,59.56],[6.49,59.57],[6.510000000000001,59.57],[6.510000000000001,59.56],[6.54,59.56],[6.54,59.550000000000004],[6.53,59.550000000000004],[6.53,59.54],[6.42,59.54],[6.42,59.53],[6.390000000000001,59.53],[6.390000000000001,59.52],[6.33,59.52],[6.33,59.510000000000005],[6.3100000000000005,59.510000000000005],[6.3100000000000005,59.5],[6.260000000000001,59.5],[6.260000000000001,59.47],[6.25,59.47],[6.25,59.46],[6.24,59.46],[6.24,59.47],[6.21,59.47],[6.21,59.480000000000004],[6.16,59.480000000000004],[6.16,59.49],[6.2,59.49],[6.21,59.510000000000005],[6.24,59.510000000000005],[6.25,59.53],[6.260000000000001,59.53],[6.260000000000001,59.550000000000004],[6.28,59.550000000000004],[6.28,59.57],[6.29,59.57],[6.29,59.63],[6.3100000000000005,59.63],[6.3100000000000005,59.65],[6.3500000000000005,59.65],[6.3500000000000005,59.63]]],[[[5.21,59.74],[5.2,59.74],[5.2,59.730000000000004],[5.18,59.730000000000004],[5.18,59.72],[5.17,59.72],[5.17,59.730000000000004],[5.14,59.730000000000004],[5.14,59.74],[5.17,59.74],[5.17,59.75],[5.21,59.75],[5.21,59.74]]],[[[4.66,63.14],[4.71,63.14],[4.71,63.13],[4.7700000000000005,63.13],[4.7700000000000005,63.120000000000005],[4.81,63.120000000000005],[4.81,63.11],[4.85,63.11],[4.85,63.1],[4.91,63.1],[4.91,63.09],[4.95,63.09],[4.95,63.08],[5.0,63.08],[5.0,63.07],[5.04,63.07],[5.04,63.06],[5.1,63.06],[5.1,63.050000000000004],[5.14,63.050000000000004],[5.14,63.04],[5.19,63.04],[5.19,63.03],[5.2700000000000005,63.02],[5.2700000000000005,63.010000000000005],[5.33,63.010000000000005],[5.33,63.0],[5.38,63.0],[5.38,62.99],[5.46,62.980000000000004],[5.46,62.97],[5.51,62.97],[5.51,62.96],[5.61,62.95],[5.61,62.940000000000005],[5.65,62.940000000000005],[5.65,62.93],[5.69,62.93],[5.69,62.92],[5.79,62.910000000000004],[5.79,62.9],[5.84,62.9],[5.84,62.89],[5.88,62.89],[5.88,62.88],[5.92,62.88],[5.92,62.870000000000005],[5.97,62.870000000000005],[5.97,62.86],[6.050000000000001,62.85],[6.050000000000001,62.84],[6.11,62.84],[6.11,62.83],[6.15,62.83],[6.15,62.82],[6.19,62.82],[6.19,62.81],[6.24,62.81],[6.24,62.800000000000004],[6.28,62.800000000000004],[6.28,62.79],[6.36,62.78],[6.36,62.77],[6.390000000000001,62.77],[6.390000000000001,62.760000000000005],[6.44,62.760000000000005],[6.44,62.730000000000004],[6.470000000000001,62.730000000000004],[6.48,62.75],[6.510000000000001,62.75],[6.510000000000001,62.74],[6.590000000000001,62.730000000000004],[6.590000000000001,62.72],[6.63,62.72],[6.63,62.71],[6.680000000000001,62.71],[6.680000000000001,62.7],[6.69,62.7],[6.69,62.67],[6.74,62.67],[6.74,62.68],[6.800000000000001,62.68],[6.800000000000001,62.67],[6.8500000000000005,62.67],[6.8500000000000005,62.660000000000004],[6.890000000000001,62.660000000000004],[6.890000000000001,62.65],[6.9,62.65],[6.91,62.63],[6.930000000000001,62.63],[6.930000000000001,62.620000000000005],[6.94,62.620000000000005],[6.94,62.61],[6.92,62.6],[6.92,62.59],[6.890000000000001,62.59],[6.890000000000001,62.6],[6.88,62.6],[6.88,62.620000000000005],[6.8500000000000005,62.620000000000005],[6.8500000000000005,62.63],[6.83,62.63],[6.82,62.65],[6.73,62.65],[6.73,62.64],[6.7,62.64],[6.7,62.63],[6.63,62.63],[6.63,62.59],[6.590000000000001,62.59],[6.590000000000001,62.6],[6.57,62.6],[6.57,62.620000000000005],[6.53,62.620000000000005],[6.53,62.61],[6.4,62.61],[6.4,62.6],[6.36,62.6],[6.36,62.61],[6.33,62.61],[6.33,62.6],[6.28,62.6],[6.2700000000000005,62.58],[6.260000000000001,62.58],[6.260000000000001,62.550000000000004],[6.2700000000000005,62.550000000000004],[6.2700000000000005,62.53],[6.38,62.53],[6.38,62.54],[6.42,62.54],[6.42,62.53],[6.45,62.53],[6.45,62.54],[6.550000000000001,62.54],[6.550000000000001,62.550000000000004],[6.5600000000000005,62.550000000000004],[6.5600000000000005,62.54],[6.57,62.54],[6.57,62.52],[6.590000000000001,62.510000000000005],[6.590000000000001,62.5],[6.5600000000000005,62.5],[6.5600000000000005,62.49],[6.550000000000001,62.49],[6.550000000000001,62.5],[6.49,62.5],[6.49,62.49],[6.390000000000001,62.49],[6.390000000000001,62.480000000000004],[6.3500000000000005,62.480000000000004],[6.3500000000000005,62.440000000000005],[6.37,62.440000000000005],[6.37,62.43],[6.5,62.43],[6.5,62.440000000000005],[6.5600000000000005,62.440000000000005],[6.5600000000000005,62.45],[6.590000000000001,62.45],[6.590000000000001,62.46],[6.65,62.46],[6.65,62.47],[6.680000000000001,62.47],[6.69,62.49],[6.720000000000001,62.49],[6.720000000000001,62.480000000000004],[6.78,62.480000000000004],[6.78,62.49],[6.79,62.49],[6.79,62.480000000000004],[6.800000000000001,62.480000000000004],[6.800000000000001,62.46],[6.86,62.46],[6.86,62.47],[6.87,62.47],[6.87,62.46],[6.890000000000001,62.46],[6.890000000000001,62.440000000000005],[6.930000000000001,62.440000000000005],[6.930000000000001,62.43],[6.95,62.42],[6.95,62.39],[6.98,62.39],[6.98,62.370000000000005],[6.95,62.370000000000005],[6.95,62.34],[6.96,62.34],[6.96,62.33],[6.98,62.33],[6.99,62.31],[7.090000000000001,62.31],[7.090000000000001,62.300000000000004],[7.140000000000001,62.300000000000004],[7.140000000000001,62.29],[7.24,62.29],[7.24,62.300000000000004],[7.300000000000001,62.300000000000004],[7.300000000000001,62.29],[7.33,62.29],[7.33,62.300000000000004],[7.340000000000001,62.300000000000004],[7.340000000000001,62.29],[7.36,62.29],[7.36,62.28],[7.38,62.28],[7.38,62.27],[7.4,62.27],[7.4,62.260000000000005],[7.430000000000001,62.260000000000005],[7.430000000000001,62.24],[7.42,62.24],[7.42,62.25],[7.390000000000001,62.25],[7.390000000000001,62.260000000000005],[7.3500000000000005,62.27],[7.3500000000000005,62.28],[7.25,62.28],[7.24,62.260000000000005],[7.16,62.260000000000005],[7.15,62.28],[7.04,62.28],[7.04,62.18],[7.03,62.18],[7.0200000000000005,62.160000000000004],[7.010000000000001,62.160000000000004],[7.010000000000001,62.15],[6.970000000000001,62.14],[6.970000000000001,62.11],[7.010000000000001,62.11],[7.010000000000001,62.1],[7.090000000000001,62.1],[7.090000000000001,62.120000000000005],[7.12,62.120000000000005],[7.12,62.13],[7.140000000000001,62.120000000000005],[7.140000000000001,62.11],[7.12,62.11],[7.12,62.1],[7.1000000000000005,62.1],[7.1000000000000005,62.09],[7.07,62.09],[7.07,62.08],[7.03,62.08],[7.03,62.09],[6.99,62.09],[6.99,62.1],[6.91,62.1],[6.91,62.09],[6.890000000000001,62.09],[6.890000000000001,62.11],[6.92,62.11],[6.92,62.120000000000005],[6.930000000000001,62.120000000000005],[6.930000000000001,62.13],[6.94,62.13],[6.95,62.15],[6.96,62.15],[6.96,62.160000000000004],[6.99,62.160000000000004],[7.0,62.18],[7.010000000000001,62.18],[7.010000000000001,62.22],[7.0,62.22],[7.0,62.29],[6.96,62.29],[6.96,62.31],[6.92,62.32],[6.92,62.35],[6.9,62.35],[6.9,62.38],[6.890000000000001,62.38],[6.890000000000001,62.39],[6.9,62.39],[6.9,62.42],[6.890000000000001,62.42],[6.890000000000001,62.43],[6.82,62.43],[6.82,62.440000000000005],[6.79,62.440000000000005],[6.79,62.43],[6.75,62.43],[6.74,62.45],[6.680000000000001,62.45],[6.680000000000001,62.440000000000005],[6.63,62.440000000000005],[6.63,62.43],[6.590000000000001,62.43],[6.590000000000001,62.42],[6.58,62.42],[6.58,62.36],[6.550000000000001,62.36],[6.550000000000001,62.39],[6.53,62.39],[6.53,62.4],[6.44,62.4],[6.44,62.39],[6.42,62.39],[6.42,62.35],[6.44,62.34],[6.45,62.300000000000004],[6.470000000000001,62.300000000000004],[6.470000000000001,62.27],[6.5,62.27],[6.5,62.260000000000005],[6.510000000000001,62.260000000000005],[6.510000000000001,62.24],[6.53,62.230000000000004],[6.54,62.21],[6.57,62.21],[6.57,62.22],[6.58,62.22],[6.58,62.21],[6.6000000000000005,62.21],[6.6000000000000005,62.2],[6.58,62.2],[6.58,62.17],[6.6000000000000005,62.160000000000004],[6.6000000000000005,62.14],[6.61,62.14],[6.6000000000000005,62.120000000000005],[6.550000000000001,62.120000000000005],[6.550000000000001,62.13],[6.5600000000000005,62.13],[6.5600000000000005,62.160000000000004],[6.550000000000001,62.160000000000004],[6.550000000000001,62.17],[6.53,62.18],[6.53,62.190000000000005],[6.5,62.190000000000005],[6.5,62.2],[6.48,62.2],[6.48,62.24],[6.42,62.27],[6.42,62.29],[6.4,62.300000000000004],[6.4,62.33],[6.38,62.33],[6.37,62.35],[6.3500000000000005,62.35],[6.3500000000000005,62.370000000000005],[6.28,62.370000000000005],[6.28,62.36],[6.23,62.36],[6.23,62.35],[6.21,62.35],[6.21,62.34],[6.180000000000001,62.34],[6.180000000000001,62.33],[6.15,62.33],[6.15,62.32],[6.1000000000000005,62.32],[6.1000000000000005,62.300000000000004],[6.07,62.300000000000004],[6.07,62.29],[6.04,62.29],[6.04,62.28],[6.010000000000001,62.28],[6.010000000000001,62.27],[5.99,62.27],[5.99,62.24],[6.010000000000001,62.230000000000004],[6.010000000000001,62.22],[6.050000000000001,62.22],[6.050000000000001,62.21],[6.1000000000000005,62.21],[6.1000000000000005,62.2],[6.12,62.2],[6.12,62.190000000000005],[6.07,62.190000000000005],[6.07,62.2],[5.99,62.2],[5.99,62.17],[6.03,62.17],[6.04,62.15],[6.0600000000000005,62.15],[6.07,62.13],[6.09,62.13],[6.1000000000000005,62.11],[6.140000000000001,62.11],[6.140000000000001,62.1],[6.2,62.1],[6.2,62.09],[6.2700000000000005,62.09],[6.2700000000000005,62.07],[6.21,62.07],[6.21,62.08],[6.15,62.08],[6.15,62.07],[6.140000000000001,62.07],[6.140000000000001,62.08],[6.11,62.08],[6.11,62.07],[6.09,62.07],[6.09,62.06],[6.08,62.06],[6.08,62.07],[6.0600000000000005,62.07],[6.0600000000000005,62.08],[6.07,62.08],[6.07,62.11],[6.04,62.11],[6.04,62.120000000000005],[6.0200000000000005,62.120000000000005],[6.010000000000001,62.14],[5.97,62.14],[5.97,62.11],[5.98,62.11],[5.98,62.1],[5.96,62.1],[5.95,62.08],[5.94,62.08],[5.94,62.07],[5.93,62.07],[5.93,62.06],[5.91,62.050000000000004],[5.91,62.04],[5.88,62.04],[5.88,62.050000000000004],[5.89,62.050000000000004],[5.89,62.06],[5.9,62.06],[5.9,62.07],[5.92,62.08],[5.93,62.1],[5.94,62.1],[5.94,62.17],[5.92,62.18],[5.92,62.190000000000005],[5.89,62.190000000000005],[5.89,62.2],[5.83,62.2],[5.83,62.190000000000005],[5.8,62.190000000000005],[5.8,62.18],[5.74,62.18],[5.74,62.17],[5.69,62.17],[5.69,62.14],[5.7,62.14],[5.7,62.120000000000005],[5.72,62.120000000000005],[5.72,62.11],[5.73,62.11],[5.74,62.09],[5.71,62.09],[5.71,62.1],[5.69,62.1],[5.68,62.120000000000005],[5.67,62.120000000000005],[5.67,62.14],[5.65,62.15],[5.64,62.17],[5.61,62.17],[5.61,62.160000000000004],[5.5600000000000005,62.160000000000004],[5.55,62.18],[5.53,62.18],[5.53,62.190000000000005],[5.45,62.190000000000005],[5.45,62.17],[5.43,62.17],[5.43,62.160000000000004],[5.42,62.160000000000004],[5.42,62.120000000000005],[5.43,62.120000000000005],[5.44,62.1],[5.57,62.1],[5.57,62.09],[5.6,62.09],[5.6,62.08],[5.62,62.08],[5.62,62.06],[5.59,62.06],[5.59,62.07],[5.53,62.07],[5.53,62.050000000000004],[5.51,62.050000000000004],[5.51,62.03],[5.48,62.03],[5.48,62.06],[5.46,62.06],[5.46,62.07],[5.42,62.07],[5.41,62.09],[5.37,62.09],[5.36,62.11],[5.34,62.11],[5.34,62.120000000000005],[5.3100000000000005,62.120000000000005],[5.3100000000000005,62.17],[5.26,62.17],[5.25,62.190000000000005],[5.23,62.190000000000005],[5.23,62.21],[5.18,62.21],[5.17,62.190000000000005],[5.11,62.2],[5.11,62.15],[5.14,62.15],[5.14,62.14],[5.16,62.14],[5.16,62.13],[5.15,62.13],[5.15,62.1],[5.26,62.1],[5.26,62.09],[5.28,62.09],[5.28,62.08],[5.32,62.08],[5.32,62.07],[5.33,62.07],[5.34,62.050000000000004],[5.35,62.050000000000004],[5.35,62.03],[5.34,62.03],[5.34,62.0],[5.33,62.0],[5.33,61.99],[5.3,61.99],[5.3,62.02],[5.26,62.02],[5.26,61.99],[5.25,61.99],[5.25,61.980000000000004],[5.23,61.980000000000004],[5.23,61.97],[5.2,61.97],[5.2,61.980000000000004],[5.18,61.980000000000004],[5.18,61.99],[5.16,61.99],[5.16,62.0],[5.14,62.0],[5.14,62.010000000000005],[5.13,62.010000000000005],[5.13,62.03],[5.1,62.03],[5.09,62.010000000000005],[5.05,62.010000000000005],[5.05,62.02],[5.03,62.02],[5.03,62.03],[4.98,62.03],[4.98,62.0],[5.0600000000000005,61.980000000000004],[5.0600000000000005,61.96],[5.04,61.96],[5.04,61.93],[5.13,61.93],[5.13,61.92],[5.16,61.92],[5.17,61.9],[5.21,61.9],[5.21,61.910000000000004],[5.34,61.910000000000004],[5.34,61.92],[5.36,61.92],[5.36,61.93],[5.41,61.93],[5.41,61.940000000000005],[5.45,61.940000000000005],[5.45,61.93],[5.59,61.93],[5.59,61.92],[5.67,61.92],[5.67,61.910000000000004],[5.73,61.910000000000004],[5.73,61.92],[5.96,61.92],[5.97,61.9],[5.95,61.9],[5.95,61.870000000000005],[5.98,61.870000000000005],[5.98,61.88],[6.0600000000000005,61.88],[6.0600000000000005,61.870000000000005],[6.08,61.870000000000005],[6.08,61.86],[6.12,61.86],[6.12,61.85],[6.24,61.86],[6.24,61.870000000000005],[6.25,61.870000000000005],[6.25,61.86],[6.3100000000000005,61.86],[6.3100000000000005,61.870000000000005],[6.32,61.870000000000005],[6.32,61.86],[6.36,61.86],[6.37,61.84],[6.41,61.84],[6.41,61.83],[6.53,61.83],[6.53,61.85],[6.550000000000001,61.86],[6.550000000000001,61.870000000000005],[6.5600000000000005,61.870000000000005],[6.57,61.89],[6.71,61.89],[6.71,61.88],[6.79,61.88],[6.79,61.870000000000005],[6.82,61.870000000000005],[6.82,61.84],[6.8100000000000005,61.84],[6.8100000000000005,61.85],[6.79,61.85],[6.79,61.86],[6.760000000000001,61.86],[6.760000000000001,61.870000000000005],[6.73,61.870000000000005],[6.73,61.86],[6.720000000000001,61.86],[6.720000000000001,61.870000000000005],[6.6000000000000005,61.870000000000005],[6.6000000000000005,61.85],[6.58,61.84],[6.58,61.83],[6.54,61.82],[6.54,61.81],[6.5,61.81],[6.5,61.800000000000004],[6.46,61.800000000000004],[6.46,61.81],[6.42,61.81],[6.42,61.82],[6.38,61.82],[6.38,61.83],[6.3500000000000005,61.83],[6.3500000000000005,61.84],[6.33,61.84],[6.33,61.85],[6.300000000000001,61.85],[6.300000000000001,61.84],[6.260000000000001,61.84],[6.260000000000001,61.85],[6.23,61.85],[6.23,61.84],[6.21,61.84],[6.21,61.83],[6.15,61.83],[6.15,61.800000000000004],[6.16,61.800000000000004],[6.16,61.79],[6.19,61.79],[6.19,61.760000000000005],[6.180000000000001,61.760000000000005],[6.180000000000001,61.77],[6.140000000000001,61.77],[6.140000000000001,61.78],[6.12,61.78],[6.12,61.800000000000004],[6.09,61.800000000000004],[6.09,61.81],[6.07,61.81],[6.07,61.83],[6.050000000000001,61.83],[6.050000000000001,61.84],[6.0,61.84],[6.0,61.83],[5.97,61.83],[5.97,61.85],[5.9,61.85],[5.9,61.86],[5.87,61.86],[5.87,61.85],[5.84,61.85],[5.84,61.84],[5.7700000000000005,61.84],[5.76,61.86],[5.73,61.86],[5.73,61.870000000000005],[5.72,61.870000000000005],[5.72,61.88],[5.7,61.88],[5.7,61.89],[5.5600000000000005,61.89],[5.5600000000000005,61.88],[5.55,61.88],[5.55,61.89],[5.54,61.89],[5.54,61.910000000000004],[5.51,61.910000000000004],[5.51,61.9],[5.47,61.9],[5.47,61.910000000000004],[5.45,61.910000000000004],[5.45,61.92],[5.42,61.92],[5.42,61.910000000000004],[5.38,61.910000000000004],[5.38,61.9],[5.35,61.9],[5.35,61.89],[5.3,61.89],[5.3,61.86],[5.34,61.86],[5.33,61.84],[5.3,61.84],[5.3,61.82],[5.24,61.82],[5.24,61.81],[5.23,61.81],[5.23,61.82],[5.2,61.82],[5.2,61.81],[5.14,61.81],[5.14,61.800000000000004],[5.13,61.800000000000004],[5.13,61.77],[5.17,61.77],[5.17,61.78],[5.26,61.78],[5.25,61.760000000000005],[5.21,61.760000000000005],[5.19,61.72],[5.11,61.730000000000004],[5.1,61.75],[5.01,61.75],[5.01,61.74],[4.99,61.74],[4.99,61.730000000000004],[4.97,61.730000000000004],[4.97,61.7],[4.98,61.7],[4.98,61.660000000000004],[5.01,61.660000000000004],[5.01,61.64],[5.03,61.64],[5.03,61.63],[5.0600000000000005,61.63],[5.0600000000000005,61.64],[5.14,61.64],[5.14,61.63],[5.19,61.63],[5.19,61.64],[5.22,61.64],[5.22,61.63],[5.23,61.63],[5.23,61.58],[5.26,61.58],[5.26,61.57],[5.32,61.57],[5.32,61.56],[5.33,61.56],[5.33,61.550000000000004],[5.28,61.550000000000004],[5.28,61.54],[5.25,61.54],[5.25,61.550000000000004],[5.18,61.550000000000004],[5.18,61.510000000000005],[5.21,61.510000000000005],[5.21,61.52],[5.22,61.52],[5.23,61.5],[5.3,61.5],[5.3,61.49],[5.47,61.49],[5.47,61.46],[5.5600000000000005,61.46],[5.5600000000000005,61.47],[5.63,61.47],[5.63,61.49],[5.67,61.49],[5.67,61.5],[5.7,61.5],[5.7,61.510000000000005],[5.74,61.510000000000005],[5.74,61.5],[5.79,61.5],[5.79,61.49],[5.8100000000000005,61.49],[5.8100000000000005,61.480000000000004],[5.76,61.480000000000004],[5.76,61.49],[5.7,61.49],[5.7,61.480000000000004],[5.67,61.480000000000004],[5.66,61.46],[5.63,61.46],[5.63,61.45],[5.5600000000000005,61.45],[5.5600000000000005,61.440000000000005],[5.48,61.440000000000005],[5.48,61.45],[5.45,61.45],[5.45,61.46],[5.43,61.46],[5.42,61.480000000000004],[5.35,61.480000000000004],[5.34,61.46],[5.32,61.46],[5.32,61.47],[5.28,61.47],[5.28,61.480000000000004],[5.25,61.480000000000004],[5.25,61.47],[5.24,61.47],[5.23,61.45],[5.15,61.45],[5.15,61.42],[5.11,61.410000000000004],[5.11,61.39],[5.1,61.39],[5.1,61.4],[5.04,61.4],[5.04,61.39],[5.03,61.39],[5.03,61.370000000000005],[4.94,61.370000000000005],[4.94,61.39],[4.91,61.39],[4.91,61.33],[4.95,61.33],[4.95,61.32],[5.01,61.32],[5.01,61.33],[5.03,61.33],[5.03,61.36],[5.04,61.36],[5.04,61.35],[5.07,61.35],[5.07,61.33],[5.15,61.33],[5.15,61.34],[5.19,61.35],[5.19,61.36],[5.28,61.36],[5.28,61.370000000000005],[5.32,61.370000000000005],[5.32,61.38],[5.4,61.38],[5.4,61.39],[5.42,61.39],[5.42,61.370000000000005],[5.39,61.370000000000005],[5.39,61.36],[5.32,61.36],[5.32,61.35],[5.29,61.35],[5.29,61.34],[5.25,61.34],[5.25,61.35],[5.22,61.35],[5.22,61.34],[5.21,61.34],[5.21,61.31],[5.2,61.31],[5.2,61.300000000000004],[5.18,61.300000000000004],[5.18,61.31],[5.12,61.31],[5.12,61.300000000000004],[5.04,61.300000000000004],[5.04,61.29],[5.0,61.29],[5.0,61.28],[4.97,61.28],[4.97,61.27],[4.95,61.27],[4.95,61.24],[4.98,61.24],[4.98,61.25],[5.0200000000000005,61.25],[5.0200000000000005,61.22],[5.11,61.22],[5.11,61.230000000000004],[5.18,61.230000000000004],[5.18,61.22],[5.24,61.22],[5.24,61.21],[5.28,61.21],[5.28,61.2],[5.2700000000000005,61.2],[5.2700000000000005,61.17],[5.24,61.17],[5.24,61.18],[5.22,61.18],[5.22,61.190000000000005],[5.2,61.190000000000005],[5.2,61.2],[5.09,61.2],[5.09,61.17],[5.11,61.17],[5.11,61.160000000000004],[5.15,61.160000000000004],[5.15,61.15],[5.17,61.15],[5.17,61.14],[5.2,61.14],[5.2,61.13],[5.22,61.13],[5.22,61.11],[5.34,61.120000000000005],[5.34,61.11],[5.35,61.11],[5.35,61.1],[5.37,61.1],[5.37,61.09],[5.38,61.09],[5.39,61.07],[5.42,61.07],[5.42,61.08],[5.47,61.08],[5.47,61.1],[5.53,61.1],[5.53,61.11],[5.5600000000000005,61.11],[5.5600000000000005,61.120000000000005],[5.59,61.120000000000005],[5.6,61.14],[5.66,61.14],[5.66,61.15],[5.68,61.15],[5.68,61.14],[5.72,61.14],[5.72,61.160000000000004],[5.73,61.160000000000004],[5.73,61.17],[5.8,61.17],[5.8,61.18],[5.83,61.18],[5.83,61.17],[5.9,61.17],[5.9,61.160000000000004],[5.93,61.160000000000004],[5.93,61.17],[5.99,61.17],[5.99,61.18],[6.010000000000001,61.18],[6.010000000000001,61.190000000000005],[6.04,61.190000000000005],[6.04,61.2],[6.0600000000000005,61.2],[6.0600000000000005,61.21],[6.07,61.21],[6.07,61.2],[6.09,61.2],[6.09,61.190000000000005],[6.0600000000000005,61.190000000000005],[6.0600000000000005,61.18],[6.04,61.18],[6.04,61.15],[6.1000000000000005,61.15],[6.1000000000000005,61.160000000000004],[6.180000000000001,61.160000000000004],[6.180000000000001,61.17],[6.2,61.18],[6.21,61.160000000000004],[6.24,61.160000000000004],[6.25,61.14],[6.300000000000001,61.14],[6.300000000000001,61.13],[6.340000000000001,61.13],[6.340000000000001,61.120000000000005],[6.36,61.120000000000005],[6.36,61.11],[6.41,61.11],[6.41,61.120000000000005],[6.49,61.120000000000005],[6.49,61.14],[6.5,61.14],[6.5,61.13],[6.53,61.13],[6.53,61.14],[6.550000000000001,61.14],[6.550000000000001,61.17],[6.53,61.18],[6.53,61.21],[6.550000000000001,61.21],[6.550000000000001,61.25],[6.54,61.25],[6.53,61.27],[6.54,61.27],[6.54,61.28],[6.57,61.28],[6.57,61.260000000000005],[6.61,61.260000000000005],[6.61,61.27],[6.63,61.27],[6.63,61.28],[6.65,61.28],[6.65,61.31],[6.67,61.31],[6.67,61.33],[6.69,61.33],[6.69,61.35],[6.720000000000001,61.35],[6.720000000000001,61.370000000000005],[6.73,61.370000000000005],[6.73,61.38],[6.760000000000001,61.38],[6.74,61.34],[6.7,61.33],[6.7,61.31],[6.680000000000001,61.31],[6.680000000000001,61.28],[6.67,61.28],[6.67,61.27],[6.640000000000001,61.27],[6.640000000000001,61.25],[6.61,61.25],[6.61,61.24],[6.6000000000000005,61.24],[6.6000000000000005,61.21],[6.680000000000001,61.21],[6.680000000000001,61.2],[6.7,61.2],[6.7,61.190000000000005],[6.720000000000001,61.190000000000005],[6.720000000000001,61.18],[6.75,61.18],[6.75,61.190000000000005],[6.86,61.190000000000005],[6.86,61.17],[6.9,61.17],[6.9,61.160000000000004],[6.95,61.160000000000004],[6.95,61.17],[7.010000000000001,61.17],[7.010000000000001,61.190000000000005],[7.03,61.190000000000005],[7.03,61.2],[7.0600000000000005,61.2],[7.0600000000000005,61.21],[7.1000000000000005,61.21],[7.11,61.230000000000004],[7.12,61.230000000000004],[7.13,61.21],[7.15,61.21],[7.15,61.2],[7.090000000000001,61.2],[7.090000000000001,61.190000000000005],[7.04,61.190000000000005],[7.04,61.17],[7.0,61.160000000000004],[7.0,61.15],[6.94,61.15],[6.94,61.120000000000005],[6.95,61.120000000000005],[6.95,61.11],[6.99,61.11],[7.0,61.13],[7.050000000000001,61.13],[7.050000000000001,61.14],[7.140000000000001,61.14],[7.140000000000001,61.15],[7.17,61.15],[7.180000000000001,61.17],[7.2700000000000005,61.17],[7.2700000000000005,61.160000000000004],[7.300000000000001,61.160000000000004],[7.300000000000001,61.17],[7.3100000000000005,61.17],[7.3100000000000005,61.160000000000004],[7.3500000000000005,61.160000000000004],[7.3500000000000005,61.17],[7.36,61.17],[7.36,61.21],[7.340000000000001,61.22],[7.340000000000001,61.25],[7.33,61.25],[7.32,61.27],[7.300000000000001,61.27],[7.300000000000001,61.28],[7.260000000000001,61.28],[7.260000000000001,61.300000000000004],[7.2700000000000005,61.300000000000004],[7.2700000000000005,61.31],[7.29,61.31],[7.300000000000001,61.33],[7.33,61.33],[7.33,61.34],[7.340000000000001,61.34],[7.340000000000001,61.370000000000005],[7.33,61.370000000000005],[7.33,61.38],[7.29,61.38],[7.29,61.4],[7.32,61.4],[7.32,61.39],[7.340000000000001,61.39],[7.340000000000001,61.38],[7.37,61.38],[7.38,61.4],[7.4,61.4],[7.4,61.410000000000004],[7.44,61.410000000000004],[7.44,61.43],[7.45,61.43],[7.46,61.45],[7.49,61.45],[7.49,61.46],[7.5200000000000005,61.46],[7.5200000000000005,61.47],[7.550000000000001,61.47],[7.550000000000001,61.480000000000004],[7.57,61.480000000000004],[7.57,61.49],[7.6000000000000005,61.49],[7.6000000000000005,61.47],[7.57,61.47],[7.5600000000000005,61.45],[7.5200000000000005,61.45],[7.5200000000000005,61.440000000000005],[7.5,61.440000000000005],[7.5,61.43],[7.49,61.43],[7.48,61.410000000000004],[7.470000000000001,61.410000000000004],[7.46,61.39],[7.430000000000001,61.39],[7.430000000000001,61.38],[7.41,61.370000000000005],[7.41,61.36],[7.4,61.36],[7.4,61.34],[7.390000000000001,61.34],[7.38,61.32],[7.340000000000001,61.31],[7.340000000000001,61.28],[7.38,61.27],[7.38,61.24],[7.390000000000001,61.24],[7.390000000000001,61.21],[7.4,61.21],[7.4,61.2],[7.48,61.2],[7.48,61.21],[7.58,61.21],[7.58,61.22],[7.63,61.22],[7.63,61.230000000000004],[7.65,61.230000000000004],[7.65,61.24],[7.7,61.24],[7.7,61.22],[7.65,61.22],[7.640000000000001,61.2],[7.61,61.2],[7.61,61.190000000000005],[7.49,61.190000000000005],[7.49,61.18],[7.430000000000001,61.17],[7.430000000000001,61.160000000000004],[7.42,61.160000000000004],[7.42,61.120000000000005],[7.44,61.120000000000005],[7.430000000000001,61.1],[7.390000000000001,61.11],[7.390000000000001,61.120000000000005],[7.33,61.120000000000005],[7.33,61.13],[7.29,61.13],[7.29,61.14],[7.2700000000000005,61.14],[7.2700000000000005,61.15],[7.24,61.15],[7.24,61.14],[7.220000000000001,61.13],[7.220000000000001,61.120000000000005],[7.21,61.120000000000005],[7.21,61.11],[7.17,61.11],[7.17,61.120000000000005],[7.140000000000001,61.120000000000005],[7.140000000000001,61.11],[7.12,61.11],[7.12,61.1],[7.11,61.1],[7.11,61.11],[7.04,61.11],[7.04,61.07],[7.050000000000001,61.07],[7.050000000000001,61.06],[7.04,61.06],[7.04,61.03],[7.050000000000001,61.03],[7.050000000000001,61.02],[7.07,61.010000000000005],[7.07,60.99],[7.090000000000001,60.980000000000004],[7.090000000000001,60.97],[7.13,60.97],[7.13,60.96],[7.17,60.96],[7.17,60.95],[7.19,60.95],[7.19,60.92],[7.2,60.92],[7.19,60.9],[7.16,60.9],[7.16,60.92],[7.15,60.92],[7.15,60.940000000000005],[7.140000000000001,60.940000000000005],[7.140000000000001,60.95],[7.1000000000000005,60.95],[7.1000000000000005,60.96],[7.0600000000000005,60.97],[7.0600000000000005,60.980000000000004],[7.03,60.980000000000004],[7.03,60.97],[7.0,60.97],[7.0,60.96],[6.970000000000001,60.96],[6.970000000000001,60.95],[6.96,60.95],[6.95,60.97],[6.98,60.97],[6.98,60.980000000000004],[7.0,60.980000000000004],[7.0,60.99],[7.03,60.99],[7.03,61.02],[7.010000000000001,61.03],[7.010000000000001,61.07],[7.0,61.07],[7.0,61.08],[6.970000000000001,61.08],[6.970000000000001,61.09],[6.94,61.09],[6.94,61.08],[6.9,61.08],[6.9,61.09],[6.87,61.09],[6.87,61.14],[6.8500000000000005,61.14],[6.8500000000000005,61.15],[6.82,61.15],[6.82,61.14],[6.78,61.14],[6.78,61.15],[6.67,61.15],[6.67,61.17],[6.63,61.17],[6.63,61.15],[6.62,61.15],[6.61,61.13],[6.6000000000000005,61.13],[6.6000000000000005,61.1],[6.5200000000000005,61.1],[6.510000000000001,61.08],[6.45,61.08],[6.45,61.07],[6.44,61.07],[6.44,61.04],[6.42,61.04],[6.42,61.010000000000005],[6.41,61.010000000000005],[6.41,61.0],[6.37,61.0],[6.37,61.02],[6.390000000000001,61.02],[6.390000000000001,61.04],[6.4,61.04],[6.4,61.07],[6.340000000000001,61.07],[6.340000000000001,61.06],[6.32,61.050000000000004],[6.32,61.06],[6.3100000000000005,61.06],[6.3100000000000005,61.09],[6.29,61.09],[6.29,61.1],[6.15,61.11],[6.15,61.120000000000005],[6.12,61.120000000000005],[6.12,61.11],[6.03,61.11],[6.03,61.120000000000005],[5.96,61.120000000000005],[5.96,61.13],[5.88,61.13],[5.88,61.1],[5.87,61.1],[5.87,61.09],[5.84,61.09],[5.84,61.07],[5.8100000000000005,61.07],[5.8100000000000005,61.09],[5.82,61.09],[5.82,61.120000000000005],[5.78,61.120000000000005],[5.78,61.11],[5.76,61.11],[5.76,61.1],[5.72,61.1],[5.72,61.09],[5.64,61.1],[5.64,61.09],[5.61,61.09],[5.61,61.08],[5.58,61.08],[5.58,61.06],[5.5,61.06],[5.5,61.050000000000004],[5.49,61.050000000000004],[5.49,61.0],[5.48,61.0],[5.48,61.010000000000005],[5.46,61.010000000000005],[5.46,61.02],[5.4,61.02],[5.4,61.03],[5.32,61.03],[5.32,61.04],[5.3,61.04],[5.3,61.06],[5.29,61.06],[5.29,61.07],[5.26,61.07],[5.26,61.06],[5.25,61.06],[5.25,61.07],[5.18,61.07],[5.18,61.08],[5.14,61.08],[5.14,61.07],[5.08,61.07],[5.08,61.06],[5.05,61.06],[5.05,61.04],[5.04,61.04],[5.04,61.0],[5.01,61.0],[5.01,61.010000000000005],[4.94,61.010000000000005],[4.94,60.96],[4.97,60.96],[4.97,60.95],[4.99,60.95],[4.99,60.940000000000005],[4.97,60.940000000000005],[4.97,60.92],[4.96,60.92],[4.96,60.89],[4.98,60.89],[4.98,60.85],[5.0200000000000005,60.85],[5.0200000000000005,60.88],[5.03,60.88],[5.03,60.89],[5.05,60.89],[5.05,60.870000000000005],[5.0600000000000005,60.870000000000005],[5.0600000000000005,60.86],[5.08,60.85],[5.08,60.83],[5.16,60.83],[5.16,60.81],[5.19,60.81],[5.2,60.83],[5.24,60.82],[5.24,60.81],[5.3100000000000005,60.81],[5.3100000000000005,60.83],[5.33,60.83],[5.33,60.85],[5.35,60.86],[5.36,60.88],[5.45,60.88],[5.45,60.89],[5.53,60.88],[5.53,60.86],[5.5,60.86],[5.5,60.870000000000005],[5.45,60.870000000000005],[5.45,60.86],[5.37,60.86],[5.37,60.83],[5.38,60.83],[5.38,60.82],[5.35,60.82],[5.35,60.81],[5.33,60.800000000000004],[5.33,60.79],[5.28,60.79],[5.28,60.760000000000005],[5.29,60.760000000000005],[5.29,60.75],[5.35,60.75],[5.35,60.74],[5.38,60.74],[5.39,60.72],[5.4,60.72],[5.4,60.71],[5.42,60.71],[5.42,60.7],[5.46,60.690000000000005],[5.45,60.67],[5.43,60.67],[5.43,60.660000000000004],[5.42,60.660000000000004],[5.42,60.65],[5.41,60.65],[5.41,60.660000000000004],[5.39,60.660000000000004],[5.39,60.67],[5.35,60.67],[5.35,60.68],[5.34,60.68],[5.34,60.72],[5.32,60.72],[5.32,60.730000000000004],[5.28,60.730000000000004],[5.28,60.74],[5.26,60.74],[5.26,60.75],[5.23,60.75],[5.23,60.74],[5.22,60.74],[5.22,60.75],[5.18,60.75],[5.18,60.77],[5.16,60.77],[5.16,60.78],[5.13,60.78],[5.13,60.77],[5.12,60.77],[5.12,60.78],[5.08,60.78],[5.08,60.79],[5.07,60.79],[5.0600000000000005,60.81],[5.0,60.81],[5.0,60.82],[4.97,60.82],[4.97,60.81],[4.95,60.81],[4.95,60.800000000000004],[4.91,60.800000000000004],[4.91,60.79],[4.88,60.79],[4.88,60.760000000000005],[4.91,60.760000000000005],[4.91,60.75],[4.94,60.75],[4.94,60.74],[5.0,60.74],[5.0,60.760000000000005],[5.03,60.760000000000005],[5.03,60.77],[5.04,60.77],[5.0600000000000005,60.730000000000004],[5.13,60.730000000000004],[5.13,60.74],[5.14,60.74],[5.14,60.730000000000004],[5.18,60.730000000000004],[5.18,60.68],[5.21,60.68],[5.21,60.67],[5.23,60.67],[5.23,60.63],[5.22,60.63],[5.22,60.64],[5.2,60.64],[5.2,60.660000000000004],[5.19,60.660000000000004],[5.19,60.67],[5.15,60.67],[5.15,60.68],[5.13,60.68],[5.13,60.690000000000005],[5.09,60.7],[5.09,60.71],[5.0600000000000005,60.71],[5.0600000000000005,60.7],[5.05,60.7],[5.05,60.71],[5.03,60.71],[5.03,60.730000000000004],[5.0,60.730000000000004],[5.0,60.72],[4.93,60.72],[4.93,60.730000000000004],[4.9,60.730000000000004],[4.9,60.72],[4.89,60.72],[4.89,60.690000000000005],[4.94,60.690000000000005],[4.94,60.68],[4.95,60.68],[4.95,60.67],[4.94,60.67],[4.94,60.63],[4.98,60.63],[4.98,60.65],[5.0,60.660000000000004],[5.0,60.65],[5.0200000000000005,60.64],[5.0200000000000005,60.63],[5.0600000000000005,60.63],[5.0600000000000005,60.620000000000005],[5.08,60.620000000000005],[5.08,60.61],[5.14,60.61],[5.14,60.6],[5.2,60.59],[5.21,60.57],[5.24,60.57],[5.24,60.56],[5.26,60.56],[5.26,60.550000000000004],[5.3100000000000005,60.550000000000004],[5.3100000000000005,60.56],[5.34,60.56],[5.34,60.57],[5.37,60.57],[5.38,60.59],[5.41,60.59],[5.41,60.6],[5.46,60.6],[5.47,60.620000000000005],[5.49,60.620000000000005],[5.49,60.63],[5.57,60.63],[5.57,60.64],[5.59,60.65],[5.59,60.68],[5.55,60.68],[5.55,60.690000000000005],[5.5600000000000005,60.690000000000005],[5.5600000000000005,60.7],[5.6,60.7],[5.6,60.71],[5.63,60.71],[5.64,60.730000000000004],[5.65,60.730000000000004],[5.65,60.74],[5.67,60.730000000000004],[5.67,60.71],[5.74,60.71],[5.74,60.7],[5.76,60.7],[5.76,60.660000000000004],[5.74,60.660000000000004],[5.74,60.58],[5.73,60.58],[5.73,60.480000000000004],[5.74,60.480000000000004],[5.74,60.46],[5.73,60.46],[5.73,60.45],[5.65,60.46],[5.65,60.45],[5.63,60.440000000000005],[5.63,60.43],[5.59,60.43],[5.59,60.42],[5.58,60.42],[5.58,60.43],[5.55,60.43],[5.55,60.42],[5.5,60.42],[5.49,60.440000000000005],[5.45,60.440000000000005],[5.45,60.46],[5.43,60.46],[5.43,60.480000000000004],[5.41,60.480000000000004],[5.41,60.49],[5.37,60.5],[5.37,60.510000000000005],[5.33,60.510000000000005],[5.33,60.52],[5.2700000000000005,60.52],[5.2700000000000005,60.510000000000005],[5.26,60.510000000000005],[5.26,60.47],[5.2700000000000005,60.47],[5.2700000000000005,60.45],[5.29,60.45],[5.29,60.42],[5.3100000000000005,60.42],[5.3100000000000005,60.4],[5.32,60.4],[5.32,60.39],[5.3100000000000005,60.39],[5.3100000000000005,60.38],[5.3,60.38],[5.3,60.39],[5.21,60.39],[5.21,60.38],[5.19,60.38],[5.19,60.370000000000005],[5.18,60.370000000000005],[5.18,60.33],[5.21,60.33],[5.21,60.34],[5.25,60.34],[5.25,60.33],[5.2700000000000005,60.33],[5.2700000000000005,60.32],[5.21,60.32],[5.21,60.28],[5.22,60.28],[5.22,60.27],[5.24,60.27],[5.24,60.25],[5.28,60.25],[5.28,60.260000000000005],[5.3,60.260000000000005],[5.3,60.27],[5.3100000000000005,60.27],[5.3100000000000005,60.260000000000005],[5.33,60.260000000000005],[5.33,60.230000000000004],[5.37,60.230000000000004],[5.37,60.21],[5.35,60.21],[5.35,60.18],[5.34,60.18],[5.34,60.15],[5.35,60.15],[5.35,60.14],[5.39,60.14],[5.39,60.15],[5.41,60.15],[5.41,60.14],[5.45,60.14],[5.45,60.15],[5.46,60.15],[5.46,60.18],[5.47,60.18],[5.47,60.190000000000005],[5.53,60.190000000000005],[5.53,60.2],[5.55,60.21],[5.55,60.22],[5.5600000000000005,60.22],[5.57,60.260000000000005],[5.58,60.260000000000005],[5.59,60.28],[5.61,60.28],[5.61,60.300000000000004],[5.63,60.31],[5.63,60.34],[5.65,60.35],[5.65,60.36],[5.68,60.36],[5.68,60.38],[5.72,60.38],[5.72,60.4],[5.76,60.4],[5.76,60.39],[5.7700000000000005,60.39],[5.76,60.370000000000005],[5.71,60.370000000000005],[5.71,60.36],[5.67,60.35],[5.67,60.34],[5.66,60.34],[5.66,60.31],[5.64,60.300000000000004],[5.64,60.25],[5.66,60.25],[5.66,60.24],[5.69,60.24],[5.69,60.25],[5.73,60.25],[5.74,60.230000000000004],[5.65,60.230000000000004],[5.65,60.22],[5.64,60.22],[5.63,60.2],[5.6,60.2],[5.6,60.18],[5.59,60.18],[5.59,60.15],[5.66,60.15],[5.66,60.160000000000004],[5.69,60.160000000000004],[5.69,60.18],[5.7,60.18],[5.7,60.190000000000005],[5.74,60.190000000000005],[5.74,60.18],[5.73,60.18],[5.73,60.15],[5.75,60.15],[5.75,60.14],[5.76,60.14],[5.76,60.13],[5.74,60.120000000000005],[5.74,60.08],[5.76,60.08],[5.75,60.06],[5.69,60.06],[5.69,60.08],[5.65,60.08],[5.65,60.07],[5.64,60.07],[5.63,60.050000000000004],[5.62,60.050000000000004],[5.61,60.07],[5.5600000000000005,60.07],[5.5600000000000005,60.06],[5.54,60.06],[5.54,60.050000000000004],[5.48,60.050000000000004],[5.48,60.04],[5.47,60.04],[5.47,60.0],[5.49,60.0],[5.49,59.980000000000004],[5.48,59.980000000000004],[5.48,59.99],[5.44,59.99],[5.44,60.0],[5.41,60.0],[5.42,60.02],[5.44,60.02],[5.43,60.08],[5.36,60.08],[5.36,60.050000000000004],[5.35,60.050000000000004],[5.35,60.010000000000005],[5.36,60.010000000000005],[5.36,59.99],[5.38,59.99],[5.39,59.97],[5.43,59.97],[5.43,59.96],[5.46,59.96],[5.46,59.95],[5.49,59.95],[5.49,59.96],[5.51,59.96],[5.51,59.93],[5.53,59.92],[5.53,59.9],[5.57,59.9],[5.57,59.89],[5.59,59.88],[5.59,59.870000000000005],[5.57,59.870000000000005],[5.57,59.84],[5.61,59.84],[5.62,59.9],[5.66,59.9],[5.66,59.93],[5.63,59.93],[5.63,59.96],[5.65,59.97],[5.65,59.980000000000004],[5.68,59.980000000000004],[5.68,59.99],[5.69,59.99],[5.7,60.03],[5.73,60.03],[5.73,60.010000000000005],[5.74,60.010000000000005],[5.74,60.0],[5.76,60.0],[5.76,59.99],[5.8,59.99],[5.8,60.0],[5.8100000000000005,60.0],[5.8100000000000005,59.99],[5.86,59.99],[5.87,60.010000000000005],[5.9,60.010000000000005],[5.9,60.02],[5.92,60.03],[5.92,60.1],[5.9,60.11],[5.9,60.17],[5.96,60.17],[5.96,60.21],[5.97,60.21],[5.97,60.22],[5.99,60.22],[5.99,60.230000000000004],[6.0,60.230000000000004],[6.0,60.24],[6.0200000000000005,60.25],[6.0200000000000005,60.28],[6.03,60.28],[6.03,60.27],[6.050000000000001,60.27],[6.050000000000001,60.260000000000005],[6.12,60.260000000000005],[6.12,60.25],[6.17,60.25],[6.17,60.27],[6.180000000000001,60.27],[6.180000000000001,60.300000000000004],[6.17,60.300000000000004],[6.17,60.31],[6.180000000000001,60.31],[6.180000000000001,60.35],[6.17,60.35],[6.17,60.36],[6.180000000000001,60.36],[6.180000000000001,60.370000000000005],[6.2,60.370000000000005],[6.2,60.38],[6.2700000000000005,60.38],[6.2700000000000005,60.4],[6.3500000000000005,60.4],[6.3500000000000005,60.410000000000004],[6.37,60.410000000000004],[6.37,60.42],[6.42,60.42],[6.42,60.43],[6.46,60.43],[6.46,60.440000000000005],[6.48,60.440000000000005],[6.48,60.45],[6.510000000000001,60.45],[6.510000000000001,60.46],[6.6000000000000005,60.46],[6.61,60.480000000000004],[6.640000000000001,60.480000000000004],[6.640000000000001,60.49],[6.67,60.49],[6.66,60.47],[6.65,60.47],[6.65,60.440000000000005],[6.67,60.440000000000005],[6.67,60.43],[6.7,60.43],[6.71,60.45],[6.74,60.45],[6.75,60.47],[6.79,60.47],[6.79,60.480000000000004],[6.83,60.480000000000004],[6.83,60.49],[6.890000000000001,60.49],[6.890000000000001,60.5],[6.91,60.5],[6.91,60.53],[6.9,60.53],[6.9,60.54],[6.95,60.54],[6.96,60.56],[6.99,60.56],[6.99,60.57],[7.010000000000001,60.57],[7.010000000000001,60.56],[7.0,60.56],[7.0,60.550000000000004],[6.98,60.550000000000004],[6.98,60.54],[6.96,60.54],[6.96,60.510000000000005],[6.99,60.510000000000005],[6.99,60.5],[7.03,60.5],[7.03,60.49],[7.090000000000001,60.49],[7.090000000000001,60.5],[7.12,60.5],[7.12,60.49],[7.11,60.49],[7.11,60.480000000000004],[7.090000000000001,60.480000000000004],[7.090000000000001,60.47],[7.0600000000000005,60.47],[7.0600000000000005,60.46],[7.04,60.47],[7.04,60.480000000000004],[6.95,60.480000000000004],[6.95,60.47],[6.9,60.47],[6.9,60.46],[6.890000000000001,60.46],[6.890000000000001,60.47],[6.83,60.47],[6.83,60.46],[6.800000000000001,60.46],[6.79,60.440000000000005],[6.7700000000000005,60.440000000000005],[6.7700000000000005,60.43],[6.75,60.43],[6.75,60.410000000000004],[6.73,60.410000000000004],[6.73,60.38],[6.680000000000001,60.38],[6.680000000000001,60.370000000000005],[6.67,60.370000000000005],[6.67,60.35],[6.65,60.35],[6.65,60.300000000000004],[6.640000000000001,60.300000000000004],[6.640000000000001,60.29],[6.62,60.28],[6.62,60.24],[6.6000000000000005,60.230000000000004],[6.6000000000000005,60.2],[6.590000000000001,60.2],[6.590000000000001,60.18],[6.58,60.18],[6.58,60.15],[6.5600000000000005,60.14],[6.5600000000000005,60.08],[6.53,60.08],[6.53,60.14],[6.550000000000001,60.15],[6.550000000000001,60.2],[6.57,60.2],[6.57,60.260000000000005],[6.58,60.260000000000005],[6.58,60.27],[6.590000000000001,60.27],[6.590000000000001,60.28],[6.61,60.29],[6.61,60.33],[6.62,60.33],[6.62,60.36],[6.63,60.36],[6.63,60.370000000000005],[6.65,60.38],[6.65,60.410000000000004],[6.63,60.42],[6.63,60.43],[6.54,60.43],[6.54,60.42],[6.5200000000000005,60.42],[6.5200000000000005,60.410000000000004],[6.510000000000001,60.410000000000004],[6.510000000000001,60.4],[6.5,60.4],[6.49,60.38],[6.45,60.38],[6.45,60.370000000000005],[6.36,60.370000000000005],[6.36,60.33],[6.33,60.33],[6.32,60.31],[6.29,60.31],[6.29,60.300000000000004],[6.24,60.300000000000004],[6.24,60.28],[6.23,60.28],[6.220000000000001,60.260000000000005],[6.21,60.260000000000005],[6.21,60.25],[6.2,60.25],[6.19,60.230000000000004],[6.180000000000001,60.230000000000004],[6.180000000000001,60.22],[6.1000000000000005,60.22],[6.1000000000000005,60.17],[6.11,60.17],[6.11,60.160000000000004],[6.13,60.160000000000004],[6.13,60.14],[6.15,60.14],[6.15,60.13],[6.16,60.13],[6.16,60.11],[6.19,60.11],[6.19,60.120000000000005],[6.21,60.120000000000005],[6.21,60.13],[6.260000000000001,60.13],[6.260000000000001,60.160000000000004],[6.29,60.160000000000004],[6.29,60.120000000000005],[6.2700000000000005,60.120000000000005],[6.2700000000000005,60.11],[6.220000000000001,60.11],[6.220000000000001,60.1],[6.180000000000001,60.1],[6.180000000000001,60.09],[6.09,60.09],[6.09,60.08],[6.07,60.08],[6.07,60.07],[6.0200000000000005,60.07],[6.0200000000000005,60.04],[6.010000000000001,60.04],[6.010000000000001,60.03],[5.99,60.02],[5.99,59.99],[6.010000000000001,59.99],[6.010000000000001,59.980000000000004],[6.0,59.980000000000004],[6.0,59.97],[5.99,59.97],[5.98,59.95],[5.89,59.95],[5.89,59.940000000000005],[5.87,59.940000000000005],[5.87,59.93],[5.84,59.93],[5.84,59.940000000000005],[5.8,59.940000000000005],[5.8,59.93],[5.79,59.93],[5.78,59.910000000000004],[5.7700000000000005,59.910000000000004],[5.7700000000000005,59.88],[5.78,59.88],[5.78,59.870000000000005],[5.73,59.870000000000005],[5.73,59.83],[5.79,59.83],[5.8,59.81],[5.8100000000000005,59.81],[5.8100000000000005,59.79],[5.84,59.79],[5.84,59.78],[5.86,59.78],[5.86,59.77],[5.89,59.77],[5.89,59.78],[5.91,59.78],[5.91,59.79],[5.92,59.79],[5.92,59.800000000000004],[5.95,59.800000000000004],[5.95,59.81],[5.96,59.81],[5.96,59.85],[5.97,59.85],[5.97,59.86],[5.99,59.86],[5.99,59.81],[5.97,59.800000000000004],[5.97,59.77],[5.98,59.77],[5.98,59.760000000000005],[6.0,59.760000000000005],[6.0,59.75],[6.03,59.75],[6.03,59.760000000000005],[6.08,59.760000000000005],[6.08,59.77],[6.1000000000000005,59.77],[6.1000000000000005,59.79],[6.15,59.79],[6.15,59.800000000000004],[6.17,59.800000000000004],[6.180000000000001,59.82],[6.2,59.82],[6.2,59.83],[6.23,59.83],[6.23,59.84],[6.2700000000000005,59.84],[6.2700000000000005,59.85],[6.33,59.85],[6.33,59.86],[6.36,59.86],[6.36,59.85],[6.3500000000000005,59.85],[6.3500000000000005,59.84],[6.33,59.84],[6.33,59.83],[6.25,59.83],[6.25,59.82],[6.23,59.82],[6.23,59.81],[6.19,59.800000000000004],[6.19,59.79],[6.16,59.79],[6.16,59.78],[6.140000000000001,59.78],[6.140000000000001,59.77],[6.12,59.760000000000005],[6.12,59.75],[6.11,59.75],[6.11,59.74],[6.09,59.74],[6.09,59.730000000000004],[6.08,59.730000000000004],[6.08,59.74],[6.0200000000000005,59.74],[6.0200000000000005,59.730000000000004],[5.98,59.730000000000004],[5.98,59.74],[5.96,59.74],[5.96,59.75],[5.93,59.75],[5.93,59.730000000000004],[5.86,59.730000000000004],[5.86,59.71],[5.85,59.71],[5.85,59.7],[5.8100000000000005,59.7],[5.8100000000000005,59.690000000000005],[5.8,59.690000000000005],[5.8,59.660000000000004],[5.88,59.660000000000004],[5.88,59.67],[5.9,59.67],[5.9,59.68],[5.91,59.68],[5.92,59.660000000000004],[5.9,59.660000000000004],[5.9,59.64],[5.8100000000000005,59.64],[5.8100000000000005,59.61],[5.8,59.61],[5.8,59.6],[5.78,59.6],[5.78,59.59],[5.76,59.6],[5.76,59.61],[5.7700000000000005,59.61],[5.7700000000000005,59.65],[5.73,59.65],[5.73,59.660000000000004],[5.65,59.660000000000004],[5.65,59.67],[5.62,59.67],[5.62,59.68],[5.5600000000000005,59.67],[5.5600000000000005,59.63],[5.54,59.63],[5.54,59.64],[5.53,59.64],[5.53,59.67],[5.54,59.67],[5.54,59.72],[5.5,59.72],[5.5,59.71],[5.47,59.71],[5.47,59.7],[5.45,59.7],[5.45,59.690000000000005],[5.44,59.690000000000005],[5.44,59.660000000000004],[5.43,59.660000000000004],[5.43,59.67],[5.37,59.67],[5.37,59.68],[5.36,59.68],[5.36,59.71],[5.33,59.71],[5.33,59.7],[5.3100000000000005,59.7],[5.3100000000000005,59.690000000000005],[5.3,59.690000000000005],[5.3,59.7],[5.2700000000000005,59.7],[5.2700000000000005,59.71],[5.25,59.71],[5.24,59.75],[5.25,59.75],[5.25,59.74],[5.2700000000000005,59.74],[5.2700000000000005,59.730000000000004],[5.34,59.730000000000004],[5.34,59.760000000000005],[5.33,59.760000000000005],[5.32,59.78],[5.3100000000000005,59.78],[5.3100000000000005,59.800000000000004],[5.3,59.800000000000004],[5.3,59.81],[5.28,59.81],[5.28,59.82],[5.25,59.82],[5.25,59.85],[5.23,59.85],[5.23,59.86],[5.2,59.86],[5.2,59.870000000000005],[5.17,59.870000000000005],[5.17,59.84],[5.19,59.84],[5.19,59.83],[5.16,59.83],[5.16,59.82],[5.12,59.81],[5.12,59.79],[5.11,59.79],[5.11,59.760000000000005],[5.13,59.760000000000005],[5.13,59.74],[5.09,59.74],[5.09,59.75],[5.04,59.75],[5.04,59.760000000000005],[4.96,59.77],[4.96,59.78],[4.91,59.78],[4.91,59.79],[4.87,59.79],[4.87,59.800000000000004],[4.83,59.800000000000004],[4.83,59.81],[4.78,59.81],[4.78,59.82],[4.7,59.83],[4.7,59.84],[4.65,59.84],[4.65,59.85],[4.57,59.86],[4.57,59.870000000000005],[4.5200000000000005,59.870000000000005],[4.5200000000000005,59.88],[4.48,59.88],[4.48,59.89],[4.44,59.89],[4.44,59.9],[4.39,59.9],[4.39,59.910000000000004],[4.35,59.910000000000004],[4.35,59.92],[4.31,59.92],[4.31,59.93],[4.26,59.93],[4.26,59.940000000000005],[4.22,59.940000000000005],[4.22,59.95],[4.17,59.95],[4.17,59.96],[4.09,59.97],[4.09,59.980000000000004],[4.04,59.980000000000004],[4.04,59.99],[4.0,59.99],[4.0,60.0],[3.95,60.0],[3.95,60.010000000000005],[3.91,60.010000000000005],[3.91,60.02],[3.8600000000000003,60.02],[3.8600000000000003,60.03],[3.8200000000000003,60.03],[3.8200000000000003,60.04],[3.77,60.04],[3.77,60.050000000000004],[3.73,60.050000000000004],[3.73,60.06],[3.69,60.06],[3.69,60.07],[3.63,60.07],[3.63,60.08],[3.59,60.08],[3.59,60.09],[3.54,60.09],[3.54,60.1],[3.5,60.1],[3.5,60.11],[3.45,60.11],[3.45,60.120000000000005],[3.41,60.120000000000005],[3.41,60.13],[3.3600000000000003,60.13],[3.3600000000000003,60.14],[3.3200000000000003,60.14],[3.3200000000000003,60.15],[3.26,60.15],[3.26,60.160000000000004],[3.2199999999999998,60.160000000000004],[3.2199999999999998,60.17],[3.17,60.17],[3.17,60.18],[3.13,60.18],[3.13,60.190000000000005],[3.08,60.190000000000005],[3.08,60.2],[3.02,60.2],[3.02,60.21],[2.98,60.21],[2.98,60.22],[2.93,60.22],[2.93,60.230000000000004],[2.89,60.230000000000004],[2.89,60.24],[2.84,60.24],[2.84,60.25],[2.8,60.25],[2.8,60.260000000000005],[2.75,60.260000000000005],[2.75,60.27],[2.69,60.27],[2.69,60.28],[2.65,60.28],[2.65,60.29],[2.6,60.29],[2.6,60.300000000000004],[2.56,60.300000000000004],[2.56,60.31],[2.5,60.31],[2.5,60.32],[2.45,60.32],[2.45,60.33],[2.41,60.33],[2.41,60.34],[2.36,60.34],[2.36,60.35],[2.3,60.35],[2.3,60.36],[2.26,60.36],[2.26,60.370000000000005],[2.21,60.370000000000005],[2.21,60.38],[2.16,60.38],[2.16,60.39],[2.11,60.39],[2.12,60.410000000000004],[2.14,60.42],[2.14,60.440000000000005],[2.15,60.440000000000005],[2.15,60.45],[2.16,60.45],[2.17,60.47],[2.18,60.47],[2.18,60.480000000000004],[2.19,60.480000000000004],[2.19,60.5],[2.2,60.5],[2.2,60.510000000000005],[2.22,60.52],[2.22,60.54],[2.24,60.54],[2.24,60.56],[2.25,60.56],[2.26,60.58],[2.27,60.58],[2.27,60.6],[2.29,60.6],[2.29,60.620000000000005],[2.3,60.620000000000005],[2.3,60.63],[2.32,60.64],[2.32,60.660000000000004],[2.34,60.660000000000004],[2.34,60.68],[2.35,60.68],[2.35,60.690000000000005],[2.37,60.7],[2.38,60.72],[2.39,60.72],[2.39,60.74],[2.4,60.74],[2.41,60.760000000000005],[2.42,60.760000000000005],[2.42,60.77],[2.44,60.78],[2.44,60.800000000000004],[2.45,60.800000000000004],[2.45,60.81],[2.4699999999999998,60.82],[2.4699999999999998,60.83],[2.48,60.83],[2.48,60.84],[2.49,60.84],[2.49,60.86],[2.5,60.86],[2.5,60.870000000000005],[2.51,60.870000000000005],[2.51,60.88],[2.52,60.88],[2.52,60.89],[2.54,60.9],[2.54,60.92],[2.56,60.92],[2.56,60.940000000000005],[2.58,60.95],[2.59,60.97],[2.6,60.97],[2.6,60.980000000000004],[2.61,60.980000000000004],[2.61,61.0],[2.62,61.0],[2.62,61.010000000000005],[2.64,61.02],[2.65,61.04],[2.66,61.04],[2.66,61.06],[2.68,61.06],[2.68,61.08],[2.69,61.08],[2.69,61.09],[2.7,61.09],[2.71,61.11],[2.7199999999999998,61.11],[2.7199999999999998,61.120000000000005],[2.73,61.120000000000005],[2.73,61.14],[2.75,61.15],[2.75,61.160000000000004],[2.77,61.17],[2.77,61.18],[2.7800000000000002,61.18],[2.7800000000000002,61.190000000000005],[2.79,61.190000000000005],[2.8,61.21],[2.81,61.21],[2.81,61.230000000000004],[2.83,61.230000000000004],[2.83,61.25],[2.84,61.25],[2.84,61.260000000000005],[2.85,61.260000000000005],[2.86,61.28],[2.88,61.29],[2.88,61.31],[2.9,61.31],[2.9,61.33],[2.91,61.33],[2.91,61.34],[2.92,61.34],[2.92,61.35],[2.94,61.36],[2.94,61.370000000000005],[2.95,61.370000000000005],[2.95,61.39],[2.9699999999999998,61.39],[2.9699999999999998,61.410000000000004],[2.98,61.410000000000004],[2.98,61.42],[3.0,61.43],[3.0,61.440000000000005],[3.01,61.440000000000005],[3.01,61.45],[3.02,61.45],[3.02,61.46],[3.04,61.47],[3.04,61.49],[3.06,61.5],[3.06,61.510000000000005],[3.0700000000000003,61.510000000000005],[3.0700000000000003,61.52],[3.09,61.53],[3.09,61.54],[3.1,61.54],[3.1,61.550000000000004],[3.1100000000000003,61.550000000000004],[3.1100000000000003,61.57],[3.13,61.57],[3.13,61.59],[3.14,61.59],[3.15,61.61],[3.16,61.61],[3.16,61.620000000000005],[3.17,61.620000000000005],[3.1799999999999997,61.64],[3.19,61.64],[3.19,61.65],[3.2,61.65],[3.2,61.67],[3.2199999999999998,61.67],[3.2199999999999998,61.690000000000005],[3.23,61.690000000000005],[3.23,61.7],[3.24,61.7],[3.24,61.71],[3.26,61.72],[3.26,61.730000000000004],[3.27,61.730000000000004],[3.27,61.74],[3.29,61.75],[3.29,61.77],[3.31,61.77],[3.31,61.79],[3.3200000000000003,61.79],[3.3200000000000003,61.800000000000004],[3.33,61.800000000000004],[3.34,61.82],[3.35,61.82],[3.35,61.83],[3.3600000000000003,61.83],[3.37,61.85],[3.38,61.85],[3.38,61.870000000000005],[3.4,61.870000000000005],[3.4,61.89],[3.42,61.89],[3.42,61.910000000000004],[3.44,61.92],[3.44,61.93],[3.45,61.93],[3.45,61.940000000000005],[3.46,61.940000000000005],[3.4699999999999998,61.96],[3.48,61.96],[3.48,61.97],[3.49,61.97],[3.49,61.99],[3.51,61.99],[3.51,62.010000000000005],[3.5300000000000002,62.010000000000005],[3.5300000000000002,62.03],[3.54,62.03],[3.55,62.050000000000004],[3.56,62.050000000000004],[3.56,62.06],[3.5700000000000003,62.06],[3.5700000000000003,62.07],[3.59,62.08],[3.59,62.09],[3.6,62.09],[3.6,62.1],[3.62,62.11],[3.62,62.13],[3.64,62.13],[3.64,62.15],[3.66,62.15],[3.66,62.17],[3.6799999999999997,62.18],[3.6799999999999997,62.190000000000005],[3.7,62.2],[3.71,62.22],[3.7199999999999998,62.22],[3.7199999999999998,62.230000000000004],[3.73,62.230000000000004],[3.73,62.24],[3.75,62.25],[3.75,62.260000000000005],[3.76,62.260000000000005],[3.76,62.27],[3.77,62.27],[3.77,62.28],[3.79,62.29],[3.79,62.300000000000004],[3.81,62.31],[3.81,62.32],[3.8200000000000003,62.32],[3.8200000000000003,62.34],[3.84,62.34],[3.84,62.36],[3.8600000000000003,62.36],[3.8600000000000003,62.38],[3.87,62.38],[3.88,62.4],[3.89,62.4],[3.89,62.410000000000004],[3.9000000000000004,62.410000000000004],[3.9000000000000004,62.42],[3.92,62.43],[3.92,62.440000000000005],[3.94,62.45],[3.94,62.46],[3.95,62.46],[3.95,62.47],[3.96,62.47],[3.96,62.480000000000004],[3.98,62.49],[3.98,62.5],[3.99,62.5],[4.0,62.52],[4.01,62.52],[4.01,62.54],[4.03,62.54],[4.03,62.56],[4.05,62.56],[4.05,62.58],[4.07,62.58],[4.07,62.6],[4.09,62.6],[4.09,62.620000000000005],[4.1,62.620000000000005],[4.1,62.63],[4.11,62.63],[4.11,62.64],[4.13,62.65],[4.13,62.660000000000004],[4.14,62.660000000000004],[4.14,62.67],[4.16,62.68],[4.16,62.690000000000005],[4.17,62.690000000000005],[4.18,62.71],[4.2,62.72],[4.2,62.730000000000004],[4.21,62.730000000000004],[4.22,62.75],[4.23,62.75],[4.23,62.760000000000005],[4.24,62.760000000000005],[4.24,62.77],[4.26,62.78],[4.26,62.79],[4.2700000000000005,62.79],[4.2700000000000005,62.800000000000004],[4.28,62.800000000000004],[4.28,62.81],[4.3,62.82],[4.3,62.83],[4.31,62.83],[4.31,62.84],[4.32,62.84],[4.32,62.85],[4.34,62.86],[4.34,62.870000000000005],[4.35,62.870000000000005],[4.35,62.88],[4.36,62.88],[4.36,62.89],[4.38,62.9],[4.38,62.910000000000004],[4.39,62.910000000000004],[4.39,62.92],[4.41,62.93],[4.41,62.940000000000005],[4.42,62.940000000000005],[4.43,62.96],[4.45,62.97],[4.45,62.980000000000004],[4.46,62.980000000000004],[4.47,63.0],[4.48,63.0],[4.48,63.010000000000005],[4.49,63.010000000000005],[4.49,63.02],[4.51,63.03],[4.51,63.04],[4.5200000000000005,63.04],[4.5200000000000005,63.050000000000004],[4.53,63.050000000000004],[4.53,63.06],[4.55,63.07],[4.55,63.08],[4.56,63.08],[4.56,63.09],[4.57,63.09],[4.57,63.1],[4.59,63.11],[4.59,63.120000000000005],[4.61,63.13],[4.62,63.15],[4.66,63.15],[4.66,63.14]],[[6.42,62.690000000000005],[6.42,62.72],[6.390000000000001,62.72],[6.390000000000001,62.690000000000005],[6.42,62.690000000000005]],[[6.65,62.660000000000004],[6.65,62.690000000000005],[6.61,62.690000000000005],[6.61,62.660000000000004],[6.65,62.660000000000004]],[[6.09,62.56],[6.09,62.550000000000004],[6.12,62.550000000000004],[6.12,62.59],[6.08,62.59],[6.08,62.56],[6.09,62.56]],[[6.07,62.54],[6.07,62.57],[6.04,62.57],[6.04,62.54],[6.07,62.54]],[[6.140000000000001,62.5],[6.140000000000001,62.53],[6.1000000000000005,62.53],[6.1000000000000005,62.5],[6.140000000000001,62.5]],[[6.07,62.440000000000005],[6.07,62.410000000000004],[6.11,62.410000000000004],[6.11,62.4],[6.24,62.4],[6.24,62.410000000000004],[6.28,62.410000000000004],[6.28,62.4],[6.3100000000000005,62.4],[6.3100000000000005,62.410000000000004],[6.340000000000001,62.410000000000004],[6.340000000000001,62.440000000000005],[6.23,62.440000000000005],[6.23,62.45],[6.19,62.45],[6.19,62.440000000000005],[6.07,62.440000000000005]],[[5.88,62.42],[5.88,62.410000000000004],[5.85,62.410000000000004],[5.85,62.4],[5.84,62.4],[5.83,62.38],[5.82,62.38],[5.82,62.35],[5.84,62.35],[5.84,62.34],[5.87,62.34],[5.86,62.32],[5.85,62.32],[5.85,62.33],[5.79,62.33],[5.78,62.29],[5.76,62.29],[5.76,62.28],[5.74,62.28],[5.74,62.300000000000004],[5.71,62.300000000000004],[5.71,62.29],[5.7,62.29],[5.7,62.300000000000004],[5.67,62.300000000000004],[5.67,62.29],[5.63,62.29],[5.63,62.300000000000004],[5.6,62.300000000000004],[5.6,62.29],[5.58,62.29],[5.58,62.24],[5.59,62.24],[5.59,62.230000000000004],[5.58,62.230000000000004],[5.58,62.190000000000005],[5.64,62.190000000000005],[5.64,62.2],[5.73,62.2],[5.73,62.21],[5.74,62.21],[5.74,62.2],[5.7700000000000005,62.2],[5.7700000000000005,62.21],[5.8,62.21],[5.8,62.24],[5.78,62.24],[5.78,62.25],[5.79,62.25],[5.79,62.260000000000005],[5.82,62.260000000000005],[5.82,62.27],[5.84,62.27],[5.84,62.25],[5.87,62.25],[5.87,62.230000000000004],[5.91,62.230000000000004],[5.91,62.25],[5.93,62.25],[5.93,62.27],[5.95,62.27],[5.95,62.29],[5.97,62.29],[5.97,62.300000000000004],[6.0,62.300000000000004],[6.0,62.31],[6.0200000000000005,62.31],[6.0200000000000005,62.32],[6.050000000000001,62.32],[6.050000000000001,62.33],[6.08,62.33],[6.08,62.36],[6.04,62.370000000000005],[6.04,62.39],[6.0200000000000005,62.39],[6.0200000000000005,62.4],[6.010000000000001,62.4],[6.010000000000001,62.42],[5.99,62.42],[5.99,62.43],[5.96,62.43],[5.96,62.42],[5.88,62.42]],[[5.5600000000000005,62.33],[5.5600000000000005,62.36],[5.53,62.36],[5.53,62.33],[5.5600000000000005,62.33]],[[5.68,62.35],[5.68,62.31],[5.71,62.31],[5.71,62.32],[5.73,62.32],[5.73,62.36],[5.69,62.36],[5.69,62.35],[5.68,62.35]],[[4.89,61.88],[4.89,61.85],[4.91,61.85],[4.91,61.84],[4.96,61.84],[4.95,61.82],[4.91,61.82],[4.91,61.78],[4.92,61.78],[4.92,61.77],[4.96,61.77],[4.96,61.78],[5.01,61.78],[5.01,61.79],[5.03,61.79],[5.03,61.800000000000004],[5.0600000000000005,61.800000000000004],[5.0600000000000005,61.81],[5.1,61.81],[5.11,61.83],[5.2,61.83],[5.2,61.84],[5.21,61.84],[5.21,61.83],[5.24,61.83],[5.24,61.84],[5.26,61.85],[5.26,61.88],[5.19,61.88],[5.19,61.870000000000005],[5.13,61.870000000000005],[5.13,61.88],[5.0600000000000005,61.88],[5.0600000000000005,61.89],[5.0,61.89],[5.0,61.9],[4.92,61.9],[4.92,61.88],[4.89,61.88]],[[5.86,61.870000000000005],[5.86,61.9],[5.78,61.9],[5.78,61.870000000000005],[5.86,61.870000000000005]],[[4.85,61.77],[4.85,61.760000000000005],[4.89,61.760000000000005],[4.89,61.79],[4.88,61.79],[4.87,61.81],[4.84,61.81],[4.84,61.77],[4.85,61.77]],[[4.86,61.67],[4.86,61.660000000000004],[4.89,61.660000000000004],[4.89,61.690000000000005],[4.88,61.690000000000005],[4.88,61.7],[4.84,61.7],[4.84,61.67],[4.86,61.67]],[[4.88,61.59],[4.88,61.620000000000005],[4.83,61.620000000000005],[4.83,61.59],[4.88,61.59]],[[4.85,61.17],[4.85,61.160000000000004],[4.81,61.160000000000004],[4.81,61.15],[4.8,61.15],[4.8,61.11],[4.79,61.11],[4.79,61.1],[4.75,61.1],[4.75,61.09],[4.74,61.09],[4.74,61.050000000000004],[4.75,61.050000000000004],[4.75,61.04],[4.78,61.04],[4.78,61.06],[4.81,61.06],[4.81,61.050000000000004],[4.89,61.050000000000004],[4.89,61.09],[4.9,61.09],[4.9,61.1],[4.92,61.1],[4.92,61.07],[4.95,61.07],[4.95,61.09],[5.0,61.09],[5.0,61.1],[5.0200000000000005,61.1],[5.0200000000000005,61.120000000000005],[5.03,61.120000000000005],[5.03,61.13],[5.04,61.13],[5.04,61.120000000000005],[5.08,61.120000000000005],[5.08,61.15],[5.0600000000000005,61.15],[5.0600000000000005,61.160000000000004],[5.07,61.160000000000004],[5.07,61.2],[5.03,61.2],[5.03,61.17],[5.0,61.17],[5.0,61.2],[4.86,61.21],[4.86,61.17],[4.85,61.17]],[[4.65,61.06],[4.65,61.02],[4.67,61.02],[4.67,61.0],[4.68,61.0],[4.68,60.99],[4.72,60.99],[4.72,61.0],[4.73,61.0],[4.73,61.04],[4.71,61.04],[4.71,61.07],[4.66,61.07],[4.66,61.06],[4.65,61.06]],[[4.8,60.940000000000005],[4.8,60.910000000000004],[4.83,60.910000000000004],[4.83,60.9],[4.85,60.9],[4.85,60.89],[4.86,60.89],[4.86,60.870000000000005],[4.88,60.870000000000005],[4.88,60.86],[4.93,60.86],[4.93,60.89],[4.95,60.89],[4.95,60.92],[4.94,60.92],[4.94,60.93],[4.88,60.93],[4.88,60.95],[4.85,60.95],[4.85,60.940000000000005],[4.8,60.940000000000005]],[[4.83,60.79],[4.83,60.82],[4.8,60.82],[4.8,60.79],[4.83,60.79]],[[4.74,60.75],[4.74,60.78],[4.71,60.78],[4.71,60.75],[4.74,60.75]],[[5.62,60.67],[5.62,60.65],[5.6,60.64],[5.59,60.620000000000005],[5.5600000000000005,60.620000000000005],[5.5600000000000005,60.61],[5.5,60.61],[5.5,60.6],[5.48,60.6],[5.48,60.59],[5.46,60.59],[5.46,60.57],[5.45,60.57],[5.45,60.56],[5.41,60.56],[5.41,60.550000000000004],[5.36,60.550000000000004],[5.36,60.52],[5.39,60.52],[5.39,60.510000000000005],[5.41,60.510000000000005],[5.41,60.5],[5.43,60.5],[5.44,60.480000000000004],[5.48,60.47],[5.48,60.45],[5.5200000000000005,60.45],[5.5200000000000005,60.440000000000005],[5.59,60.440000000000005],[5.59,60.45],[5.62,60.45],[5.63,60.47],[5.65,60.47],[5.65,60.480000000000004],[5.7,60.480000000000004],[5.7,60.58],[5.71,60.58],[5.71,60.660000000000004],[5.72,60.660000000000004],[5.72,60.690000000000005],[5.66,60.690000000000005],[5.66,60.7],[5.63,60.7],[5.63,60.67],[5.62,60.67]],[[4.84,60.59],[4.84,60.64],[4.83,60.64],[4.83,60.660000000000004],[4.79,60.660000000000004],[4.79,60.59],[4.84,60.59]],[[5.01,60.6],[5.01,60.550000000000004],[5.07,60.550000000000004],[5.07,60.54],[5.11,60.54],[5.11,60.53],[5.15,60.53],[5.15,60.52],[5.2,60.52],[5.2,60.510000000000005],[5.24,60.510000000000005],[5.24,60.54],[5.23,60.54],[5.23,60.550000000000004],[5.21,60.550000000000004],[5.21,60.56],[5.19,60.56],[5.19,60.57],[5.17,60.57],[5.16,60.59],[5.08,60.59],[5.07,60.61],[5.0200000000000005,60.61],[5.0200000000000005,60.6],[5.01,60.6]],[[4.85,60.54],[4.85,60.53],[4.87,60.52],[4.87,60.5],[4.91,60.5],[4.91,60.53],[4.89,60.53],[4.89,60.56],[4.87,60.56],[4.87,60.58],[4.84,60.58],[4.84,60.54],[4.85,60.54]],[[5.04,60.5],[5.04,60.480000000000004],[5.0600000000000005,60.480000000000004],[5.0600000000000005,60.47],[5.09,60.47],[5.09,60.45],[5.15,60.45],[5.15,60.440000000000005],[5.16,60.440000000000005],[5.16,60.4],[5.21,60.4],[5.21,60.410000000000004],[5.23,60.410000000000004],[5.23,60.440000000000005],[5.22,60.440000000000005],[5.22,60.49],[5.16,60.5],[5.16,60.510000000000005],[5.12,60.510000000000005],[5.12,60.52],[5.09,60.52],[5.09,60.510000000000005],[5.08,60.510000000000005],[5.07,60.53],[5.03,60.53],[5.03,60.5],[5.04,60.5]],[[4.93,60.49],[4.93,60.45],[4.96,60.45],[4.96,60.49],[4.93,60.49]],[[4.96,60.39],[4.95,60.39],[4.94,60.370000000000005],[4.93,60.370000000000005],[4.93,60.34],[4.94,60.34],[4.94,60.33],[4.96,60.33],[4.96,60.32],[4.95,60.32],[4.95,60.260000000000005],[4.99,60.25],[4.99,60.22],[5.0,60.22],[5.01,60.2],[5.05,60.2],[5.05,60.17],[5.11,60.17],[5.11,60.18],[5.15,60.18],[5.15,60.190000000000005],[5.16,60.190000000000005],[5.16,60.22],[5.14,60.22],[5.14,60.25],[5.1,60.260000000000005],[5.11,60.28],[5.13,60.28],[5.13,60.34],[5.15,60.34],[5.15,60.39],[5.11,60.39],[5.11,60.36],[5.09,60.36],[5.09,60.370000000000005],[5.0600000000000005,60.370000000000005],[5.0600000000000005,60.38],[5.05,60.38],[5.05,60.4],[5.03,60.4],[5.03,60.410000000000004],[5.0,60.410000000000004],[5.0,60.45],[4.96,60.45],[4.96,60.39]],[[5.96,60.15],[5.96,60.14],[5.94,60.14],[5.94,60.11],[5.95,60.11],[5.95,60.09],[5.97,60.09],[5.97,60.08],[6.0,60.08],[6.010000000000001,60.1],[6.050000000000001,60.11],[6.050000000000001,60.160000000000004],[5.97,60.160000000000004],[5.97,60.15],[5.96,60.15]],[[5.16,60.1],[5.16,60.13],[5.13,60.13],[5.13,60.1],[5.16,60.1]],[[5.24,60.050000000000004],[5.24,60.04],[5.23,60.04],[5.23,60.050000000000004],[5.22,60.050000000000004],[5.22,60.07],[5.18,60.07],[5.18,60.04],[5.2,60.04],[5.2,60.010000000000005],[5.19,60.010000000000005],[5.19,60.02],[5.16,60.02],[5.16,60.010000000000005],[5.14,60.010000000000005],[5.14,60.0],[5.12,60.0],[5.12,59.97],[5.2,59.97],[5.2,59.980000000000004],[5.21,59.980000000000004],[5.21,60.010000000000005],[5.25,60.010000000000005],[5.25,60.0],[5.28,60.0],[5.28,60.010000000000005],[5.3,60.010000000000005],[5.3,60.08],[5.25,60.08],[5.25,60.050000000000004],[5.24,60.050000000000004]],[[5.33,59.940000000000005],[5.33,59.93],[5.32,59.93],[5.3100000000000005,59.910000000000004],[5.28,59.910000000000004],[5.28,59.88],[5.3,59.88],[5.3100000000000005,59.82],[5.33,59.81],[5.33,59.79],[5.34,59.79],[5.34,59.78],[5.36,59.78],[5.36,59.77],[5.39,59.77],[5.39,59.760000000000005],[5.42,59.760000000000005],[5.42,59.75],[5.47,59.75],[5.47,59.760000000000005],[5.5,59.760000000000005],[5.5,59.79],[5.53,59.79],[5.53,59.88],[5.51,59.89],[5.51,59.910000000000004],[5.47,59.92],[5.46,59.940000000000005],[5.41,59.940000000000005],[5.41,59.95],[5.39,59.95],[5.39,59.96],[5.36,59.96],[5.36,59.97],[5.32,59.97],[5.32,59.940000000000005],[5.33,59.940000000000005]],[[5.25,59.88],[5.25,59.92],[5.22,59.92],[5.22,59.88],[5.25,59.88]],[[5.08,59.9],[5.08,59.83],[5.14,59.83],[5.14,59.86],[5.12,59.86],[5.12,59.910000000000004],[5.09,59.910000000000004],[5.09,59.9],[5.08,59.9]],[[5.78,59.730000000000004],[5.78,59.75],[5.8,59.760000000000005],[5.8,59.79],[5.74,59.79],[5.74,59.730000000000004],[5.78,59.730000000000004]],[[5.65,59.74],[5.65,59.71],[5.72,59.71],[5.72,59.74],[5.71,59.74],[5.71,59.75],[5.67,59.75],[5.67,59.74],[5.65,59.74]]],[[[7.140000000000001,62.59],[7.15,62.59],[7.15,62.53],[7.12,62.53],[7.12,62.58],[7.11,62.58],[7.1000000000000005,62.6],[7.140000000000001,62.6],[7.140000000000001,62.59]]]]}}]}