{"type":"FeatureCollection","name":"tidal_model_domain","features":[{"type":"Feature","properties":{"kind":"domain","atlases":["NORKYST_TROMS"],"source_file":"norkyst_troms_20250919.nc","wet_cells":103838,"grid_deg":0.01,"area_deg2":16.86},"geometry":{"type":"MultiPolygon","coordinates":[[[[16.55,71.67],[16.55,71.66],[16.6,71.66],[16.6,71.64999999999999],[16.68,71.64],[16.68,71.63],[16.72,71.63],[16.72,71.62],[16.78,71.62],[16.78,71.61],[16.810000000000002,71.61],[16.810000000000002,71.6],[16.85,71.6],[16.85,71.59],[16.89,71.59],[16.89,71.58],[16.95,71.58],[16.95,71.57],[16.98,71.57],[16.98,71.56],[17.02,71.56],[17.02,71.55],[17.060000000000002,71.55],[17.060000000000002,71.53999999999999],[17.1,71.53999999999999],[17.1,71.53],[17.15,71.53],[17.15,71.52],[17.19,71.52],[17.19,71.50999999999999],[17.27,71.5],[17.27,71.49],[17.3,71.49],[17.3,71.48],[17.36,71.48],[17.36,71.47],[17.4,71.47],[17.4,71.46],[17.43,71.46],[17.43,71.45],[17.47,71.45],[17.47,71.44],[17.51,71.44],[17.51,71.42999999999999],[17.57,71.42999999999999],[17.57,71.42],[17.6,71.42],[17.6,71.41],[17.64,71.41],[17.64,71.39999999999999],[17.68,71.39999999999999],[17.68,71.39],[17.71,71.39],[17.71,71.38],[17.77,71.38],[17.77,71.37],[17.810000000000002,71.37],[17.810000000000002,71.36],[17.84,71.36],[17.84,71.35],[17.92,71.34],[17.92,71.33],[17.95,71.33],[17.95,71.32],[18.01,71.32],[18.01,71.31],[18.05,71.31],[18.05,71.3],[18.08,71.3],[18.08,71.28999999999999],[18.12,71.28999999999999],[18.12,71.28],[18.16,71.28],[18.16,71.27],[18.19,71.27],[18.19,71.25999999999999],[18.25,71.25999999999999],[18.25,71.25],[18.28,71.25],[18.28,71.24],[18.32,71.24],[18.32,71.23],[18.36,71.23],[18.36,71.22],[18.39,71.22],[18.39,71.21],[18.43,71.21],[18.43,71.2],[18.48,71.2],[18.48,71.19],[18.560000000000002,71.17999999999999],[18.560000000000002,71.17],[18.59,71.17],[18.59,71.16],[18.630000000000003,71.16],[18.630000000000003,71.14999999999999],[18.66,71.14999999999999],[18.66,71.14],[18.7,71.14],[18.7,71.13],[18.75,71.13],[18.75,71.12],[18.79,71.12],[18.79,71.11],[18.83,71.11],[18.83,71.1],[18.86,71.1],[18.86,71.09],[18.9,71.09],[18.9,71.08],[18.93,71.08],[18.93,71.07],[18.97,71.07],[18.97,71.06],[19.009999999999998,71.06],[19.009999999999998,71.05],[19.060000000000002,71.05],[19.060000000000002,71.03999999999999],[19.1,71.03999999999999],[19.1,71.03],[19.130000000000003,71.03],[19.130000000000003,71.02],[19.17,71.02],[19.17,71.00999999999999],[19.200000000000003,71.00999999999999],[19.200000000000003,71.0],[19.240000000000002,71.0],[19.240000000000002,70.99],[19.27,70.99],[19.27,70.98],[19.310000000000002,70.98],[19.310000000000002,70.97],[19.34,70.97],[19.34,70.96],[19.4,70.96],[19.4,70.95],[19.43,70.95],[19.43,70.94],[19.47,70.94],[19.47,70.92999999999999],[19.5,70.92999999999999],[19.5,70.92],[19.54,70.92],[19.54,70.91],[19.57,70.91],[19.57,70.89999999999999],[19.61,70.89999999999999],[19.61,70.89],[19.64,70.89],[19.64,70.88],[19.68,70.88],[19.68,70.87],[19.73,70.87],[19.73,70.86],[19.77,70.86],[19.77,70.85],[19.8,70.85],[19.8,70.84],[19.84,70.84],[19.84,70.83],[19.87,70.83],[19.87,70.82],[19.91,70.82],[19.91,70.81],[19.94,70.81],[19.94,70.8],[19.98,70.8],[19.98,70.78999999999999],[20.009999999999998,70.78999999999999],[20.009999999999998,70.78],[20.05,70.78],[20.05,70.77],[20.08,70.77],[20.08,70.75999999999999],[20.12,70.75999999999999],[20.12,70.75],[20.17,70.75],[20.17,70.74],[20.200000000000003,70.74],[20.200000000000003,70.73],[20.240000000000002,70.73],[20.240000000000002,70.72],[20.27,70.72],[20.27,70.71],[20.310000000000002,70.71],[20.310000000000002,70.7],[20.34,70.7],[20.34,70.69],[20.37,70.69],[20.37,70.67999999999999],[20.41,70.67999999999999],[20.41,70.67],[20.44,70.67],[20.44,70.66],[20.48,70.66],[20.48,70.64999999999999],[20.509999999999998,70.64999999999999],[20.509999999999998,70.64],[20.55,70.64],[20.55,70.63],[20.61,70.62],[20.61,70.61],[20.65,70.61],[20.65,70.6],[20.68,70.6],[20.68,70.59],[20.73,70.59],[20.73,70.58],[20.77,70.58],[20.77,70.57],[20.83,70.56],[20.83,70.55],[20.87,70.55],[20.87,70.53999999999999],[20.9,70.53999999999999],[20.9,70.53],[20.94,70.53],[20.94,70.52],[20.97,70.52],[20.97,70.50999999999999],[21.0,70.50999999999999],[21.0,70.5],[21.04,70.5],[21.04,70.49],[21.1,70.48],[21.1,70.47],[21.14,70.47],[21.14,70.46],[21.17,70.46],[21.17,70.45],[21.21,70.45],[21.21,70.44],[21.240000000000002,70.44],[21.240000000000002,70.42999999999999],[21.27,70.42999999999999],[21.27,70.42],[21.310000000000002,70.42],[21.310000000000002,70.41],[21.34,70.41],[21.34,70.39999999999999],[21.37,70.39999999999999],[21.37,70.39],[21.41,70.39],[21.41,70.37],[21.4,70.37],[21.4,70.33],[21.450000000000003,70.33],[21.450000000000003,70.37],[21.47,70.37],[21.47,70.36],[21.509999999999998,70.36],[21.509999999999998,70.35],[21.57,70.34],[21.57,70.32],[21.6,70.32],[21.6,70.33],[21.61,70.33],[21.61,70.32],[21.67,70.31],[21.67,70.28999999999999],[21.68,70.28999999999999],[21.68,70.27],[21.69,70.27],[21.69,70.25999999999999],[21.73,70.25999999999999],[21.73,70.27],[21.759999999999998,70.27],[21.759999999999998,70.28],[21.79,70.28],[21.79,70.23],[21.83,70.22],[21.83,70.21],[21.82,70.21],[21.82,70.17999999999999],[21.85,70.17999999999999],[21.85,70.17],[21.87,70.17],[21.87,70.16],[21.79,70.17],[21.79,70.19],[21.77,70.19],[21.77,70.21],[21.75,70.21],[21.75,70.22],[21.72,70.22],[21.72,70.24],[21.69,70.24],[21.69,70.25],[21.65,70.25],[21.65,70.25999999999999],[21.62,70.25999999999999],[21.62,70.27],[21.59,70.27],[21.59,70.28],[21.55,70.28999999999999],[21.55,70.31],[21.490000000000002,70.31],[21.490000000000002,70.24],[21.48,70.24],[21.48,70.21],[21.5,70.21],[21.5,70.2],[21.46,70.2],[21.46,70.22],[21.43,70.22],[21.43,70.23],[21.42,70.23],[21.42,70.27],[21.37,70.27],[21.37,70.25999999999999],[21.36,70.25999999999999],[21.36,70.27],[21.33,70.27],[21.33,70.25999999999999],[21.29,70.25999999999999],[21.29,70.25],[21.259999999999998,70.25],[21.259999999999998,70.24],[21.200000000000003,70.24],[21.200000000000003,70.21],[21.22,70.21],[21.22,70.2],[21.259999999999998,70.2],[21.259999999999998,70.17],[21.28,70.17],[21.28,70.16],[21.41,70.16],[21.41,70.17],[21.48,70.17],[21.48,70.16],[21.44,70.14999999999999],[21.44,70.1],[21.47,70.1],[21.47,70.09],[21.509999999999998,70.09],[21.509999999999998,70.1],[21.57,70.1],[21.57,70.11],[21.58,70.11],[21.58,70.1],[21.6,70.1],[21.6,70.08],[21.62,70.08],[21.62,70.07],[21.68,70.07],[21.68,70.06],[21.71,70.06],[21.71,70.05],[21.740000000000002,70.05],[21.740000000000002,70.06],[21.810000000000002,70.06],[21.810000000000002,70.08],[21.96,70.08],[21.96,70.09],[21.990000000000002,70.09],[21.990000000000002,70.1],[22.009999999999998,70.1],[22.009999999999998,70.11],[22.04,70.11],[22.04,70.12],[22.05,70.12],[22.060000000000002,70.1],[22.03,70.1],[22.02,70.08],[21.990000000000002,70.08],[21.990000000000002,70.07],[21.96,70.07],[21.96,70.06],[21.84,70.06],[21.84,70.05],[21.82,70.05],[21.82,70.02],[21.84,70.02],[21.84,70.00999999999999],[21.87,70.00999999999999],[21.87,70.02],[21.97,70.02],[21.97,70.03],[22.03,70.03],[22.03,70.03999999999999],[22.04,70.03999999999999],[22.04,70.03],[22.060000000000002,70.03],[22.060000000000002,70.02],[22.03,70.02],[22.03,69.98],[22.05,69.98],[22.05,69.96],[22.04,69.96],[22.04,69.94],[22.03,69.94],[22.03,69.92999999999999],[22.02,69.92999999999999],[22.02,69.94],[22.0,69.94],[22.0,69.96],[22.009999999999998,69.96],[22.009999999999998,69.99],[21.9,69.99],[21.9,69.95],[21.880000000000003,69.94],[21.880000000000003,69.89],[21.9,69.89],[21.91,69.87],[21.98,69.87],[21.98,69.86],[22.009999999999998,69.86],[22.02,69.84],[21.97,69.84],[21.97,69.81],[22.0,69.81],[22.0,69.8],[22.03,69.8],[22.03,69.78999999999999],[22.060000000000002,69.78999999999999],[22.060000000000002,69.78],[22.08,69.78],[22.08,69.77],[21.990000000000002,69.77],[21.990000000000002,69.75999999999999],[21.98,69.75999999999999],[21.98,69.77],[21.950000000000003,69.77],[21.950000000000003,69.78],[21.91,69.78999999999999],[21.91,69.81],[21.880000000000003,69.81],[21.880000000000003,69.83],[21.86,69.83],[21.85,69.85],[21.810000000000002,69.85],[21.810000000000002,69.87],[21.78,69.87],[21.78,69.88],[21.72,69.88],[21.72,69.89],[21.65,69.89],[21.65,69.89999999999999],[21.62,69.89999999999999],[21.62,69.91],[21.59,69.91],[21.59,69.92],[21.57,69.92],[21.57,69.95],[21.55,69.95],[21.55,69.96],[21.52,69.96],[21.52,69.99],[21.5,69.99],[21.5,70.0],[21.47,70.0],[21.47,70.00999999999999],[21.39,70.00999999999999],[21.39,70.02],[21.27,70.02],[21.27,70.00999999999999],[21.22,70.00999999999999],[21.22,69.98],[21.21,69.98],[21.21,69.96],[21.200000000000003,69.96],[21.200000000000003,69.92999999999999],[21.23,69.92999999999999],[21.23,69.92],[21.29,69.92],[21.29,69.91],[21.310000000000002,69.91],[21.310000000000002,69.89999999999999],[21.19,69.89999999999999],[21.19,69.88],[21.18,69.88],[21.18,69.87],[21.17,69.87],[21.17,69.88],[21.07,69.88],[21.07,69.87],[21.060000000000002,69.87],[21.060000000000002,69.84],[21.05,69.84],[21.05,69.83],[21.009999999999998,69.83],[21.009999999999998,69.8],[21.02,69.8],[21.009999999999998,69.78],[20.97,69.78],[20.97,69.78999999999999],[20.94,69.78999999999999],[20.94,69.81],[20.9,69.82],[20.9,69.84],[20.87,69.84],[20.87,69.85],[20.85,69.85],[20.85,69.86],[20.89,69.86],[20.89,69.87],[20.91,69.87],[20.92,69.89],[20.950000000000003,69.89],[20.950000000000003,69.92],[20.880000000000003,69.92],[20.880000000000003,69.91],[20.85,69.91],[20.85,69.89999999999999],[20.82,69.89999999999999],[20.82,69.89],[20.78,69.89],[20.78,69.88],[20.77,69.88],[20.77,69.85],[20.79,69.84],[20.79,69.83],[20.759999999999998,69.83],[20.759999999999998,69.81],[20.75,69.81],[20.75,69.8],[20.69,69.8],[20.69,69.78999999999999],[20.59,69.78],[20.59,69.77],[20.58,69.77],[20.58,69.78],[20.55,69.78],[20.55,69.77],[20.5,69.77],[20.5,69.73],[20.52,69.73],[20.52,69.7],[20.509999999999998,69.7],[20.509999999999998,69.69],[20.490000000000002,69.67999999999999],[20.490000000000002,69.66],[20.48,69.66],[20.48,69.64999999999999],[20.47,69.64999999999999],[20.47,69.62],[20.490000000000002,69.62],[20.490000000000002,69.61],[20.52,69.61],[20.52,69.6],[20.55,69.6],[20.55,69.59],[20.58,69.59],[20.58,69.58],[20.59,69.58],[20.59,69.56],[20.62,69.56],[20.62,69.53999999999999],[20.65,69.53999999999999],[20.65,69.53],[20.75,69.53],[20.75,69.52],[20.810000000000002,69.50999999999999],[20.8,69.49],[20.79,69.49],[20.79,69.5],[20.759999999999998,69.5],[20.759999999999998,69.50999999999999],[20.66,69.50999999999999],[20.66,69.52],[20.630000000000003,69.52],[20.630000000000003,69.53],[20.6,69.53],[20.6,69.55],[20.53,69.55],[20.53,69.58],[20.490000000000002,69.58],[20.490000000000002,69.57],[20.48,69.57],[20.48,69.58],[20.450000000000003,69.58],[20.450000000000003,69.59],[20.4,69.59],[20.4,69.58],[20.39,69.58],[20.39,69.56],[20.380000000000003,69.56],[20.380000000000003,69.53999999999999],[20.37,69.53999999999999],[20.37,69.52],[20.33,69.5],[20.32,69.46],[20.310000000000002,69.46],[20.310000000000002,69.45],[20.28,69.45],[20.28,69.42999999999999],[20.259999999999998,69.42999999999999],[20.259999999999998,69.39999999999999],[20.25,69.39999999999999],[20.25,69.38],[20.15,69.38],[20.15,69.37],[20.12,69.37],[20.12,69.36],[20.09,69.36],[20.09,69.35],[20.04,69.35],[20.04,69.34],[20.03,69.34],[20.03,69.32],[19.97,69.31],[19.97,69.28999999999999],[19.96,69.28999999999999],[19.96,69.28],[19.93,69.28],[19.93,69.27],[19.92,69.27],[19.91,69.28999999999999],[19.93,69.28999999999999],[19.93,69.31],[19.97,69.32],[19.990000000000002,69.36],[20.009999999999998,69.36],[20.009999999999998,69.37],[20.07,69.37],[20.07,69.38],[20.09,69.38],[20.09,69.39],[20.14,69.39],[20.15,69.41],[20.16,69.41],[20.16,69.46],[20.18,69.46],[20.18,69.47],[20.23,69.47],[20.23,69.5],[20.21,69.5],[20.21,69.50999999999999],[20.22,69.50999999999999],[20.22,69.53999999999999],[20.23,69.53999999999999],[20.23,69.57],[20.240000000000002,69.57],[20.240000000000002,69.58],[20.27,69.58],[20.27,69.59],[20.310000000000002,69.59],[20.310000000000002,69.6],[20.33,69.6],[20.33,69.61],[20.34,69.61],[20.34,69.64],[20.32,69.64],[20.32,69.64999999999999],[20.28,69.64999999999999],[20.28,69.67999999999999],[20.259999999999998,69.67999999999999],[20.259999999999998,69.69],[20.28,69.69],[20.29,69.75],[20.3,69.75],[20.3,69.75999999999999],[20.32,69.75999999999999],[20.33,69.8],[20.34,69.8],[20.34,69.81],[20.36,69.82],[20.36,69.85],[20.37,69.85],[20.37,69.86],[20.39,69.86],[20.39,69.89999999999999],[20.380000000000003,69.89999999999999],[20.380000000000003,69.91],[20.36,69.91],[20.36,69.94],[20.34,69.94],[20.34,69.95],[20.33,69.95],[20.33,69.97],[20.3,69.97],[20.3,69.98],[20.25,69.98],[20.25,69.96],[20.240000000000002,69.96],[20.240000000000002,69.95],[20.21,69.95],[20.19,69.91],[20.16,69.91],[20.16,69.94],[20.130000000000003,69.94],[20.130000000000003,69.92999999999999],[20.11,69.92],[20.11,69.89999999999999],[20.1,69.89999999999999],[20.1,69.89],[20.08,69.89],[20.08,69.88],[20.060000000000002,69.87],[20.060000000000002,69.86],[20.05,69.86],[20.05,69.84],[20.04,69.84],[20.04,69.83],[20.02,69.83],[20.02,69.82],[20.009999999999998,69.82],[20.009999999999998,69.8],[19.990000000000002,69.78999999999999],[19.990000000000002,69.77],[19.950000000000003,69.77],[19.950000000000003,69.78],[19.96,69.78],[19.96,69.82],[19.92,69.82],[19.92,69.8],[19.91,69.8],[19.9,69.78],[19.85,69.78],[19.85,69.77],[19.83,69.75999999999999],[19.83,69.73],[19.82,69.73],[19.82,69.72],[19.79,69.72],[19.79,69.67],[19.810000000000002,69.67],[19.810000000000002,69.63],[19.85,69.62],[19.85,69.61],[19.96,69.61],[19.96,69.6],[19.990000000000002,69.6],[19.990000000000002,69.59],[19.97,69.58],[19.97,69.59],[19.89,69.59],[19.89,69.6],[19.83,69.6],[19.83,69.61],[19.75,69.61],[19.75,69.58],[19.740000000000002,69.58],[19.740000000000002,69.56],[19.73,69.56],[19.73,69.53],[19.72,69.53],[19.72,69.5],[19.73,69.5],[19.73,69.49],[19.72,69.49],[19.72,69.48],[19.69,69.48],[19.69,69.47],[19.66,69.47],[19.65,69.42999999999999],[19.55,69.42999999999999],[19.55,69.44],[19.57,69.44],[19.57,69.45],[19.62,69.45],[19.62,69.46],[19.630000000000003,69.46],[19.630000000000003,69.47],[19.64,69.47],[19.64,69.52],[19.630000000000003,69.52],[19.630000000000003,69.53],[19.65,69.53],[19.65,69.55],[19.67,69.55],[19.67,69.56],[19.69,69.56],[19.69,69.59],[19.700000000000003,69.59],[19.700000000000003,69.61],[19.72,69.61],[19.72,69.64999999999999],[19.66,69.66],[19.67,69.7],[19.69,69.71],[19.69,69.75],[19.68,69.75],[19.68,69.75999999999999],[19.69,69.75999999999999],[19.69,69.77],[19.72,69.77],[19.72,69.81],[19.71,69.81],[19.71,69.82],[19.67,69.82],[19.67,69.81],[19.58,69.81],[19.58,69.8],[19.509999999999998,69.8],[19.509999999999998,69.78999999999999],[19.450000000000003,69.78999999999999],[19.450000000000003,69.78],[19.380000000000003,69.78],[19.380000000000003,69.77],[19.37,69.77],[19.37,69.78],[19.27,69.78],[19.27,69.77],[19.21,69.77],[19.21,69.75999999999999],[19.17,69.75],[19.17,69.74],[19.09,69.74],[19.09,69.71],[19.08,69.71],[19.08,69.69],[19.05,69.69],[19.05,69.67999999999999],[19.03,69.67999999999999],[19.03,69.67],[19.02,69.67],[19.02,69.64999999999999],[18.990000000000002,69.64999999999999],[18.990000000000002,69.64],[18.96,69.64],[18.96,69.63],[18.94,69.63],[18.94,69.61],[18.93,69.61],[18.93,69.57],[18.94,69.57],[18.94,69.56],[18.96,69.56],[18.96,69.53999999999999],[19.04,69.53999999999999],[19.05,69.56],[19.11,69.56],[19.11,69.57],[19.200000000000003,69.57],[19.200000000000003,69.56],[19.18,69.56],[19.18,69.55],[19.08,69.55],[19.07,69.53],[19.04,69.53],[19.04,69.52],[19.009999999999998,69.52],[19.009999999999998,69.50999999999999],[18.990000000000002,69.50999999999999],[18.990000000000002,69.49],[18.98,69.49],[18.98,69.45],[19.04,69.44],[19.04,69.42999999999999],[19.060000000000002,69.42],[19.060000000000002,69.39999999999999],[19.08,69.39999999999999],[19.08,69.38],[19.28,69.38],[19.28,69.37],[19.34,69.37],[19.34,69.36],[19.36,69.36],[19.36,69.35],[19.4,69.34],[19.4,69.33],[19.42,69.32],[19.42,69.31],[19.41,69.31],[19.41,69.27],[19.42,69.27],[19.42,69.25],[19.439999999999998,69.25],[19.439999999999998,69.24],[19.47,69.24],[19.47,69.23],[19.490000000000002,69.23],[19.490000000000002,69.22],[19.450000000000003,69.22],[19.450000000000003,69.23],[19.29,69.23],[19.29,69.22],[19.27,69.22],[19.27,69.23],[19.25,69.23],[19.25,69.25],[19.240000000000002,69.25],[19.240000000000002,69.25999999999999],[19.28,69.27],[19.28,69.28],[19.310000000000002,69.28],[19.32,69.3],[19.33,69.3],[19.33,69.34],[19.130000000000003,69.34],[19.130000000000003,69.35],[19.07,69.35],[19.060000000000002,69.37],[19.009999999999998,69.37],[19.0,69.39],[18.990000000000002,69.39],[18.990000000000002,69.42999999999999],[18.94,69.42999999999999],[18.94,69.44],[18.92,69.44],[18.92,69.46],[18.91,69.46],[18.91,69.49],[18.84,69.49],[18.84,69.5],[18.86,69.5],[18.86,69.55],[18.85,69.55],[18.85,69.56],[18.8,69.56],[18.8,69.55],[18.78,69.55],[18.78,69.53999999999999],[18.64,69.53999999999999],[18.64,69.53],[18.57,69.53],[18.57,69.52],[18.53,69.52],[18.53,69.50999999999999],[18.46,69.50999999999999],[18.46,69.48],[18.47,69.48],[18.47,69.44],[18.5,69.44],[18.5,69.42999999999999],[18.560000000000002,69.42],[18.560000000000002,69.41],[18.58,69.41],[18.58,69.39999999999999],[18.6,69.39999999999999],[18.6,69.38],[18.61,69.38],[18.61,69.37],[18.69,69.36],[18.69,69.35],[18.75,69.35],[18.75,69.34],[18.86,69.34],[18.85,69.32],[18.69,69.32],[18.69,69.28999999999999],[18.68,69.28999999999999],[18.68,69.28],[18.67,69.28],[18.67,69.28999999999999],[18.64,69.28999999999999],[18.64,69.3],[18.6,69.3],[18.59,69.32],[18.57,69.32],[18.57,69.35],[18.53,69.35],[18.53,69.32],[18.55,69.32],[18.55,69.31],[18.54,69.31],[18.54,69.28999999999999],[18.53,69.28999999999999],[18.53,69.27],[18.52,69.27],[18.52,69.25999999999999],[18.490000000000002,69.25999999999999],[18.490000000000002,69.28],[18.5,69.28],[18.5,69.31],[18.490000000000002,69.31],[18.490000000000002,69.37],[18.47,69.37],[18.47,69.38],[18.44,69.38],[18.44,69.39],[18.35,69.39],[18.35,69.39999999999999],[18.36,69.39999999999999],[18.36,69.42],[18.37,69.42],[18.37,69.45],[18.36,69.45],[18.36,69.46],[18.32,69.46],[18.310000000000002,69.48],[18.23,69.48],[18.23,69.46],[18.15,69.46],[18.15,69.42],[18.16,69.42],[18.16,69.39],[18.15,69.39],[18.15,69.38],[18.11,69.38],[18.11,69.36],[18.1,69.36],[18.09,69.34],[18.07,69.34],[18.07,69.32],[18.05,69.32],[18.05,69.31],[17.990000000000002,69.31],[17.990000000000002,69.25999999999999],[18.0,69.25999999999999],[18.0,69.23],[18.09,69.23],[18.09,69.22],[18.07,69.22],[18.07,69.21],[18.060000000000002,69.21],[18.060000000000002,69.17999999999999],[18.08,69.17],[18.08,69.16],[18.14,69.16],[18.14,69.14999999999999],[18.16,69.14999999999999],[18.16,69.14],[18.07,69.14],[18.07,69.13],[18.05,69.13],[18.04,69.14999999999999],[17.92,69.14999999999999],[17.92,69.14],[17.89,69.14],[17.89,69.13],[17.82,69.13],[17.82,69.12],[17.77,69.12],[17.77,69.11],[17.76,69.11],[17.76,69.12],[17.72,69.12],[17.72,69.11],[17.67,69.11],[17.67,69.08],[17.66,69.08],[17.66,69.07],[17.64,69.07],[17.64,69.06],[17.61,69.06],[17.6,69.03999999999999],[17.57,69.03999999999999],[17.57,69.03],[17.52,69.03],[17.52,69.00999999999999],[17.51,69.00999999999999],[17.51,68.98],[17.57,68.97],[17.560000000000002,68.95],[17.55,68.95],[17.55,68.96],[17.48,68.96],[17.47,68.89999999999999],[17.51,68.89999999999999],[17.51,68.91],[17.55,68.91],[17.55,68.92],[17.65,68.92],[17.65,68.92999999999999],[17.72,68.92999999999999],[17.72,68.91],[17.75,68.91],[17.76,68.89],[17.82,68.89],[17.82,68.88],[17.84,68.88],[17.83,68.86],[17.8,68.86],[17.8,68.87],[17.71,68.87],[17.71,68.89999999999999],[17.68,68.89999999999999],[17.68,68.89],[17.61,68.89],[17.61,68.88],[17.59,68.88],[17.59,68.87],[17.55,68.87],[17.55,68.86],[17.52,68.86],[17.52,68.83],[17.53,68.83],[17.53,68.82],[17.58,68.82],[17.58,68.81],[17.61,68.81],[17.61,68.8],[17.67,68.8],[17.67,68.78999999999999],[17.75,68.8],[17.75,68.78999999999999],[17.78,68.78999999999999],[17.78,68.78],[17.8,68.78],[17.8,68.77],[17.82,68.77],[17.82,68.75999999999999],[17.8,68.75999999999999],[17.8,68.75],[17.78,68.75999999999999],[17.78,68.77],[17.76,68.77],[17.76,68.78],[17.62,68.78],[17.62,68.78999999999999],[17.59,68.78999999999999],[17.59,68.8],[17.54,68.8],[17.54,68.81],[17.42,68.82],[17.42,68.81],[17.39,68.81],[17.39,68.8],[17.37,68.8],[17.37,68.78999999999999],[17.33,68.78999999999999],[17.33,68.78],[17.27,68.78],[17.27,68.75],[17.33,68.75],[17.33,68.74],[17.43,68.75],[17.43,68.74],[17.46,68.74],[17.46,68.73],[17.47,68.73],[17.47,68.7],[17.51,68.7],[17.51,68.69],[17.55,68.69],[17.55,68.7],[17.560000000000002,68.7],[17.560000000000002,68.69],[17.58,68.69],[17.58,68.67999999999999],[17.560000000000002,68.67999999999999],[17.560000000000002,68.67],[17.55,68.67],[17.55,68.67999999999999],[17.44,68.67999999999999],[17.43,68.72],[17.4,68.72],[17.4,68.73],[17.35,68.73],[17.35,68.72],[17.32,68.72],[17.32,68.73],[17.2,68.73],[17.2,68.72],[17.12,68.72],[17.12,68.71],[17.11,68.71],[17.11,68.67999999999999],[17.12,68.67999999999999],[17.12,68.67],[17.08,68.67],[17.08,68.69],[17.060000000000002,68.69],[17.060000000000002,68.71],[17.04,68.71],[17.04,68.72],[17.0,68.72],[17.0,68.71],[16.95,68.71],[16.94,68.69],[16.91,68.69],[16.91,68.67999999999999],[16.87,68.67999999999999],[16.87,68.69],[16.84,68.69],[16.84,68.67999999999999],[16.740000000000002,68.67999999999999],[16.740000000000002,68.67],[16.72,68.67],[16.72,68.66],[16.69,68.66],[16.69,68.64999999999999],[16.62,68.64999999999999],[16.61,68.63],[16.59,68.63],[16.59,68.61],[16.57,68.61],[16.57,68.58],[16.59,68.58],[16.59,68.57],[16.63,68.57],[16.63,68.55],[16.62,68.55],[16.62,68.53999999999999],[16.560000000000002,68.53999999999999],[16.560000000000002,68.56],[16.51,68.56],[16.5,68.53999999999999],[16.48,68.53999999999999],[16.48,68.53],[16.42,68.53],[16.42,68.55],[16.3,68.55],[16.3,68.53999999999999],[16.29,68.53999999999999],[16.29,68.55],[16.240000000000002,68.55],[16.23,68.53],[16.21,68.53],[16.21,68.52],[16.18,68.52],[16.17,68.5],[16.15,68.5],[16.15,68.48],[16.13,68.48],[16.13,68.45],[16.14,68.45],[16.14,68.44],[16.13,68.44],[16.13,68.42999999999999],[16.09,68.42999999999999],[16.09,68.39999999999999],[16.12,68.39999999999999],[16.12,68.39],[16.18,68.39],[16.18,68.39999999999999],[16.2,68.39999999999999],[16.2,68.41],[16.240000000000002,68.41],[16.240000000000002,68.42],[16.41,68.42],[16.41,68.42999999999999],[16.43,68.42999999999999],[16.43,68.46],[16.44,68.46],[16.44,68.47],[16.51,68.47],[16.51,68.48],[16.52,68.48],[16.52,68.47],[16.54,68.47],[16.54,68.45],[16.6,68.45],[16.6,68.46],[16.77,68.46],[16.77,68.47],[16.9,68.47],[16.9,68.48],[16.93,68.48],[16.93,68.50999999999999],[16.95,68.50999999999999],[16.95,68.52],[16.97,68.52],[16.97,68.53],[16.98,68.53],[16.98,68.52],[17.01,68.52],[17.01,68.50999999999999],[17.07,68.50999999999999],[17.07,68.49],[17.11,68.49],[17.11,68.48],[17.09,68.48],[17.09,68.45],[17.15,68.45],[17.15,68.46],[17.22,68.46],[17.22,68.47],[17.3,68.47],[17.310000000000002,68.49],[17.37,68.49],[17.37,68.5],[17.39,68.5],[17.4,68.52],[17.46,68.52],[17.46,68.53],[17.5,68.53],[17.5,68.53999999999999],[17.52,68.53999999999999],[17.52,68.55],[17.58,68.55],[17.58,68.53999999999999],[17.57,68.53999999999999],[17.57,68.52],[17.560000000000002,68.52],[17.560000000000002,68.50999999999999],[17.53,68.50999999999999],[17.53,68.5],[17.51,68.5],[17.51,68.47],[17.55,68.47],[17.55,68.48],[17.61,68.48],[17.61,68.47],[17.65,68.47],[17.65,68.46],[17.68,68.46],[17.68,68.47],[17.69,68.47],[17.69,68.46],[17.73,68.45],[17.73,68.44],[17.71,68.44],[17.71,68.42999999999999],[17.7,68.42999999999999],[17.7,68.44],[17.630000000000003,68.44],[17.630000000000003,68.45],[17.44,68.45],[17.42,68.41],[17.41,68.41],[17.41,68.42],[17.380000000000003,68.42],[17.380000000000003,68.42999999999999],[17.34,68.42999999999999],[17.34,68.42],[17.310000000000002,68.42],[17.310000000000002,68.41],[17.29,68.41],[17.29,68.39999999999999],[17.26,68.39999999999999],[17.26,68.37],[17.28,68.37],[17.28,68.32],[17.3,68.32],[17.3,68.31],[17.33,68.31],[17.33,68.3],[17.36,68.3],[17.37,68.28],[17.4,68.28],[17.4,68.27],[17.42,68.27],[17.42,68.25999999999999],[17.39,68.25999999999999],[17.39,68.25],[17.37,68.25],[17.37,68.24],[17.35,68.24],[17.35,68.21],[17.37,68.21],[17.37,68.2],[17.33,68.2],[17.32,68.22],[17.310000000000002,68.22],[17.310000000000002,68.23],[17.33,68.24],[17.33,68.25],[17.34,68.25],[17.34,68.28999999999999],[17.29,68.28999999999999],[17.29,68.3],[17.26,68.3],[17.26,68.31],[17.240000000000002,68.32],[17.240000000000002,68.34],[17.23,68.34],[17.23,68.37],[17.22,68.37],[17.22,68.39],[17.08,68.39],[17.08,68.38],[17.04,68.38],[17.04,68.36],[17.02,68.36],[17.02,68.35],[17.01,68.35],[17.01,68.36],[16.94,68.36],[16.93,68.34],[16.89,68.34],[16.89,68.35],[16.87,68.35],[16.87,68.36],[16.9,68.36],[16.9,68.39],[16.87,68.39],[16.87,68.39999999999999],[16.810000000000002,68.39999999999999],[16.810000000000002,68.41],[16.79,68.41],[16.79,68.42],[16.69,68.42],[16.69,68.41],[16.68,68.41],[16.68,68.42],[16.58,68.42],[16.58,68.41],[16.57,68.41],[16.57,68.42],[16.54,68.42],[16.54,68.41],[16.47,68.41],[16.47,68.39999999999999],[16.45,68.39999999999999],[16.45,68.39],[16.4,68.39],[16.4,68.38],[16.310000000000002,68.38],[16.310000000000002,68.37],[16.3,68.37],[16.3,68.34],[16.35,68.34],[16.35,68.33],[16.43,68.32],[16.43,68.31],[16.46,68.31],[16.46,68.3],[16.53,68.3],[16.53,68.28999999999999],[16.59,68.28999999999999],[16.59,68.28],[16.63,68.28],[16.63,68.24],[16.65,68.23],[16.65,68.21],[16.66,68.21],[16.66,68.2],[16.69,68.2],[16.69,68.19],[16.740000000000002,68.19],[16.75,68.17],[16.8,68.17],[16.8,68.16],[16.82,68.16],[16.82,68.14999999999999],[16.78,68.14999999999999],[16.78,68.16],[16.740000000000002,68.16],[16.740000000000002,68.14999999999999],[16.73,68.14999999999999],[16.72,68.17],[16.7,68.17],[16.7,68.17999999999999],[16.67,68.17999999999999],[16.67,68.19],[16.63,68.19],[16.63,68.2],[16.6,68.2],[16.6,68.21],[16.61,68.21],[16.61,68.24],[16.59,68.24],[16.59,68.25],[16.57,68.25],[16.57,68.25999999999999],[16.55,68.25999999999999],[16.55,68.27],[16.53,68.27],[16.53,68.28],[16.47,68.28],[16.47,68.28999999999999],[16.44,68.28999999999999],[16.44,68.3],[16.39,68.3],[16.39,68.31],[16.33,68.31],[16.33,68.32],[16.29,68.32],[16.29,68.31],[16.26,68.31],[16.26,68.32],[16.240000000000002,68.32],[16.240000000000002,68.33],[16.2,68.33],[16.2,68.32],[16.17,68.32],[16.17,68.28999999999999],[16.19,68.28999999999999],[16.19,68.28],[16.23,68.28],[16.23,68.27],[16.27,68.27],[16.27,68.25999999999999],[16.32,68.25999999999999],[16.32,68.27],[16.36,68.27],[16.36,68.23],[16.46,68.23],[16.46,68.24],[16.490000000000002,68.24],[16.490000000000002,68.23],[16.48,68.23],[16.48,68.19],[16.490000000000002,68.19],[16.48,68.17],[16.47,68.17],[16.47,68.17999999999999],[16.44,68.17999999999999],[16.43,68.16],[16.42,68.16],[16.42,68.14999999999999],[16.41,68.14999999999999],[16.41,68.16],[16.38,68.16],[16.38,68.17],[16.35,68.17],[16.35,68.14],[16.3,68.14],[16.3,68.11],[16.310000000000002,68.11],[16.310000000000002,68.1],[16.4,68.1],[16.4,68.11],[16.42,68.11],[16.42,68.12],[16.44,68.12],[16.44,68.13],[16.490000000000002,68.13],[16.490000000000002,68.14],[16.53,68.13],[16.53,68.11],[16.55,68.11],[16.55,68.1],[16.66,68.1],[16.66,68.09],[16.64,68.09],[16.64,68.08],[16.560000000000002,68.08],[16.560000000000002,68.09],[16.52,68.09],[16.52,68.1],[16.5,68.1],[16.5,68.12],[16.46,68.12],[16.46,68.11],[16.44,68.11],[16.44,68.09],[16.43,68.09],[16.43,68.08],[16.38,68.08],[16.38,68.07],[16.37,68.07],[16.37,68.03999999999999],[16.44,68.03999999999999],[16.44,68.03],[16.5,68.03],[16.5,68.02],[16.52,68.02],[16.52,68.00999999999999],[16.490000000000002,68.00999999999999],[16.490000000000002,67.98],[16.48,67.98],[16.48,67.97],[16.45,67.97],[16.45,67.99],[16.43,67.99],[16.43,68.00999999999999],[16.41,68.00999999999999],[16.41,68.02],[16.37,68.02],[16.37,68.03],[16.34,68.03],[16.34,68.0],[16.35,68.0],[16.36,67.98],[16.38,67.98],[16.38,67.97],[16.4,67.97],[16.4,67.96],[16.45,67.96],[16.45,67.92999999999999],[16.41,67.92999999999999],[16.41,67.94],[16.39,67.94],[16.39,67.95],[16.36,67.95],[16.36,67.96],[16.34,67.96],[16.34,67.98],[16.32,67.98],[16.32,68.0],[16.3,68.00999999999999],[16.3,68.02],[16.28,68.02],[16.28,68.03],[16.240000000000002,68.03],[16.240000000000002,68.0],[16.28,67.98],[16.28,67.94],[16.26,67.94],[16.26,67.91],[16.28,67.91],[16.28,67.89999999999999],[16.310000000000002,67.89999999999999],[16.310000000000002,67.89],[16.34,67.89],[16.34,67.88],[16.38,67.88],[16.38,67.87],[16.42,67.87],[16.42,67.86],[16.46,67.86],[16.46,67.85],[16.44,67.85],[16.44,67.84],[16.39,67.84],[16.39,67.85],[16.37,67.85],[16.37,67.86],[16.35,67.86],[16.35,67.87],[16.3,67.87],[16.29,67.89],[16.22,67.89],[16.22,67.89999999999999],[16.2,67.89999999999999],[16.2,67.92],[16.21,67.92],[16.21,67.94],[16.22,67.94],[16.22,67.98],[16.19,67.98],[16.19,68.00999999999999],[16.17,68.00999999999999],[16.16,68.03],[16.1,68.03],[16.1,68.05],[16.08,68.05],[16.08,68.06],[16.09,68.06],[16.09,68.08],[16.1,68.08],[16.1,68.11],[16.12,68.12],[16.12,68.16],[16.14,68.16],[16.14,68.19],[16.11,68.19],[16.11,68.17999999999999],[16.02,68.17999999999999],[16.02,68.19],[16.04,68.19],[16.04,68.2],[16.05,68.2],[16.05,68.19],[16.08,68.19],[16.08,68.23],[16.060000000000002,68.23],[16.060000000000002,68.25],[16.04,68.25],[16.04,68.25999999999999],[15.96,68.25999999999999],[15.96,68.22],[15.95,68.22],[15.940000000000001,68.2],[15.86,68.2],[15.86,68.17],[15.870000000000001,68.17],[15.870000000000001,68.16],[15.89,68.16],[15.9,68.14],[15.86,68.13],[15.850000000000001,68.11],[15.8,68.11],[15.79,68.09],[15.780000000000001,68.09],[15.780000000000001,68.1],[15.73,68.1],[15.72,68.08],[15.65,68.08],[15.65,68.09],[15.64,68.09],[15.64,68.1],[15.620000000000001,68.1],[15.620000000000001,68.11],[15.629999999999999,68.11],[15.629999999999999,68.12],[15.64,68.12],[15.64,68.11],[15.72,68.11],[15.72,68.17],[15.690000000000001,68.17],[15.690000000000001,68.17999999999999],[15.67,68.17999999999999],[15.67,68.19],[15.620000000000001,68.19],[15.620000000000001,68.14999999999999],[15.61,68.14999999999999],[15.61,68.14],[15.600000000000001,68.14],[15.600000000000001,68.14999999999999],[15.57,68.14999999999999],[15.57,68.13],[15.54,68.13],[15.54,68.12],[15.52,68.12],[15.52,68.11],[15.5,68.11],[15.5,68.16],[15.46,68.16],[15.46,68.14999999999999],[15.440000000000001,68.14999999999999],[15.440000000000001,68.14],[15.4,68.14],[15.4,68.13],[15.379999999999999,68.12],[15.379999999999999,68.11],[15.34,68.11],[15.33,68.07],[15.32,68.07],[15.32,68.06],[15.29,68.06],[15.29,68.03],[15.3,68.03],[15.3,68.02],[15.36,68.02],[15.36,68.00999999999999],[15.440000000000001,68.00999999999999],[15.440000000000001,68.03999999999999],[15.45,68.03999999999999],[15.45,68.05],[15.510000000000002,68.05],[15.510000000000002,68.06],[15.530000000000001,68.06],[15.530000000000001,68.08],[15.59,68.08],[15.59,68.05],[15.73,68.05],[15.73,68.03999999999999],[15.74,68.03999999999999],[15.74,68.0],[15.780000000000001,68.0],[15.780000000000001,67.99],[15.81,67.99],[15.81,67.98],[15.879999999999999,67.98],[15.879999999999999,67.97],[15.92,67.97],[15.92,67.96],[15.9,67.96],[15.9,67.95],[15.870000000000001,67.95],[15.870000000000001,67.92],[15.879999999999999,67.92],[15.879999999999999,67.91],[15.84,67.91],[15.83,67.95],[15.79,67.96],[15.79,67.97],[15.68,67.97],[15.68,67.96],[15.64,67.96],[15.64,67.95],[15.59,67.95],[15.59,67.92999999999999],[15.58,67.92999999999999],[15.58,67.92],[15.57,67.92],[15.57,67.92999999999999],[15.55,67.92999999999999],[15.55,67.94],[15.5,67.94],[15.5,67.92999999999999],[15.440000000000001,67.92999999999999],[15.440000000000001,67.92],[15.43,67.92],[15.43,67.92999999999999],[15.4,67.92999999999999],[15.4,67.94],[15.36,67.94],[15.36,67.95],[15.31,67.95],[15.31,67.97],[15.29,67.97],[15.29,67.99],[15.27,67.99],[15.27,68.0],[15.260000000000002,68.0],[15.260000000000002,68.02],[15.24,68.02],[15.24,68.03],[15.21,68.03],[15.2,68.00999999999999],[15.18,68.00999999999999],[15.18,68.0],[15.14,68.0],[15.14,68.00999999999999],[15.09,68.00999999999999],[15.09,68.02],[15.06,68.02],[15.06,68.03],[15.010000000000002,68.03],[15.010000000000002,68.03999999999999],[14.98,68.03999999999999],[14.98,68.05],[14.940000000000001,68.05],[14.940000000000001,68.06],[14.89,68.06],[14.89,68.07],[14.86,68.07],[14.86,68.08],[14.83,68.08],[14.83,68.09],[14.780000000000001,68.09],[14.780000000000001,68.1],[14.75,68.1],[14.75,68.11],[14.72,68.11],[14.72,68.12],[14.67,68.12],[14.67,68.13],[14.63,68.13],[14.63,68.14],[14.58,68.14],[14.58,68.14999999999999],[14.55,68.14999999999999],[14.55,68.16],[14.52,68.16],[14.52,68.17],[14.47,68.17],[14.47,68.17999999999999],[14.440000000000001,68.17999999999999],[14.440000000000001,68.19],[14.4,68.19],[14.4,68.21],[14.41,68.21],[14.41,68.22],[14.42,68.22],[14.42,68.21],[14.51,68.21],[14.52,68.23],[14.540000000000001,68.23],[14.540000000000001,68.24],[14.58,68.24],[14.58,68.25],[14.620000000000001,68.25],[14.620000000000001,68.24],[14.67,68.24],[14.67,68.25],[14.68,68.25],[14.68,68.28],[14.690000000000001,68.28],[14.7,68.3],[14.71,68.3],[14.71,68.34],[14.72,68.34],[14.72,68.35],[14.76,68.35],[14.76,68.33],[14.780000000000001,68.33],[14.780000000000001,68.32],[14.75,68.32],[14.75,68.3],[14.73,68.28999999999999],[14.73,68.25999999999999],[14.76,68.25999999999999],[14.77,68.28],[14.81,68.28],[14.81,68.28999999999999],[14.83,68.28999999999999],[14.84,68.31],[14.89,68.31],[14.9,68.33],[14.95,68.33],[14.95,68.34],[14.97,68.34],[14.97,68.35],[14.98,68.35],[14.98,68.37],[15.05,68.37],[15.05,68.38],[15.07,68.38],[15.07,68.39999999999999],[15.08,68.39999999999999],[15.08,68.41],[15.100000000000001,68.41],[15.100000000000001,68.42],[15.129999999999999,68.42],[15.129999999999999,68.42999999999999],[15.14,68.42999999999999],[15.14,68.46],[15.05,68.46],[15.05,68.45],[14.98,68.45],[14.98,68.44],[14.97,68.44],[14.97,68.45],[14.940000000000001,68.45],[14.940000000000001,68.44],[14.93,68.44],[14.93,68.45],[14.89,68.45],[14.89,68.42999999999999],[14.88,68.42999999999999],[14.88,68.39999999999999],[14.89,68.39999999999999],[14.89,68.39],[14.85,68.39],[14.85,68.39999999999999],[14.84,68.39999999999999],[14.84,68.42999999999999],[14.76,68.42999999999999],[14.76,68.44],[14.72,68.44],[14.72,68.42],[14.71,68.42],[14.71,68.41],[14.7,68.41],[14.7,68.42],[14.68,68.42],[14.68,68.42999999999999],[14.66,68.42999999999999],[14.66,68.44],[14.620000000000001,68.44],[14.620000000000001,68.42999999999999],[14.56,68.42999999999999],[14.56,68.39999999999999],[14.59,68.39999999999999],[14.58,68.38],[14.57,68.38],[14.57,68.39],[14.530000000000001,68.39],[14.530000000000001,68.39999999999999],[14.47,68.39999999999999],[14.47,68.39],[14.43,68.39],[14.43,68.34],[14.45,68.34],[14.440000000000001,68.32],[14.41,68.32],[14.41,68.33],[14.39,68.33],[14.39,68.34],[14.33,68.34],[14.33,68.33],[14.32,68.33],[14.32,68.28999999999999],[14.34,68.28999999999999],[14.34,68.28],[14.3,68.28],[14.3,68.27],[14.290000000000001,68.27],[14.290000000000001,68.24],[14.27,68.23],[14.27,68.24],[14.21,68.24],[14.21,68.25],[14.16,68.25],[14.15,68.27],[14.13,68.27],[14.13,68.28],[14.11,68.28],[14.11,68.28999999999999],[14.08,68.28999999999999],[14.08,68.28],[14.040000000000001,68.28],[14.040000000000001,68.28999999999999],[14.01,68.28999999999999],[14.01,68.33],[14.0,68.33],[14.0,68.34],[13.98,68.34],[13.98,68.35],[13.95,68.35],[13.95,68.34],[13.88,68.34],[13.88,68.33],[13.84,68.33],[13.84,68.34],[13.790000000000001,68.34],[13.790000000000001,68.35],[13.76,68.35],[13.76,68.36],[13.72,68.36],[13.72,68.37],[13.67,68.37],[13.67,68.38],[13.64,68.38],[13.64,68.39],[13.59,68.39],[13.59,68.39999999999999],[13.56,68.39999999999999],[13.56,68.41],[13.51,68.41],[13.51,68.42],[13.47,68.42],[13.47,68.42999999999999],[13.440000000000001,68.42999999999999],[13.440000000000001,68.44],[13.39,68.44],[13.39,68.45],[13.35,68.45],[13.35,68.46],[13.3,68.46],[13.3,68.47],[13.27,68.47],[13.27,68.48],[13.22,68.48],[13.22,68.49],[13.190000000000001,68.49],[13.190000000000001,68.5],[13.14,68.5],[13.14,68.50999999999999],[13.1,68.50999999999999],[13.1,68.52],[13.05,68.52],[13.05,68.53],[13.02,68.53],[13.02,68.53999999999999],[12.97,68.53999999999999],[12.97,68.55],[12.93,68.55],[12.93,68.56],[12.9,68.56],[12.9,68.57],[12.85,68.57],[12.85,68.58],[12.81,68.58],[12.81,68.59],[12.76,68.59],[12.76,68.6],[12.73,68.6],[12.73,68.61],[12.68,68.61],[12.68,68.62],[12.64,68.62],[12.64,68.63],[12.59,68.63],[12.59,68.64],[12.56,68.64],[12.56,68.64999999999999],[12.5,68.64999999999999],[12.5,68.66],[12.47,68.66],[12.47,68.67],[12.42,68.67],[12.42,68.67999999999999],[12.38,68.67999999999999],[12.38,68.69],[12.33,68.69],[12.33,68.7],[12.3,68.7],[12.3,68.71],[12.25,68.71],[12.25,68.72],[12.19,68.72],[12.19,68.73],[12.16,68.73],[12.16,68.74],[12.11,68.74],[12.11,68.75],[12.07,68.75],[12.07,68.75999999999999],[12.02,68.75999999999999],[12.02,68.77],[11.99,68.77],[11.99,68.78],[11.93,68.78],[11.93,68.78999999999999],[11.9,68.78999999999999],[11.9,68.8],[11.85,68.8],[11.85,68.81],[11.81,68.81],[11.81,68.82],[11.76,68.82],[11.76,68.83],[11.71,68.83],[11.71,68.84],[11.67,68.84],[11.67,68.85],[11.620000000000001,68.85],[11.620000000000001,68.86],[11.58,68.86],[11.58,68.87],[11.530000000000001,68.87],[11.530000000000001,68.88],[11.5,68.88],[11.5,68.89],[11.44,68.89],[11.44,68.89999999999999],[11.39,68.89999999999999],[11.39,68.91],[11.36,68.91],[11.36,68.92],[11.3,68.92],[11.3,68.92999999999999],[11.27,68.92999999999999],[11.27,68.94],[11.21,68.94],[11.21,68.95],[11.16,68.95],[11.17,68.97],[11.18,68.97],[11.18,68.98],[11.200000000000001,68.98],[11.200000000000001,68.99],[11.21,68.99],[11.21,69.0],[11.24,69.0],[11.25,69.02],[11.27,69.02],[11.27,69.03],[11.290000000000001,69.03],[11.3,69.05],[11.32,69.05],[11.33,69.07],[11.35,69.07],[11.35,69.08],[11.370000000000001,69.08],[11.370000000000001,69.09],[11.41,69.1],[11.42,69.12],[11.44,69.12],[11.450000000000001,69.14],[11.47,69.14],[11.48,69.16],[11.51,69.16],[11.51,69.17],[11.530000000000001,69.17],[11.540000000000001,69.19],[11.56,69.19],[11.57,69.21],[11.59,69.21],[11.59,69.22],[11.61,69.22],[11.61,69.23],[11.65,69.24],[11.66,69.25999999999999],[11.68,69.25999999999999],[11.69,69.28],[11.72,69.28],[11.72,69.28999999999999],[11.74,69.28999999999999],[11.75,69.31],[11.77,69.31],[11.780000000000001,69.33],[11.8,69.33],[11.8,69.34],[11.82,69.34],[11.82,69.35],[11.84,69.35],[11.84,69.36],[11.86,69.36],[11.86,69.37],[11.870000000000001,69.37],[11.870000000000001,69.38],[11.89,69.38],[11.9,69.39999999999999],[11.93,69.39999999999999],[11.93,69.41],[11.95,69.41],[11.96,69.42999999999999],[11.98,69.42999999999999],[11.99,69.45],[12.02,69.45],[12.030000000000001,69.47],[12.07,69.48],[12.08,69.5],[12.11,69.5],[12.120000000000001,69.52],[12.16,69.53],[12.17,69.55],[12.2,69.55],[12.21,69.57],[12.23,69.57],[12.24,69.59],[12.26,69.59],[12.26,69.6],[12.290000000000001,69.6],[12.3,69.62],[12.32,69.62],[12.33,69.64],[12.36,69.64],[12.36,69.64999999999999],[12.38,69.64999999999999],[12.39,69.67],[12.43,69.67999999999999],[12.43,69.69],[12.45,69.69],[12.45,69.7],[12.47,69.7],[12.48,69.72],[12.51,69.72],[12.52,69.74],[12.540000000000001,69.74],[12.540000000000001,69.75],[12.58,69.75999999999999],[12.58,69.77],[12.6,69.77],[12.61,69.78999999999999],[12.63,69.78999999999999],[12.64,69.81],[12.67,69.81],[12.67,69.82],[12.69,69.82],[12.7,69.84],[12.73,69.84],[12.74,69.86],[12.76,69.86],[12.76,69.87],[12.780000000000001,69.87],[12.780000000000001,69.88],[12.8,69.88],[12.8,69.89],[12.82,69.89],[12.83,69.91],[12.86,69.91],[12.86,69.92],[12.88,69.92],[12.89,69.94],[12.91,69.94],[12.91,69.95],[12.93,69.95],[12.93,69.96],[12.95,69.96],[12.95,69.97],[12.97,69.97],[12.97,69.98],[12.99,69.98],[12.99,69.99],[13.01,69.99],[13.02,70.00999999999999],[13.04,70.00999999999999],[13.04,70.02],[13.07,70.02],[13.08,70.03999999999999],[13.1,70.03999999999999],[13.1,70.05],[13.120000000000001,70.05],[13.120000000000001,70.06],[13.16,70.07],[13.16,70.08],[13.18,70.08],[13.18,70.09],[13.2,70.09],[13.21,70.11],[13.24,70.11],[13.24,70.12],[13.26,70.12],[13.27,70.14],[13.3,70.14],[13.31,70.16],[13.33,70.16],[13.33,70.17],[13.36,70.17],[13.370000000000001,70.19],[13.39,70.19],[13.39,70.2],[13.42,70.2],[13.43,70.22],[13.45,70.22],[13.45,70.23],[13.49,70.24],[13.49,70.25],[13.51,70.25],[13.51,70.25999999999999],[13.530000000000001,70.25999999999999],[13.530000000000001,70.27],[13.55,70.27],[13.56,70.28999999999999],[13.59,70.28999999999999],[13.59,70.3],[13.61,70.3],[13.620000000000001,70.32],[13.65,70.32],[13.66,70.34],[13.690000000000001,70.34],[13.690000000000001,70.35],[13.71,70.35],[13.72,70.37],[13.75,70.37],[13.76,70.39],[13.780000000000001,70.39],[13.780000000000001,70.39999999999999],[13.81,70.39999999999999],[13.82,70.42],[13.85,70.42],[13.85,70.42999999999999],[13.870000000000001,70.42999999999999],[13.88,70.45],[13.91,70.45],[13.92,70.47],[13.940000000000001,70.47],[13.940000000000001,70.48],[13.97,70.48],[13.98,70.5],[14.01,70.5],[14.02,70.52],[14.040000000000001,70.52],[14.040000000000001,70.53],[14.07,70.53],[14.08,70.55],[14.11,70.55],[14.11,70.56],[14.15,70.57],[14.15,70.58],[14.17,70.58],[14.18,70.6],[14.21,70.6],[14.21,70.61],[14.23,70.61],[14.23,70.62],[14.27,70.63],[14.280000000000001,70.64999999999999],[14.34,70.66],[14.34,70.67],[14.35,70.67],[14.35,70.67999999999999],[14.370000000000001,70.67999999999999],[14.370000000000001,70.69],[14.4,70.69],[14.41,70.71],[14.440000000000001,70.71],[14.45,70.73],[14.48,70.73],[14.48,70.74],[14.5,70.74],[14.51,70.75999999999999],[14.57,70.77],[14.58,70.78999999999999],[14.620000000000001,70.8],[14.620000000000001,70.81],[14.64,70.81],[14.64,70.82],[14.67,70.82],[14.68,70.84],[14.71,70.84],[14.71,70.85],[14.73,70.85],[14.73,70.86],[14.75,70.86],[14.75,70.87],[14.77,70.87],[14.77,70.88],[14.790000000000001,70.88],[14.790000000000001,70.89],[14.81,70.89],[14.81,70.89999999999999],[14.84,70.89999999999999],[14.85,70.92],[14.88,70.92],[14.88,70.92999999999999],[14.9,70.92999999999999],[14.9,70.94],[14.92,70.94],[14.92,70.95],[14.940000000000001,70.95],[14.940000000000001,70.96],[14.97,70.96],[14.98,70.98],[15.010000000000002,70.98],[15.02,71.0],[15.05,71.0],[15.05,71.00999999999999],[15.07,71.00999999999999],[15.07,71.02],[15.09,71.02],[15.09,71.03],[15.11,71.03],[15.11,71.03999999999999],[15.14,71.03999999999999],[15.15,71.06],[15.21,71.07],[15.22,71.09],[15.25,71.09],[15.260000000000002,71.11],[15.29,71.11],[15.29,71.12],[15.33,71.13],[15.33,71.14],[15.350000000000001,71.14],[15.350000000000001,71.14999999999999],[15.379999999999999,71.14999999999999],[15.39,71.17],[15.45,71.17999999999999],[15.46,71.2],[15.49,71.2],[15.5,71.22],[15.530000000000001,71.22],[15.530000000000001,71.23],[15.57,71.24],[15.57,71.25],[15.59,71.25],[15.59,71.25999999999999],[15.620000000000001,71.25999999999999],[15.620000000000001,71.27],[15.64,71.27],[15.64,71.28],[15.66,71.28],[15.66,71.28999999999999],[15.690000000000001,71.28999999999999],[15.7,71.31],[15.760000000000002,71.32],[15.77,71.34],[15.83,71.35],[15.84,71.37],[15.870000000000001,71.37],[15.879999999999999,71.39],[15.940000000000001,71.39999999999999],[15.95,71.42],[16.01,71.42999999999999],[16.02,71.45],[16.05,71.45],[16.05,71.46],[16.07,71.46],[16.07,71.47],[16.09,71.47],[16.09,71.48],[16.12,71.48],[16.12,71.49],[16.14,71.49],[16.14,71.5],[16.16,71.5],[16.16,71.50999999999999],[16.19,71.50999999999999],[16.19,71.52],[16.21,71.52],[16.21,71.53],[16.23,71.53],[16.23,71.53999999999999],[16.26,71.53999999999999],[16.26,71.55],[16.28,71.55],[16.28,71.56],[16.3,71.56],[16.3,71.57],[16.33,71.57],[16.33,71.58],[16.35,71.58],[16.35,71.59],[16.37,71.59],[16.37,71.6],[16.4,71.6],[16.4,71.61],[16.42,71.61],[16.42,71.62],[16.44,71.62],[16.44,71.63],[16.47,71.63],[16.48,71.64999999999999],[16.51,71.64999999999999],[16.51,71.66],[16.54,71.66],[16.54,71.67],[16.55,71.67]],[[20.17,70.28],[20.19,70.28],[20.200000000000003,70.22],[20.240000000000002,70.22],[20.25,70.24],[20.27,70.24],[20.27,70.27],[20.240000000000002,70.27],[20.240000000000002,70.3],[20.200000000000003,70.3],[20.200000000000003,70.31],[20.17,70.31],[20.17,70.28]],[[19.58,70.27],[19.560000000000002,70.27],[19.560000000000002,70.25999999999999],[19.54,70.25999999999999],[19.54,70.25],[19.509999999999998,70.25],[19.509999999999998,70.22],[19.52,70.22],[19.52,70.21],[19.58,70.21],[19.58,70.2],[19.6,70.2],[19.6,70.19],[19.62,70.19],[19.62,70.17999999999999],[19.66,70.17],[19.68,70.13],[19.700000000000003,70.13],[19.700000000000003,70.11],[19.69,70.11],[19.69,70.08],[19.700000000000003,70.08],[19.71,70.06],[19.84,70.06],[19.84,70.05],[19.9,70.03999999999999],[19.9,70.05],[19.94,70.05],[19.94,70.06],[20.0,70.06],[20.0,70.08],[20.02,70.08],[20.02,70.09],[20.08,70.09],[20.08,70.12],[19.98,70.12],[19.98,70.14],[19.950000000000003,70.14],[19.950000000000003,70.14999999999999],[19.91,70.14999999999999],[19.91,70.19],[19.9,70.19],[19.9,70.2],[19.82,70.2],[19.82,70.17999999999999],[19.8,70.17],[19.8,70.16],[19.78,70.16],[19.78,70.14999999999999],[19.77,70.14999999999999],[19.77,70.16],[19.75,70.17],[19.75,70.21],[19.740000000000002,70.21],[19.740000000000002,70.22],[19.77,70.22],[19.77,70.25999999999999],[19.73,70.25999999999999],[19.73,70.25],[19.71,70.25],[19.71,70.24],[19.69,70.23],[19.69,70.24],[19.67,70.24],[19.67,70.25999999999999],[19.66,70.25999999999999],[19.65,70.28],[19.58,70.28],[19.58,70.27]],[[19.17,70.25],[19.15,70.25],[19.15,70.24],[19.11,70.24],[19.11,70.17],[19.09,70.17],[19.09,70.16],[19.08,70.16],[19.08,70.17],[19.05,70.17],[19.05,70.16],[19.04,70.16],[19.04,70.17],[19.0,70.17999999999999],[19.0,70.19],[18.97,70.19],[18.97,70.16],[18.990000000000002,70.16],[18.990000000000002,70.14999999999999],[19.009999999999998,70.14999999999999],[19.009999999999998,70.14],[19.04,70.14],[19.04,70.13],[19.08,70.13],[19.09,70.11],[19.18,70.11],[19.18,70.12],[19.21,70.12],[19.21,70.13],[19.23,70.13],[19.23,70.16],[19.25,70.17],[19.25,70.2],[19.23,70.21],[19.23,70.24],[19.22,70.24],[19.22,70.25],[19.200000000000003,70.25],[19.200000000000003,70.25999999999999],[19.17,70.25999999999999],[19.17,70.25]],[[20.67,70.23],[20.53,70.23],[20.53,70.22],[20.52,70.22],[20.52,70.19],[20.43,70.19],[20.43,70.17999999999999],[20.4,70.17999999999999],[20.4,70.16],[20.380000000000003,70.14999999999999],[20.380000000000003,70.13],[20.37,70.13],[20.37,70.09],[20.380000000000003,70.09],[20.380000000000003,70.06],[20.41,70.06],[20.41,70.05],[20.5,70.05],[20.509999999999998,70.07],[20.54,70.07],[20.54,70.08],[20.58,70.08],[20.58,70.07],[20.57,70.07],[20.57,70.03999999999999],[20.64,70.03999999999999],[20.64,70.05],[20.72,70.03999999999999],[20.72,70.05],[20.77,70.05],[20.77,70.08],[20.75,70.08],[20.75,70.13],[20.759999999999998,70.13],[20.77,70.14999999999999],[20.78,70.14999999999999],[20.78,70.16],[20.8,70.16],[20.8,70.17999999999999],[20.810000000000002,70.17999999999999],[20.810000000000002,70.21],[20.79,70.21],[20.79,70.22],[20.77,70.22],[20.77,70.23],[20.72,70.23],[20.72,70.24],[20.67,70.24],[20.67,70.23]],[[18.82,70.17999999999999],[18.810000000000002,70.17999999999999],[18.810000000000002,70.14999999999999],[18.89,70.14999999999999],[18.89,70.19],[18.82,70.19],[18.82,70.17999999999999]],[[19.97,70.14999999999999],[20.0,70.14999999999999],[20.0,70.17999999999999],[19.97,70.17999999999999],[19.97,70.14999999999999]],[[19.37,70.16],[19.36,70.16],[19.36,70.14999999999999],[19.34,70.14999999999999],[19.34,70.12],[19.36,70.12],[19.36,70.11],[19.42,70.11],[19.42,70.1],[19.53,70.1],[19.53,70.13],[19.5,70.13],[19.5,70.14],[19.46,70.14999999999999],[19.46,70.16],[19.4,70.16],[19.4,70.17],[19.37,70.17],[19.37,70.16]],[[20.810000000000002,70.14],[20.79,70.13],[20.79,70.08],[20.810000000000002,70.08],[20.810000000000002,70.07],[20.880000000000003,70.07],[20.880000000000003,70.08],[20.91,70.08],[20.91,70.11],[20.89,70.11],[20.89,70.12],[20.880000000000003,70.12],[20.880000000000003,70.14],[20.85,70.14],[20.85,70.14999999999999],[20.810000000000002,70.14999999999999],[20.810000000000002,70.14]],[[18.82,70.1],[18.77,70.1],[18.77,70.11],[18.740000000000002,70.11],[18.740000000000002,70.12],[18.71,70.12],[18.71,70.08],[18.69,70.08],[18.69,70.07],[18.66,70.07],[18.66,70.03],[18.68,70.02],[18.68,69.99],[18.73,69.99],[18.73,70.0],[18.76,70.0],[18.76,70.02],[18.77,70.02],[18.77,70.03],[18.83,70.03],[18.84,70.05],[18.94,70.05],[18.94,70.06],[18.96,70.06],[18.96,70.09],[18.95,70.09],[18.95,70.1],[18.880000000000003,70.1],[18.880000000000003,70.09],[18.87,70.09],[18.87,70.1],[18.85,70.1],[18.85,70.13],[18.82,70.13],[18.82,70.1]],[[18.97,70.09],[19.0,70.09],[19.0,70.12],[18.97,70.12],[18.97,70.09]],[[19.09,70.07],[19.08,70.07],[19.08,70.03999999999999],[19.09,70.03999999999999],[19.09,70.03],[19.07,70.03],[19.07,70.02],[19.03,70.02],[19.03,70.03999999999999],[18.98,70.03999999999999],[18.98,70.03],[18.96,70.03],[18.96,70.02],[18.95,70.02],[18.95,70.03],[18.86,70.03],[18.86,70.02],[18.83,70.02],[18.83,70.00999999999999],[18.810000000000002,70.00999999999999],[18.810000000000002,69.98],[18.83,69.98],[18.83,69.97],[18.86,69.97],[18.86,69.95],[18.85,69.95],[18.85,69.94],[18.82,69.94],[18.82,69.95],[18.79,69.95],[18.79,69.96],[18.71,69.96],[18.71,69.92],[18.72,69.92],[18.72,69.91],[18.76,69.91],[18.76,69.89999999999999],[18.810000000000002,69.89999999999999],[18.810000000000002,69.89],[18.87,69.89],[18.87,69.88],[18.91,69.87],[18.92,69.85],[18.98,69.85],[18.98,69.84],[19.009999999999998,69.84],[19.009999999999998,69.82],[19.05,69.81],[19.05,69.8],[19.07,69.8],[19.07,69.78999999999999],[19.18,69.78999999999999],[19.18,69.8],[19.25,69.8],[19.25,69.81],[19.310000000000002,69.81],[19.310000000000002,69.82],[19.35,69.82],[19.35,69.84],[19.36,69.84],[19.36,69.85],[19.380000000000003,69.85],[19.380000000000003,69.86],[19.4,69.86],[19.4,69.87],[19.42,69.87],[19.42,69.89],[19.439999999999998,69.89],[19.439999999999998,69.89999999999999],[19.47,69.89999999999999],[19.47,69.91],[19.48,69.91],[19.48,69.95],[19.53,69.95],[19.53,69.96],[19.61,69.96],[19.61,69.97],[19.66,69.97],[19.66,70.0],[19.64,70.0],[19.64,70.00999999999999],[19.560000000000002,70.00999999999999],[19.560000000000002,70.0],[19.55,70.0],[19.55,70.00999999999999],[19.53,70.00999999999999],[19.53,70.05],[19.42,70.05],[19.42,70.03999999999999],[19.41,70.03999999999999],[19.4,70.02],[19.39,70.02],[19.39,69.99],[19.37,69.98],[19.37,69.99],[19.33,69.99],[19.33,70.00999999999999],[19.3,70.00999999999999],[19.3,70.03],[19.28,70.03],[19.28,70.05],[19.29,70.05],[19.29,70.08],[19.25,70.08],[19.25,70.07],[19.23,70.07],[19.23,70.06],[19.22,70.06],[19.22,70.07],[19.200000000000003,70.07],[19.200000000000003,70.08],[19.09,70.08],[19.09,70.07]],[[20.77,70.03],[20.72,70.03],[20.72,69.99],[20.759999999999998,69.98],[20.759999999999998,69.94],[20.8,69.94],[20.8,69.92999999999999],[20.880000000000003,69.92999999999999],[20.880000000000003,69.94],[20.950000000000003,69.94],[20.950000000000003,69.98],[20.93,69.98],[20.93,69.99],[20.9,69.99],[20.9,70.0],[20.880000000000003,70.00999999999999],[20.880000000000003,70.02],[20.86,70.02],[20.86,70.03],[20.83,70.03],[20.83,70.03999999999999],[20.77,70.03999999999999],[20.77,70.03]],[[20.94,70.00999999999999],[20.98,70.00999999999999],[20.98,70.03999999999999],[20.94,70.03999999999999],[20.94,70.00999999999999]],[[21.59,70.00999999999999],[21.65,70.00999999999999],[21.65,70.0],[21.68,70.0],[21.68,69.99],[21.71,69.99],[21.71,70.02],[21.69,70.02],[21.68,70.03999999999999],[21.59,70.03999999999999],[21.59,70.00999999999999]],[[19.740000000000002,69.98],[19.71,69.98],[19.71,69.97],[19.69,69.97],[19.69,69.96],[19.67,69.96],[19.67,69.95],[19.64,69.95],[19.64,69.94],[19.62,69.94],[19.62,69.92999999999999],[19.54,69.92999999999999],[19.54,69.92],[19.509999999999998,69.92],[19.509999999999998,69.89999999999999],[19.5,69.89999999999999],[19.5,69.89],[19.47,69.89],[19.47,69.88],[19.450000000000003,69.88],[19.450000000000003,69.84],[19.490000000000002,69.84],[19.490000000000002,69.85],[19.62,69.85],[19.62,69.86],[19.740000000000002,69.86],[19.740000000000002,69.87],[19.75,69.87],[19.75,69.89],[19.759999999999998,69.89],[19.759999999999998,69.89999999999999],[19.78,69.89999999999999],[19.78,69.92],[19.8,69.92],[19.8,69.94],[19.810000000000002,69.94],[19.810000000000002,69.95],[19.84,69.95],[19.84,69.96],[19.85,69.96],[19.85,70.0],[19.740000000000002,70.0],[19.740000000000002,69.98]],[[20.62,69.95],[20.630000000000003,69.95],[20.630000000000003,69.94],[20.68,69.94],[20.68,69.97],[20.67,69.97],[20.67,69.98],[20.65,69.98],[20.65,69.99],[20.62,69.99],[20.62,69.95]],[[20.69,69.89999999999999],[20.61,69.89999999999999],[20.61,69.91],[20.57,69.91],[20.57,69.89],[20.55,69.88],[20.55,69.86],[20.52,69.86],[20.53,69.8],[20.54,69.8],[20.54,69.78999999999999],[20.62,69.78999999999999],[20.630000000000003,69.81],[20.69,69.81],[20.69,69.82],[20.71,69.82],[20.71,69.86],[20.69,69.86],[20.69,69.89],[20.72,69.89],[20.72,69.92],[20.69,69.92],[20.69,69.89999999999999]],[[18.67,69.87],[18.65,69.87],[18.65,69.84],[18.67,69.84],[18.67,69.82],[18.71,69.82],[18.71,69.81],[18.73,69.81],[18.73,69.8],[18.78,69.8],[18.78,69.78999999999999],[18.740000000000002,69.78],[18.740000000000002,69.77],[18.71,69.77],[18.71,69.72],[18.7,69.72],[18.7,69.69],[18.69,69.69],[18.69,69.67999999999999],[18.66,69.67999999999999],[18.66,69.69],[18.64,69.69],[18.64,69.7],[18.65,69.7],[18.65,69.74],[18.64,69.74],[18.64,69.75],[18.62,69.75],[18.62,69.75999999999999],[18.630000000000003,69.75999999999999],[18.630000000000003,69.8],[18.560000000000002,69.8],[18.560000000000002,69.78999999999999],[18.53,69.78999999999999],[18.52,69.77],[18.51,69.77],[18.51,69.75],[18.5,69.75],[18.5,69.74],[18.490000000000002,69.74],[18.490000000000002,69.75],[18.47,69.75],[18.47,69.78],[18.43,69.78],[18.43,69.77],[18.4,69.77],[18.4,69.78999999999999],[18.35,69.78999999999999],[18.35,69.78],[18.3,69.78],[18.3,69.75],[18.32,69.75],[18.32,69.72],[18.33,69.72],[18.33,69.71],[18.41,69.71],[18.41,69.72],[18.45,69.72],[18.45,69.71],[18.59,69.71],[18.59,69.7],[18.61,69.7],[18.61,69.69],[18.490000000000002,69.69],[18.490000000000002,69.7],[18.39,69.7],[18.39,69.69],[18.29,69.69],[18.29,69.7],[18.26,69.7],[18.26,69.69],[18.25,69.69],[18.25,69.7],[18.22,69.7],[18.22,69.66],[18.23,69.66],[18.240000000000002,69.64],[18.26,69.64],[18.26,69.63],[18.33,69.63],[18.34,69.61],[18.29,69.61],[18.29,69.6],[18.26,69.6],[18.26,69.62],[18.19,69.62],[18.19,69.63],[18.130000000000003,69.63],[18.130000000000003,69.62],[18.1,69.62],[18.1,69.61],[18.09,69.61],[18.09,69.62],[18.04,69.62],[18.03,69.6],[18.01,69.59],[18.01,69.56],[18.03,69.56],[18.03,69.55],[18.130000000000003,69.55],[18.130000000000003,69.53999999999999],[18.15,69.53999999999999],[18.15,69.52],[18.29,69.52],[18.29,69.53],[18.41,69.53],[18.41,69.53999999999999],[18.47,69.53999999999999],[18.47,69.55],[18.48,69.55],[18.48,69.53999999999999],[18.51,69.53999999999999],[18.51,69.55],[18.6,69.55],[18.6,69.56],[18.64,69.57],[18.64,69.58],[18.65,69.58],[18.66,69.56],[18.76,69.56],[18.77,69.58],[18.8,69.58],[18.8,69.59],[18.82,69.59],[18.82,69.63],[18.8,69.63],[18.8,69.64],[18.76,69.64],[18.76,69.63],[18.740000000000002,69.63],[18.740000000000002,69.64],[18.73,69.64],[18.73,69.64999999999999],[18.75,69.64999999999999],[18.75,69.67],[18.76,69.67],[18.76,69.67999999999999],[18.85,69.67999999999999],[18.85,69.69],[18.89,69.69],[18.89,69.7],[18.92,69.7],[18.92,69.71],[18.94,69.71],[18.94,69.72],[18.96,69.72],[18.96,69.73],[19.009999999999998,69.73],[19.009999999999998,69.74],[19.02,69.74],[19.02,69.75999999999999],[19.03,69.75999999999999],[19.03,69.8],[18.990000000000002,69.81],[18.990000000000002,69.83],[18.92,69.83],[18.92,69.84],[18.84,69.84],[18.84,69.85],[18.82,69.85],[18.82,69.87],[18.8,69.87],[18.8,69.88],[18.75,69.88],[18.75,69.87],[18.67,69.88],[18.67,69.87]],[[18.48,69.85],[18.45,69.85],[18.45,69.82],[18.5,69.82],[18.5,69.83],[18.53,69.83],[18.53,69.86],[18.48,69.86],[18.48,69.85]],[[18.19,69.73],[18.2,69.73],[18.2,69.72],[18.25,69.72],[18.25,69.75],[18.240000000000002,69.75],[18.240000000000002,69.75999999999999],[18.19,69.75999999999999],[18.19,69.73]],[[18.96,69.7],[18.94,69.7],[18.94,69.69],[18.92,69.69],[18.92,69.67999999999999],[18.91,69.67999999999999],[18.91,69.64],[18.94,69.64],[18.94,69.64999999999999],[18.96,69.64999999999999],[18.97,69.67],[18.990000000000002,69.67],[18.990000000000002,69.67999999999999],[19.0,69.67999999999999],[19.0,69.71],[18.96,69.71],[18.96,69.7]],[[18.12,69.67999999999999],[18.1,69.67999999999999],[18.1,69.64999999999999],[18.16,69.64999999999999],[18.16,69.69],[18.12,69.69],[18.12,69.67999999999999]],[[17.48,69.55],[17.5,69.55],[17.51,69.53],[17.560000000000002,69.53],[17.560000000000002,69.52],[17.58,69.52],[17.58,69.50999999999999],[17.6,69.50999999999999],[17.6,69.49],[17.630000000000003,69.49],[17.630000000000003,69.48],[17.67,69.48],[17.67,69.47],[17.66,69.47],[17.66,69.46],[17.57,69.46],[17.57,69.47],[17.560000000000002,69.47],[17.560000000000002,69.49],[17.5,69.49],[17.5,69.5],[17.48,69.5],[17.48,69.52],[17.41,69.52],[17.41,69.53],[17.35,69.53],[17.35,69.5],[17.39,69.5],[17.39,69.49],[17.41,69.49],[17.41,69.48],[17.35,69.48],[17.35,69.44],[17.43,69.44],[17.43,69.45],[17.44,69.45],[17.44,69.44],[17.47,69.44],[17.47,69.42999999999999],[17.46,69.42999999999999],[17.46,69.42],[17.36,69.42],[17.36,69.41],[17.310000000000002,69.41],[17.310000000000002,69.39999999999999],[17.27,69.39999999999999],[17.27,69.41],[17.130000000000003,69.41],[17.130000000000003,69.39999999999999],[17.11,69.39],[17.11,69.38],[17.1,69.38],[17.1,69.39],[17.07,69.39],[17.07,69.39999999999999],[17.0,69.39999999999999],[17.0,69.37],[17.060000000000002,69.37],[17.060000000000002,69.34],[17.07,69.34],[17.060000000000002,69.32],[17.05,69.32],[17.05,69.33],[17.01,69.33],[17.01,69.32],[17.0,69.32],[17.0,69.28999999999999],[17.02,69.28999999999999],[17.02,69.28],[17.03,69.28],[17.03,69.25999999999999],[17.07,69.25999999999999],[17.07,69.27],[17.1,69.27],[17.1,69.28],[17.12,69.28999999999999],[17.12,69.28],[17.14,69.28],[17.14,69.27],[17.12,69.27],[17.12,69.24],[17.130000000000003,69.24],[17.130000000000003,69.23],[17.11,69.23],[17.11,69.22],[17.1,69.22],[17.1,69.23],[17.04,69.23],[17.04,69.24],[16.93,69.24],[16.93,69.2],[16.96,69.2],[16.96,69.19],[17.130000000000003,69.19],[17.130000000000003,69.2],[17.14,69.2],[17.14,69.19],[17.16,69.19],[17.16,69.17999999999999],[17.1,69.17999999999999],[17.1,69.17],[17.07,69.17],[17.07,69.14],[17.03,69.14],[17.03,69.13],[17.02,69.13],[17.02,69.14],[16.92,69.14],[16.92,69.13],[16.9,69.13],[16.9,69.11],[16.8,69.12],[16.8,69.11],[16.78,69.11],[16.78,69.08],[16.79,69.08],[16.79,69.06],[16.8,69.06],[16.8,69.05],[16.83,69.05],[16.83,69.06],[16.93,69.06],[16.93,69.07],[16.96,69.07],[16.96,69.08],[17.0,69.08],[17.0,69.07],[17.03,69.07],[17.03,69.08],[17.130000000000003,69.08],[17.12,69.06],[17.060000000000002,69.06],[17.060000000000002,69.00999999999999],[17.11,69.00999999999999],[17.11,69.02],[17.21,69.02],[17.21,69.05],[17.18,69.05],[17.18,69.06],[17.17,69.06],[17.17,69.07],[17.19,69.07],[17.19,69.09],[17.23,69.09],[17.23,69.1],[17.26,69.1],[17.26,69.11],[17.28,69.11],[17.28,69.12],[17.32,69.12],[17.32,69.14],[17.37,69.14],[17.37,69.14999999999999],[17.39,69.14999999999999],[17.39,69.16],[17.41,69.16],[17.41,69.17],[17.44,69.17],[17.44,69.17999999999999],[17.45,69.17999999999999],[17.45,69.2],[17.5,69.2],[17.5,69.21],[17.53,69.21],[17.53,69.2],[17.51,69.2],[17.51,69.16],[17.61,69.16],[17.61,69.14999999999999],[17.65,69.14999999999999],[17.65,69.16],[17.7,69.16],[17.7,69.17],[17.76,69.17],[17.76,69.16],[17.8,69.16],[17.8,69.17],[17.810000000000002,69.17],[17.810000000000002,69.16],[17.86,69.16],[17.86,69.17],[17.9,69.17],[17.9,69.17999999999999],[17.92,69.17999999999999],[17.92,69.21],[17.9,69.21],[17.9,69.22],[17.87,69.22],[17.87,69.23],[17.880000000000003,69.23],[17.880000000000003,69.24],[17.89,69.24],[17.89,69.23],[17.94,69.23],[17.94,69.27],[17.92,69.27],[17.92,69.28],[17.91,69.28],[17.91,69.3],[17.880000000000003,69.3],[17.880000000000003,69.31],[17.92,69.32],[17.93,69.34],[17.96,69.34],[17.96,69.35],[18.03,69.35],[18.03,69.36],[18.05,69.36],[18.05,69.39],[18.060000000000002,69.39],[18.060000000000002,69.44],[18.01,69.44],[18.01,69.42999999999999],[17.990000000000002,69.42],[17.98,69.39999999999999],[17.97,69.39999999999999],[17.97,69.41],[17.95,69.41],[17.95,69.42999999999999],[17.97,69.42999999999999],[17.97,69.44],[18.0,69.44],[18.0,69.45],[18.01,69.45],[18.01,69.47],[18.04,69.47],[18.04,69.5],[18.01,69.5],[18.01,69.50999999999999],[17.93,69.50999999999999],[17.92,69.49],[17.9,69.49],[17.9,69.46],[17.87,69.46],[17.86,69.44],[17.85,69.44],[17.85,69.45],[17.83,69.45],[17.83,69.46],[17.85,69.46],[17.85,69.49],[17.86,69.49],[17.86,69.5],[17.89,69.5],[17.89,69.50999999999999],[17.91,69.50999999999999],[17.91,69.56],[17.89,69.57],[17.89,69.58],[17.84,69.58],[17.84,69.57],[17.810000000000002,69.57],[17.810000000000002,69.53999999999999],[17.77,69.53999999999999],[17.77,69.55],[17.73,69.56],[17.73,69.58],[17.71,69.58],[17.71,69.59],[17.66,69.59],[17.66,69.55],[17.67,69.55],[17.67,69.53],[17.7,69.53],[17.71,69.50999999999999],[17.630000000000003,69.50999999999999],[17.630000000000003,69.52],[17.62,69.52],[17.62,69.53999999999999],[17.6,69.53999999999999],[17.6,69.56],[17.58,69.56],[17.58,69.57],[17.54,69.57],[17.54,69.59],[17.51,69.59],[17.51,69.6],[17.48,69.6],[17.48,69.55]],[[17.21,69.47],[17.23,69.47],[17.23,69.46],[17.25,69.46],[17.25,69.45],[17.29,69.45],[17.29,69.49],[17.26,69.49],[17.26,69.5],[17.21,69.5],[17.21,69.47]],[[16.93,69.36],[16.990000000000002,69.36],[16.990000000000002,69.39999999999999],[16.93,69.39999999999999],[16.93,69.36]],[[16.1,69.31],[16.05,69.31],[16.05,69.3],[16.03,69.3],[16.03,69.28999999999999],[16.02,69.28999999999999],[16.02,69.3],[15.98,69.3],[15.98,69.28],[15.97,69.28],[15.97,69.27],[15.879999999999999,69.27],[15.870000000000001,69.25],[15.850000000000001,69.25],[15.850000000000001,69.2],[15.82,69.2],[15.82,69.17999999999999],[15.81,69.17999999999999],[15.81,69.16],[15.8,69.16],[15.8,69.14999999999999],[15.66,69.14],[15.66,69.13],[15.629999999999999,69.13],[15.629999999999999,69.12],[15.61,69.12],[15.600000000000001,69.1],[15.56,69.1],[15.56,69.08],[15.52,69.06],[15.52,69.05],[15.510000000000002,69.05],[15.510000000000002,69.03],[15.48,69.03],[15.48,69.02],[15.47,69.02],[15.47,69.0],[15.45,69.0],[15.45,68.99],[15.440000000000001,68.99],[15.440000000000001,68.92],[15.43,68.92],[15.43,68.89],[15.45,68.89],[15.45,68.87],[15.5,68.87],[15.510000000000002,68.89],[15.54,68.89],[15.54,68.89999999999999],[15.56,68.89999999999999],[15.56,68.91],[15.57,68.91],[15.57,68.92999999999999],[15.58,68.92999999999999],[15.58,68.96],[15.59,68.96],[15.59,68.99],[15.58,68.99],[15.58,69.0],[15.620000000000001,69.0],[15.620000000000001,68.99],[15.74,68.99],[15.74,69.0],[15.82,69.00999999999999],[15.82,69.02],[15.870000000000001,69.02],[15.870000000000001,69.03999999999999],[15.89,69.03999999999999],[15.89,69.05],[15.9,69.05],[15.9,69.07],[15.91,69.07],[15.92,69.09],[15.96,69.09],[15.96,69.11],[15.99,69.11],[15.99,69.12],[16.03,69.12],[16.03,69.13],[16.05,69.13],[16.060000000000002,69.14999999999999],[16.09,69.14999999999999],[16.09,69.19],[16.11,69.2],[16.11,69.23],[16.13,69.23],[16.14,69.25],[16.16,69.25],[16.16,69.25999999999999],[16.17,69.25999999999999],[16.17,69.3],[16.14,69.3],[16.14,69.32],[16.1,69.32],[16.1,69.31]],[[17.44,69.08],[17.39,69.08],[17.39,69.06],[17.37,69.06],[17.37,69.05],[17.36,69.05],[17.36,69.03],[17.35,69.03],[17.35,68.99],[17.42,68.99],[17.42,69.0],[17.44,69.0],[17.44,69.00999999999999],[17.45,69.00999999999999],[17.45,69.03],[17.48,69.03],[17.48,69.03999999999999],[17.52,69.03999999999999],[17.52,69.05],[17.54,69.05],[17.54,69.06],[17.55,69.06],[17.55,69.09],[17.52,69.09],[17.52,69.08],[17.44,69.09],[17.44,69.08]],[[16.51,69.02],[16.47,69.02],[16.47,68.99],[16.54,68.99],[16.54,69.03],[16.51,69.03],[16.51,69.02]],[[15.09,69.00999999999999],[15.030000000000001,69.0],[15.030000000000001,68.98],[15.010000000000002,68.97],[15.010000000000002,68.94],[15.04,68.94],[15.04,68.92999999999999],[15.06,68.92],[15.06,68.89],[15.08,68.89],[15.08,68.87],[15.100000000000001,68.87],[15.100000000000001,68.86],[15.14,68.86],[15.14,68.84],[15.16,68.84],[15.16,68.83],[15.120000000000001,68.83],[15.120000000000001,68.85],[15.05,68.85],[15.05,68.82],[15.010000000000002,68.82],[14.99,68.86],[14.93,68.86],[14.93,68.82],[14.95,68.82],[14.95,68.81],[14.93,68.81],[14.93,68.78],[14.92,68.78],[14.92,68.75999999999999],[14.9,68.75999999999999],[14.9,68.75],[14.88,68.75999999999999],[14.88,68.77],[14.870000000000001,68.77],[14.870000000000001,68.78999999999999],[14.82,68.78999999999999],[14.82,68.78],[14.76,68.78],[14.75,68.75999999999999],[14.73,68.75999999999999],[14.73,68.75],[14.72,68.75],[14.72,68.75999999999999],[14.7,68.75999999999999],[14.7,68.78],[14.690000000000001,68.78],[14.690000000000001,68.78999999999999],[14.7,68.78999999999999],[14.7,68.83],[14.64,68.83],[14.64,68.82],[14.63,68.82],[14.63,68.78999999999999],[14.64,68.78999999999999],[14.64,68.78],[14.6,68.77],[14.6,68.75999999999999],[14.58,68.77],[14.58,68.81],[14.530000000000001,68.81],[14.530000000000001,68.78999999999999],[14.49,68.78999999999999],[14.49,68.78],[14.46,68.78],[14.46,68.75],[14.530000000000001,68.75],[14.530000000000001,68.74],[14.55,68.74],[14.55,68.73],[14.45,68.73],[14.45,68.72],[14.43,68.72],[14.43,68.67999999999999],[14.45,68.67999999999999],[14.45,68.67],[14.46,68.67],[14.46,68.66],[14.440000000000001,68.66],[14.440000000000001,68.61],[14.48,68.61],[14.48,68.6],[14.55,68.6],[14.55,68.61],[14.57,68.61],[14.57,68.62],[14.64,68.62],[14.64,68.64999999999999],[14.65,68.64999999999999],[14.65,68.66],[14.67,68.66],[14.690000000000001,68.7],[14.7,68.7],[14.7,68.69],[14.72,68.69],[14.72,68.66],[14.780000000000001,68.66],[14.790000000000001,68.67999999999999],[14.92,68.67999999999999],[14.92,68.71],[14.93,68.71],[14.93,68.72],[14.940000000000001,68.72],[14.940000000000001,68.71],[14.98,68.71],[14.98,68.7],[15.010000000000002,68.7],[15.010000000000002,68.71],[15.030000000000001,68.71],[15.030000000000001,68.72],[15.06,68.72],[15.06,68.75],[15.04,68.75],[15.05,68.77],[15.06,68.77],[15.06,68.75999999999999],[15.14,68.75999999999999],[15.14,68.72],[15.15,68.72],[15.15,68.71],[15.129999999999999,68.71],[15.129999999999999,68.7],[15.120000000000001,68.7],[15.120000000000001,68.71],[15.08,68.71],[15.07,68.69],[15.06,68.69],[15.06,68.67999999999999],[15.05,68.67999999999999],[15.05,68.67],[14.96,68.67],[14.96,68.66],[14.870000000000001,68.66],[14.870000000000001,68.64999999999999],[14.81,68.64999999999999],[14.81,68.62],[14.870000000000001,68.62],[14.870000000000001,68.58],[14.91,68.58],[14.91,68.59],[14.99,68.59],[14.99,68.58],[15.05,68.58],[15.05,68.59],[15.08,68.59],[15.08,68.6],[15.120000000000001,68.6],[15.120000000000001,68.61],[15.14,68.61],[15.14,68.62],[15.21,68.62],[15.21,68.63],[15.25,68.63],[15.25,68.64],[15.27,68.64],[15.27,68.64999999999999],[15.34,68.64999999999999],[15.34,68.66],[15.39,68.66],[15.39,68.67],[15.41,68.67999999999999],[15.41,68.73],[15.4,68.73],[15.4,68.74],[15.350000000000001,68.74],[15.350000000000001,68.75],[15.29,68.75],[15.29,68.75999999999999],[15.3,68.75999999999999],[15.3,68.78999999999999],[15.29,68.78999999999999],[15.29,68.8],[15.370000000000001,68.8],[15.370000000000001,68.81],[15.379999999999999,68.81],[15.379999999999999,68.83],[15.39,68.83],[15.39,68.86],[15.33,68.87],[15.33,68.85],[15.29,68.85],[15.280000000000001,68.87],[15.3,68.87],[15.3,68.92],[15.23,68.92],[15.23,68.94],[15.190000000000001,68.94],[15.190000000000001,68.95],[15.18,68.95],[15.18,68.99],[15.190000000000001,68.99],[15.190000000000001,69.02],[15.09,69.02],[15.09,69.00999999999999]],[[16.27,68.96],[16.28,68.96],[16.28,68.95],[16.34,68.95],[16.34,68.92999999999999],[16.38,68.92],[16.38,68.89999999999999],[16.43,68.89999999999999],[16.43,68.89],[16.47,68.89],[16.47,68.88],[16.62,68.88],[16.62,68.96],[16.59,68.96],[16.59,68.95],[16.57,68.95],[16.57,68.94],[16.560000000000002,68.94],[16.55,68.96],[16.45,68.96],[16.45,68.97],[16.42,68.97],[16.42,68.98],[16.4,68.98],[16.4,68.99],[16.27,68.99],[16.27,68.96]],[[15.850000000000001,68.96],[15.68,68.96],[15.68,68.95],[15.629999999999999,68.95],[15.629999999999999,68.92999999999999],[15.61,68.92],[15.61,68.91],[15.600000000000001,68.91],[15.600000000000001,68.89],[15.57,68.89],[15.57,68.85],[15.58,68.85],[15.58,68.84],[15.600000000000001,68.84],[15.600000000000001,68.83],[15.67,68.83],[15.67,68.82],[15.65,68.82],[15.65,68.81],[15.64,68.81],[15.64,68.82],[15.52,68.82],[15.52,68.81],[15.48,68.81],[15.47,68.75],[15.5,68.75],[15.5,68.74],[15.59,68.74],[15.59,68.75],[15.629999999999999,68.75],[15.629999999999999,68.74],[15.65,68.74],[15.65,68.73],[15.58,68.73],[15.58,68.72],[15.46,68.72],[15.46,68.67999999999999],[15.47,68.67999999999999],[15.47,68.66],[15.530000000000001,68.64999999999999],[15.530000000000001,68.64],[15.55,68.64],[15.55,68.63],[15.52,68.63],[15.52,68.62],[15.42,68.63],[15.41,68.61],[15.39,68.61],[15.39,68.6],[15.31,68.59],[15.3,68.57],[15.27,68.57],[15.27,68.58],[15.21,68.58],[15.21,68.57],[15.190000000000001,68.56],[15.190000000000001,68.53],[15.3,68.53],[15.3,68.52],[15.280000000000001,68.52],[15.280000000000001,68.50999999999999],[15.25,68.50999999999999],[15.25,68.48],[15.280000000000001,68.48],[15.280000000000001,68.47],[15.260000000000002,68.47],[15.260000000000002,68.46],[15.21,68.46],[15.2,68.44],[15.190000000000001,68.44],[15.190000000000001,68.42999999999999],[15.17,68.42999999999999],[15.17,68.42],[15.14,68.42],[15.129999999999999,68.39999999999999],[15.11,68.39999999999999],[15.100000000000001,68.38],[15.09,68.38],[15.08,68.36],[15.07,68.36],[15.07,68.35],[15.05,68.34],[15.05,68.33],[15.0,68.33],[15.0,68.3],[15.010000000000002,68.3],[15.010000000000002,68.28],[15.08,68.28],[15.09,68.3],[15.11,68.3],[15.11,68.31],[15.14,68.31],[15.15,68.33],[15.16,68.33],[15.16,68.32],[15.2,68.32],[15.2,68.33],[15.22,68.33],[15.22,68.34],[15.260000000000002,68.35],[15.260000000000002,68.37],[15.27,68.37],[15.27,68.38],[15.29,68.38],[15.29,68.39],[15.350000000000001,68.39999999999999],[15.350000000000001,68.41],[15.379999999999999,68.41],[15.379999999999999,68.42],[15.42,68.42],[15.42,68.42999999999999],[15.46,68.42999999999999],[15.46,68.44],[15.48,68.44],[15.48,68.45],[15.49,68.45],[15.49,68.44],[15.510000000000002,68.44],[15.510000000000002,68.42999999999999],[15.48,68.42999999999999],[15.48,68.42],[15.440000000000001,68.42],[15.440000000000001,68.41],[15.4,68.39999999999999],[15.39,68.38],[15.36,68.38],[15.36,68.35],[15.41,68.35],[15.41,68.36],[15.42,68.36],[15.43,68.34],[15.47,68.34],[15.48,68.36],[15.49,68.36],[15.49,68.35],[15.530000000000001,68.34],[15.530000000000001,68.33],[15.56,68.33],[15.56,68.31],[15.65,68.31],[15.65,68.33],[15.66,68.33],[15.66,68.34],[15.72,68.34],[15.72,68.37],[15.71,68.37],[15.71,68.38],[15.74,68.38],[15.74,68.42],[15.780000000000001,68.42],[15.780000000000001,68.41],[15.84,68.41],[15.84,68.42999999999999],[15.86,68.42999999999999],[15.86,68.45],[15.879999999999999,68.45],[15.879999999999999,68.46],[15.91,68.46],[15.91,68.45],[15.89,68.45],[15.879999999999999,68.39],[15.95,68.39],[15.95,68.39999999999999],[15.98,68.39999999999999],[15.98,68.41],[15.99,68.41],[15.99,68.42999999999999],[16.01,68.42999999999999],[16.01,68.45],[16.09,68.47],[16.09,68.50999999999999],[16.11,68.50999999999999],[16.11,68.53999999999999],[16.2,68.53999999999999],[16.2,68.55],[16.23,68.55],[16.240000000000002,68.57],[16.25,68.57],[16.25,68.56],[16.310000000000002,68.56],[16.310000000000002,68.57],[16.42,68.57],[16.42,68.56],[16.5,68.56],[16.5,68.57],[16.51,68.57],[16.51,68.59],[16.53,68.6],[16.54,68.62],[16.560000000000002,68.62],[16.560000000000002,68.64],[16.58,68.64],[16.58,68.64999999999999],[16.59,68.64999999999999],[16.59,68.67999999999999],[16.57,68.67999999999999],[16.57,68.69],[16.58,68.69],[16.58,68.7],[16.6,68.7],[16.6,68.73],[16.59,68.73],[16.59,68.74],[16.57,68.74],[16.57,68.75],[16.58,68.75],[16.58,68.78999999999999],[16.57,68.78999999999999],[16.57,68.8],[16.55,68.8],[16.55,68.82],[16.490000000000002,68.83],[16.490000000000002,68.85],[16.48,68.85],[16.48,68.86],[16.45,68.86],[16.45,68.85],[16.44,68.85],[16.44,68.86],[16.4,68.86],[16.4,68.87],[16.37,68.87],[16.37,68.88],[16.34,68.88],[16.34,68.89],[16.310000000000002,68.89],[16.310000000000002,68.86],[16.33,68.86],[16.33,68.85],[16.34,68.85],[16.34,68.84],[16.32,68.84],[16.32,68.83],[16.310000000000002,68.83],[16.3,68.85],[16.29,68.85],[16.29,68.86],[16.27,68.86],[16.27,68.87],[16.240000000000002,68.87],[16.240000000000002,68.86],[16.17,68.86],[16.17,68.85],[16.12,68.85],[16.12,68.83],[16.11,68.83],[16.11,68.78999999999999],[16.14,68.78999999999999],[16.14,68.78],[16.19,68.78],[16.19,68.77],[16.22,68.77],[16.22,68.75999999999999],[16.26,68.75],[16.25,68.73],[16.240000000000002,68.73],[16.240000000000002,68.74],[16.2,68.74],[16.2,68.73],[16.17,68.73],[16.17,68.74],[16.05,68.74],[16.05,68.67999999999999],[16.07,68.67999999999999],[16.07,68.67],[16.08,68.67],[16.08,68.66],[16.09,68.66],[16.1,68.64],[16.060000000000002,68.64],[16.060000000000002,68.64999999999999],[16.05,68.64999999999999],[16.05,68.67],[15.93,68.66],[15.93,68.64999999999999],[15.92,68.64999999999999],[15.92,68.64],[15.9,68.64],[15.9,68.63],[15.83,68.63],[15.83,68.6],[15.82,68.6],[15.82,68.58],[15.81,68.58],[15.81,68.57],[15.8,68.57],[15.8,68.58],[15.780000000000001,68.58],[15.77,68.64],[15.83,68.64],[15.83,68.64999999999999],[15.9,68.64999999999999],[15.9,68.66],[15.92,68.66],[15.93,68.67999999999999],[15.97,68.69],[15.97,68.71],[15.99,68.71],[15.99,68.73],[16.0,68.73],[16.0,68.75],[16.01,68.75],[16.01,68.78999999999999],[15.95,68.8],[15.95,68.78],[15.92,68.78],[15.92,68.77],[15.879999999999999,68.77],[15.879999999999999,68.75999999999999],[15.84,68.75],[15.84,68.74],[15.81,68.74],[15.81,68.75],[15.83,68.75999999999999],[15.83,68.77],[15.86,68.77],[15.86,68.78],[15.879999999999999,68.78],[15.879999999999999,68.78999999999999],[15.89,68.78999999999999],[15.89,68.81],[15.9,68.81],[15.9,68.84],[15.92,68.84],[15.92,68.86],[15.93,68.86],[15.93,68.87],[15.95,68.87],[15.95,68.91],[15.93,68.91],[15.93,68.92],[15.92,68.92],[15.92,68.94],[15.91,68.94],[15.91,68.97],[15.850000000000001,68.97],[15.850000000000001,68.96]],[[16.67,68.96],[16.66,68.96],[16.66,68.92999999999999],[16.69,68.92999999999999],[16.69,68.94],[16.740000000000002,68.94],[16.740000000000002,68.97],[16.67,68.97],[16.67,68.96]],[[15.25,68.92999999999999],[15.280000000000001,68.92999999999999],[15.280000000000001,68.96],[15.25,68.96],[15.25,68.92999999999999]],[[14.86,68.91],[14.84,68.91],[14.84,68.88],[14.88,68.88],[14.88,68.87],[14.91,68.87],[14.91,68.88],[14.99,68.88],[14.99,68.89],[15.0,68.89],[15.0,68.92],[14.97,68.92],[14.97,68.92999999999999],[14.940000000000001,68.92999999999999],[14.940000000000001,68.92],[14.93,68.92],[14.93,68.92999999999999],[14.86,68.92999999999999],[14.86,68.91]],[[17.2,68.92],[17.19,68.92],[17.19,68.91],[17.18,68.91],[17.18,68.92],[17.11,68.92],[17.11,68.89],[17.130000000000003,68.89],[17.130000000000003,68.87],[17.15,68.87],[17.15,68.85],[17.17,68.85],[17.17,68.84],[17.18,68.84],[17.18,68.81],[17.2,68.81],[17.2,68.8],[17.3,68.8],[17.3,68.81],[17.32,68.81],[17.32,68.82],[17.36,68.82],[17.36,68.83],[17.39,68.83],[17.39,68.84],[17.41,68.84],[17.41,68.85],[17.45,68.85],[17.45,68.89],[17.42,68.89],[17.41,68.91],[17.380000000000003,68.91],[17.380000000000003,68.92],[17.32,68.92],[17.32,68.92999999999999],[17.29,68.92999999999999],[17.29,68.92],[17.28,68.92],[17.28,68.92999999999999],[17.2,68.92999999999999],[17.2,68.92]],[[16.69,68.87],[16.72,68.87],[16.72,68.89999999999999],[16.69,68.89999999999999],[16.69,68.87]],[[15.98,68.83],[16.01,68.83],[16.01,68.86],[15.98,68.86],[15.98,68.83]],[[17.01,68.85],[16.98,68.85],[16.97,68.83],[16.95,68.83],[16.95,68.81],[16.93,68.81],[16.93,68.78999999999999],[16.92,68.78999999999999],[16.92,68.78],[16.89,68.78],[16.89,68.77],[16.87,68.77],[16.87,68.75999999999999],[16.86,68.75999999999999],[16.86,68.73],[16.91,68.73],[16.91,68.74],[17.01,68.74],[17.01,68.75],[17.14,68.75],[17.14,68.75999999999999],[17.18,68.75999999999999],[17.18,68.78999999999999],[17.15,68.78999999999999],[17.15,68.8],[17.12,68.8],[17.12,68.81],[17.1,68.81],[17.1,68.83],[17.060000000000002,68.84],[17.05,68.86],[17.01,68.86],[17.01,68.85]],[[14.64,68.55],[14.65,68.55],[14.66,68.53],[14.68,68.53],[14.68,68.52],[14.7,68.52],[14.71,68.5],[14.9,68.5],[14.9,68.50999999999999],[14.95,68.50999999999999],[14.95,68.52],[14.97,68.52],[14.97,68.53],[15.0,68.53],[15.0,68.56],[14.97,68.56],[14.97,68.55],[14.96,68.55],[14.95,68.57],[14.82,68.57],[14.82,68.58],[14.790000000000001,68.58],[14.790000000000001,68.57],[14.780000000000001,68.57],[14.780000000000001,68.58],[14.64,68.58],[14.64,68.55]],[[14.08,68.31],[14.13,68.31],[14.13,68.3],[14.15,68.3],[14.15,68.28],[14.190000000000001,68.27],[14.190000000000001,68.25999999999999],[14.24,68.25999999999999],[14.25,68.28],[14.27,68.28],[14.27,68.31],[14.25,68.32],[14.25,68.33],[14.22,68.33],[14.22,68.32],[14.21,68.32],[14.21,68.33],[14.17,68.33],[14.17,68.34],[14.08,68.34],[14.08,68.31]],[[14.91,68.3],[14.870000000000001,68.3],[14.870000000000001,68.28999999999999],[14.84,68.28999999999999],[14.83,68.27],[14.81,68.27],[14.81,68.25999999999999],[14.8,68.25999999999999],[14.8,68.23],[14.870000000000001,68.23],[14.88,68.25],[14.92,68.25],[14.93,68.27],[14.940000000000001,68.27],[14.940000000000001,68.31],[14.91,68.31],[14.91,68.3]],[[16.19,68.21],[16.240000000000002,68.21],[16.240000000000002,68.24],[16.19,68.24],[16.19,68.21]],[[14.75,68.19],[14.790000000000001,68.19],[14.790000000000001,68.22],[14.75,68.22],[14.75,68.19]],[[15.780000000000001,68.13],[15.83,68.13],[15.83,68.16],[15.780000000000001,68.16],[15.780000000000001,68.13]],[[16.23,68.06],[16.26,68.06],[16.26,68.05],[16.28,68.05],[16.28,68.03999999999999],[16.310000000000002,68.03999999999999],[16.310000000000002,68.05],[16.32,68.05],[16.32,68.08],[16.29,68.08],[16.29,68.09],[16.23,68.09],[16.23,68.06]],[[15.600000000000001,68.02],[15.510000000000002,68.02],[15.510000000000002,68.00999999999999],[15.49,68.00999999999999],[15.49,67.98],[15.530000000000001,67.98],[15.530000000000001,67.99],[15.7,67.99],[15.7,68.03],[15.600000000000001,68.03],[15.600000000000001,68.02]]],[[[22.44,70.07],[22.47,70.07],[22.47,70.06],[22.44,70.06],[22.44,70.05],[22.37,70.05],[22.380000000000003,70.07],[22.43,70.07],[22.43,70.08],[22.44,70.08],[22.44,70.07]]],[[[22.240000000000002,70.13],[22.22,70.13],[22.22,70.14],[22.240000000000002,70.14],[22.240000000000002,70.13]]]]}}]}