{"type":"FeatureCollection","name":"tidal_current_mask_bal","generated_at":"2026-09-23T05:55:57+00:00","source":"Copernicus Marine Service, cmems_mod_bal_phy_anfc_PT1H-i, harmonic atlases in the standard format (docs/harmonic_atlas_format.md)","features":[{"type":"Feature","properties":{"threshold_kt":0.0,"kind":"extent","atlas":"CMEMS_BAL","resolution_m":1852,"method":"max speed over 15 days hourly, all constituents","area_deg2":70.7},"geometry":{"type":"MultiPolygon","coordinates":[[[[9.075,53.87499999999927],[9.325,53.87499999999927],[9.35,53.824999999999264],[9.375,53.824999999999264],[9.375,53.799999999999265],[9.425,53.799999999999265],[9.425,53.74999999999927],[9.45,53.74999999999927],[9.45,53.72499999999927],[9.525,53.72499999999927],[9.55,53.62499999999927],[9.6,53.62499999999927],[9.625,53.574999999999264],[9.525,53.59999999999927],[9.525,53.62499999999927],[9.5,53.62499999999927],[9.5,53.674999999999265],[9.475,53.674999999999265],[9.475,53.699999999999264],[9.425,53.699999999999264],[9.4,53.74999999999927],[9.35,53.74999999999927],[9.35,53.799999999999265],[9.3,53.824999999999264],[9.3,53.84999999999927],[9.0,53.84999999999927],[9.0,53.89999999999927],[9.075,53.89999999999927],[9.075,53.87499999999927]]],[[[22.700000000000003,65.87499999999926],[22.775,65.87499999999926],[22.775,65.84999999999927],[22.8,65.84999999999927],[22.825000000000003,65.79999999999927],[22.925,65.79999999999927],[22.925,65.77499999999927],[23.05,65.77499999999927],[23.075000000000003,65.72499999999927],[23.15,65.72499999999927],[23.175,65.77499999999927],[23.200000000000003,65.77499999999927],[23.200000000000003,65.82499999999926],[23.35,65.82499999999926],[23.35,65.77499999999927],[23.425,65.77499999999927],[23.425,65.82499999999926],[23.525,65.82499999999926],[23.55,65.77499999999927],[23.625,65.77499999999927],[23.625,65.79999999999927],[23.675,65.79999999999927],[23.675,65.82499999999926],[23.75,65.82499999999926],[23.775,65.77499999999927],[23.925,65.77499999999927],[23.925,65.79999999999927],[24.025,65.79999999999927],[24.025,65.82499999999926],[24.275,65.82499999999926],[24.275,65.79999999999927],[24.325000000000003,65.79999999999927],[24.325000000000003,65.77499999999927],[24.425,65.77499999999927],[24.425,65.74999999999926],[24.5,65.74999999999926],[24.5,65.77499999999927],[24.525,65.77499999999927],[24.525,65.72499999999927],[24.65,65.72499999999927],[24.65,65.67499999999927],[24.675,65.67499999999927],[24.675,65.64999999999927],[24.75,65.64999999999927],[24.75,65.67499999999927],[24.9,65.67499999999927],[24.925,65.62499999999926],[25.025000000000002,65.62499999999926],[25.05,65.57499999999926],[25.2,65.57499999999926],[25.225,65.52499999999927],[25.275000000000002,65.52499999999927],[25.275000000000002,65.47499999999927],[25.35,65.47499999999927],[25.35,65.39999999999927],[25.325,65.39999999999927],[25.325,65.34999999999927],[25.3,65.34999999999927],[25.3,65.27499999999927],[25.325,65.27499999999927],[25.325,65.22499999999927],[25.275000000000002,65.19999999999926],[25.275000000000002,65.12499999999926],[25.325,65.12499999999926],[25.325,65.09999999999927],[25.400000000000002,65.09999999999927],[25.400000000000002,65.04999999999927],[25.425,65.04999999999927],[25.425,64.97499999999927],[25.475,64.97499999999927],[25.475,64.94999999999926],[25.400000000000002,64.94999999999926],[25.400000000000002,64.87499999999926],[25.35,64.87499999999926],[25.325,64.82499999999926],[25.3,64.82499999999926],[25.3,64.84999999999927],[25.225,64.84999999999927],[25.2,64.89999999999927],[24.75,64.87499999999926],[24.75,64.84999999999927],[24.700000000000003,64.84999999999927],[24.675,64.79999999999927],[24.65,64.79999999999927],[24.65,64.82499999999926],[24.575000000000003,64.82499999999926],[24.575000000000003,64.74999999999926],[24.55,64.74999999999926],[24.55,64.69999999999926],[24.450000000000003,64.69999999999926],[24.450000000000003,64.64999999999927],[24.4,64.64999999999927],[24.4,64.59999999999927],[24.35,64.59999999999927],[24.35,64.52499999999927],[24.275,64.52499999999927],[24.275,64.49999999999926],[24.225,64.49999999999926],[24.200000000000003,64.44999999999926],[24.1,64.44999999999926],[24.1,64.39999999999927],[24.0,64.39999999999927],[24.0,64.34999999999927],[23.925,64.34999999999927],[23.925,64.27499999999927],[23.825000000000003,64.27499999999927],[23.825000000000003,64.24999999999926],[23.775,64.22499999999927],[23.775,64.19999999999926],[23.675,64.17499999999927],[23.675,64.12499999999926],[23.65,64.12499999999926],[23.65,64.04999999999927],[23.575000000000003,64.04999999999927],[23.575000000000003,64.02499999999927],[23.55,64.02499999999927],[23.55,64.04999999999927],[23.4,64.04999999999927],[23.4,63.949999999999264],[23.425,63.949999999999264],[23.4,63.89999999999927],[23.15,63.89999999999927],[23.15,63.84999999999927],[23.025,63.84999999999927],[23.025,63.824999999999264],[22.950000000000003,63.824999999999264],[22.950000000000003,63.84999999999927],[22.8,63.84999999999927],[22.8,63.824999999999264],[22.700000000000003,63.824999999999264],[22.700000000000003,63.72499999999927],[22.725,63.72499999999927],[22.725,63.699999999999264],[22.700000000000003,63.699999999999264],[22.700000000000003,63.674999999999265],[22.675,63.674999999999265],[22.675,63.699999999999264],[22.6,63.699999999999264],[22.6,63.64999999999927],[22.525,63.64999999999927],[22.525,63.59999999999927],[22.5,63.59999999999927],[22.5,63.52499999999927],[22.475,63.52499999999927],[22.450000000000003,63.47499999999927],[22.4,63.49999999999927],[22.4,63.549999999999265],[22.3,63.549999999999265],[22.3,63.37499999999927],[22.4,63.34999999999927],[22.4,63.324999999999264],[22.35,63.324999999999264],[22.35,63.299999999999265],[22.275,63.299999999999265],[22.25,63.24999999999927],[22.200000000000003,63.24999999999927],[22.200000000000003,63.22499999999927],[22.05,63.22499999999927],[22.05,63.199999999999264],[22.025,63.199999999999264],[22.0,63.24999999999927],[21.75,63.24999999999927],[21.75,63.22499999999927],[21.700000000000003,63.22499999999927],[21.700000000000003,63.199999999999264],[21.675,63.199999999999264],[21.675,63.22499999999927],[21.625,63.22499999999927],[21.625,63.24999999999927],[21.55,63.24999999999927],[21.55,63.12499999999927],[21.6,63.09999999999927],[21.6,63.074999999999264],[21.675,63.074999999999264],[21.675,63.049999999999265],[21.475,63.049999999999265],[21.475,63.074999999999264],[21.4,63.074999999999264],[21.4,62.97499999999927],[21.475,62.97499999999927],[21.475,62.949999999999264],[21.450000000000003,62.949999999999264],[21.450000000000003,62.89999999999927],[21.425,62.89999999999927],[21.425,62.87499999999927],[21.225,62.87499999999927],[21.225,62.84999999999927],[21.200000000000003,62.84999999999927],[21.200000000000003,62.799999999999265],[21.175,62.799999999999265],[21.175,62.699999999999264],[21.075000000000003,62.699999999999264],[21.075000000000003,62.62499999999927],[21.225,62.62499999999927],[21.225,62.59999999999927],[21.200000000000003,62.59999999999927],[21.200000000000003,62.424999999999265],[21.225,62.424999999999265],[21.225,62.37499999999927],[21.35,62.37499999999927],[21.35,62.27499999999927],[21.4,62.27499999999927],[21.4,62.174999999999265],[21.35,62.174999999999265],[21.35,62.12499999999927],[21.325000000000003,62.12499999999927],[21.325000000000003,61.949999999999264],[21.4,61.949999999999264],[21.4,61.924999999999265],[21.450000000000003,61.924999999999265],[21.450000000000003,61.87499999999927],[21.475,61.87499999999927],[21.5,61.824999999999264],[21.525,61.824999999999264],[21.525,61.74999999999927],[21.55,61.74999999999927],[21.55,61.674999999999265],[21.575000000000003,61.674999999999265],[21.575000000000003,61.62499999999927],[21.65,61.62499999999927],[21.65,61.59999999999927],[21.525,61.59999999999927],[21.525,61.52499999999927],[21.65,61.52499999999927],[21.65,61.49999999999927],[21.575000000000003,61.49999999999927],[21.575000000000003,61.424999999999265],[21.525,61.424999999999265],[21.525,61.34999999999927],[21.55,61.34999999999927],[21.55,61.299999999999265],[21.5,61.299999999999265],[21.5,61.199999999999264],[21.450000000000003,61.199999999999264],[21.450000000000003,61.09999999999927],[21.475,61.09999999999927],[21.475,61.074999999999264],[21.4,61.074999999999264],[21.4,60.97499999999927],[21.450000000000003,60.949999999999264],[21.450000000000003,60.89999999999927],[21.4,60.89999999999927],[21.4,60.949999999999264],[21.25,60.924999999999265],[21.25,60.824999999999264],[21.4,60.824999999999264],[21.4,60.799999999999265],[21.450000000000003,60.77499999999927],[21.450000000000003,60.74999999999927],[21.35,60.74999999999927],[21.35,60.674999999999265],[21.425,60.674999999999265],[21.425,60.64999999999927],[21.450000000000003,60.64999999999927],[21.450000000000003,60.574999999999264],[21.425,60.574999999999264],[21.425,60.49999999999927],[21.450000000000003,60.49999999999927],[21.450000000000003,60.47499999999927],[21.575000000000003,60.47499999999927],[21.575000000000003,60.49999999999927],[21.65,60.49999999999927],[21.65,60.52499999999927],[21.675,60.52499999999927],[21.675,60.549999999999265],[21.725,60.574999999999264],[21.725,60.59999999999927],[21.825000000000003,60.62499999999927],[21.825000000000003,60.574999999999264],[21.8,60.574999999999264],[21.8,60.49999999999927],[21.875,60.49999999999927],[21.875,60.549999999999265],[21.925,60.549999999999265],[21.925,60.52499999999927],[22.0,60.52499999999927],[22.0,60.49999999999927],[22.025,60.49999999999927],[22.025,60.424999999999265],[22.15,60.424999999999265],[22.15,60.39999999999927],[22.175,60.39999999999927],[22.175,60.34999999999927],[22.3,60.34999999999927],[22.325000000000003,60.299999999999265],[22.275,60.299999999999265],[22.275,60.324999999999264],[22.15,60.324999999999264],[22.15,60.22499999999927],[22.175,60.22499999999927],[22.175,60.199999999999264],[22.275,60.199999999999264],[22.275,60.22499999999927],[22.3,60.22499999999927],[22.3,60.174999999999265],[22.375,60.174999999999265],[22.375,60.24999999999927],[22.425,60.24999999999927],[22.425,60.27499999999927],[22.450000000000003,60.27499999999927],[22.450000000000003,60.34999999999927],[22.4,60.34999999999927],[22.4,60.37499999999927],[22.6,60.37499999999927],[22.6,60.34999999999927],[22.55,60.34999999999927],[22.55,60.27499999999927],[22.575000000000003,60.27499999999927],[22.575000000000003,60.24999999999927],[22.825000000000003,60.24999999999927],[22.825000000000003,60.27499999999927],[22.875,60.27499999999927],[22.875,60.299999999999265],[22.975,60.299999999999265],[22.975,60.324999999999264],[23.025,60.324999999999264],[23.025,60.34999999999927],[23.05,60.34999999999927],[23.05,60.299999999999265],[23.0,60.299999999999265],[23.0,60.27499999999927],[22.975,60.27499999999927],[22.975,60.22499999999927],[22.925,60.22499999999927],[22.925,60.12499999999927],[23.05,60.12499999999927],[23.05,59.99999999999927],[23.15,59.99999999999927],[23.15,59.97499999999927],[23.225,59.97499999999927],[23.225,59.949999999999264],[23.25,59.949999999999264],[23.25,59.89999999999927],[23.325000000000003,59.89999999999927],[23.325000000000003,59.924999999999265],[23.4,59.924999999999265],[23.4,59.97499999999927],[23.425,59.97499999999927],[23.425,59.99999999999927],[23.450000000000003,59.99999999999927],[23.450000000000003,60.02499999999927],[23.475,60.02499999999927],[23.5,60.074999999999264],[23.525,60.074999999999264],[23.525,60.02499999999927],[23.5,60.02499999999927],[23.5,59.99999999999927],[23.450000000000003,59.97499999999927],[23.450000000000003,59.89999999999927],[23.55,59.89999999999927],[23.55,59.924999999999265],[23.700000000000003,59.924999999999265],[23.700000000000003,59.97499999999927],[23.950000000000003,59.99999999999927],[23.950000000000003,60.02499999999927],[24.0,60.02499999999927],[24.0,60.049999999999265],[24.025,60.049999999999265],[24.025,60.02499999999927],[24.125,60.02499999999927],[24.125,60.049999999999265],[24.175,60.049999999999265],[24.175,60.074999999999264],[24.200000000000003,60.074999999999264],[24.200000000000003,60.049999999999265],[24.3,60.049999999999265],[24.3,60.074999999999264],[24.35,60.074999999999264],[24.35,60.02499999999927],[24.450000000000003,60.02499999999927],[24.450000000000003,59.99999999999927],[24.525,59.99999999999927],[24.525,60.02499999999927],[24.55,60.02499999999927],[24.55,60.074999999999264],[24.575000000000003,60.074999999999264],[24.575000000000003,60.174999999999265],[24.6,60.174999999999265],[24.6,60.14999999999927],[24.65,60.14999999999927],[24.65,60.12499999999927],[24.775,60.12499999999927],[24.825000000000003,60.22499999999927],[24.85,60.22499999999927],[24.85,60.174999999999265],[24.975,60.174999999999265],[24.975,60.22499999999927],[25.025000000000002,60.22499999999927],[25.025000000000002,60.174999999999265],[25.125,60.174999999999265],[25.125,60.199999999999264],[25.175,60.199999999999264],[25.175,60.22499999999927],[25.225,60.22499999999927],[25.225,60.27499999999927],[25.25,60.27499999999927],[25.25,60.24999999999927],[25.375,60.24999999999927],[25.375,60.27499999999927],[25.400000000000002,60.27499999999927],[25.400000000000002,60.24999999999927],[25.475,60.24999999999927],[25.475,60.27499999999927],[25.525000000000002,60.27499999999927],[25.525000000000002,60.324999999999264],[25.625,60.324999999999264],[25.625,60.34999999999927],[25.650000000000002,60.34999999999927],[25.650000000000002,60.299999999999265],[25.675,60.299999999999265],[25.675,60.27499999999927],[25.725,60.27499999999927],[25.725,60.24999999999927],[25.8,60.24999999999927],[25.8,60.27499999999927],[25.825,60.27499999999927],[25.825,60.24999999999927],[25.900000000000002,60.24999999999927],[25.900000000000002,60.324999999999264],[26.025000000000002,60.324999999999264],[26.025000000000002,60.39999999999927],[26.0,60.39999999999927],[26.0,60.449999999999264],[26.025000000000002,60.449999999999264],[26.025000000000002,60.424999999999265],[26.1,60.424999999999265],[26.1,60.39999999999927],[26.25,60.39999999999927],[26.25,60.424999999999265],[26.3,60.424999999999265],[26.3,60.37499999999927],[26.35,60.37499999999927],[26.35,60.34999999999927],[26.425,60.34999999999927],[26.425,60.424999999999265],[26.45,60.424999999999265],[26.45,60.47499999999927],[26.650000000000002,60.47499999999927],[26.650000000000002,60.424999999999265],[26.725,60.424999999999265],[26.725,60.47499999999927],[26.85,60.47499999999927],[26.85,60.424999999999265],[26.925,60.424999999999265],[26.925,60.49999999999927],[26.975,60.49999999999927],[26.975,60.52499999999927],[27.075,60.52499999999927],[27.075,60.574999999999264],[27.1,60.574999999999264],[27.1,60.52499999999927],[27.175,60.52499999999927],[27.175,60.574999999999264],[27.225,60.574999999999264],[27.225,60.52499999999927],[27.400000000000002,60.52499999999927],[27.400000000000002,60.47499999999927],[27.475,60.47499999999927],[27.475,60.49999999999927],[27.55,60.49999999999927],[27.55,60.47499999999927],[27.650000000000002,60.47499999999927],[27.650000000000002,60.49999999999927],[27.725,60.49999999999927],[27.725,60.574999999999264],[27.775000000000002,60.574999999999264],[27.775000000000002,60.549999999999265],[27.85,60.549999999999265],[27.85,60.52499999999927],[28.225,60.52499999999927],[28.225,60.574999999999264],[28.275000000000002,60.574999999999264],[28.275000000000002,60.59999999999927],[28.325000000000003,60.59999999999927],[28.325000000000003,60.62499999999927],[28.400000000000002,60.62499999999927],[28.400000000000002,60.674999999999265],[28.575000000000003,60.674999999999265],[28.575000000000003,60.699999999999264],[28.650000000000002,60.699999999999264],[28.650000000000002,60.72499999999927],[28.725,60.72499999999927],[28.725,60.64999999999927],[28.700000000000003,60.64999999999927],[28.700000000000003,60.59999999999927],[28.675,60.59999999999927],[28.700000000000003,60.449999999999264],[28.575000000000003,60.449999999999264],[28.575000000000003,60.37499999999927],[28.6,60.37499999999927],[28.6,60.34999999999927],[28.700000000000003,60.34999999999927],[28.700000000000003,60.324999999999264],[28.775000000000002,60.324999999999264],[28.775000000000002,60.37499999999927],[28.8,60.37499999999927],[28.8,60.324999999999264],[28.825000000000003,60.324999999999264],[28.85,60.27499999999927],[28.950000000000003,60.27499999999927],[28.950000000000003,60.24999999999927],[29.0,60.22499999999927],[29.0,60.174999999999265],[29.525000000000002,60.174999999999265],[29.525000000000002,60.199999999999264],[29.650000000000002,60.199999999999264],[29.650000000000002,60.174999999999265],[29.900000000000002,60.174999999999265],[29.925,60.12499999999927],[29.950000000000003,60.12499999999927],[29.950000000000003,60.074999999999264],[29.975,60.074999999999264],[29.975,59.99999999999927],[30.1,59.99999999999927],[30.1,59.97499999999927],[30.200000000000003,59.97499999999927],[30.200000000000003,59.87499999999927],[30.175,59.87499999999927],[30.175,59.84999999999927],[29.975,59.84999999999927],[29.975,59.87499999999927],[29.900000000000002,59.87499999999927],[29.900000000000002,59.89999999999927],[29.775000000000002,59.89999999999927],[29.775000000000002,59.924999999999265],[29.625,59.924999999999265],[29.625,59.949999999999264],[29.375,59.949999999999264],[29.375,59.97499999999927],[29.150000000000002,59.97499999999927],[29.150000000000002,59.949999999999264],[29.05,59.949999999999264],[29.05,59.84999999999927],[29.025000000000002,59.84999999999927],[29.0,59.799999999999265],[28.700000000000003,59.77499999999927],[28.700000000000003,59.799999999999265],[28.625,59.799999999999265],[28.625,59.824999999999264],[28.475,59.824999999999264],[28.475,59.799999999999265],[28.450000000000003,59.799999999999265],[28.450000000000003,59.699999999999264],[28.425,59.699999999999264],[28.425,59.64999999999927],[28.225,59.674999999999265],[28.200000000000003,59.77499999999927],[28.075,59.77499999999927],[28.075,59.74999999999927],[28.025000000000002,59.74999999999927],[28.025000000000002,59.64999999999927],[28.075,59.62499999999927],[28.075,59.49999999999927],[28.05,59.49999999999927],[28.05,59.449999999999264],[28.0,59.449999999999264],[27.975,59.39999999999927],[27.525000000000002,59.39999999999927],[27.525000000000002,59.424999999999265],[27.425,59.424999999999265],[27.425,59.449999999999264],[27.2,59.449999999999264],[27.2,59.424999999999265],[26.925,59.424999999999265],[26.925,59.449999999999264],[26.825,59.449999999999264],[26.825,59.47499999999927],[26.725,59.49999999999927],[26.725,59.52499999999927],[26.675,59.52499999999927],[26.675,59.549999999999265],[26.575,59.549999999999265],[26.575,59.49999999999927],[26.475,59.49999999999927],[26.45,59.549999999999265],[26.275000000000002,59.549999999999265],[26.275000000000002,59.574999999999264],[26.075,59.574999999999264],[26.075,59.59999999999927],[25.975,59.59999999999927],[25.975,59.574999999999264],[25.925,59.574999999999264],[25.925,59.59999999999927],[25.85,59.59999999999927],[25.85,59.549999999999265],[25.775000000000002,59.549999999999265],[25.775000000000002,59.62499999999927],[25.7,59.62499999999927],[25.7,59.549999999999265],[25.650000000000002,59.549999999999265],[25.625,59.59999999999927],[25.55,59.59999999999927],[25.55,59.49999999999927],[25.45,59.49999999999927],[25.45,59.47499999999927],[25.400000000000002,59.47499999999927],[25.400000000000002,59.49999999999927],[25.175,59.49999999999927],[25.175,59.47499999999927],[25.125,59.47499999999927],[25.125,59.49999999999927],[24.925,59.49999999999927],[24.9,59.549999999999265],[24.825000000000003,59.549999999999265],[24.825000000000003,59.449999999999264],[24.700000000000003,59.449999999999264],[24.700000000000003,59.424999999999265],[24.65,59.424999999999265],[24.65,59.449999999999264],[24.55,59.449999999999264],[24.55,59.424999999999265],[24.525,59.424999999999265],[24.525,59.449999999999264],[24.35,59.449999999999264],[24.325000000000003,59.39999999999927],[24.25,59.39999999999927],[24.25,59.34999999999927],[24.225,59.34999999999927],[24.225,59.324999999999264],[24.200000000000003,59.324999999999264],[24.200000000000003,59.34999999999927],[24.1,59.34999999999927],[24.1,59.27499999999927],[23.975,59.27499999999927],[23.975,59.24999999999927],[23.925,59.24999999999927],[23.925,59.27499999999927],[23.775,59.27499999999927],[23.775,59.24999999999927],[23.725,59.24999999999927],[23.725,59.22499999999927],[23.6,59.22499999999927],[23.6,59.199999999999264],[23.525,59.199999999999264],[23.525,59.09999999999927],[23.5,59.09999999999927],[23.5,59.074999999999264],[23.450000000000003,59.074999999999264],[23.450000000000003,58.97499999999927],[23.575000000000003,58.97499999999927],[23.575000000000003,58.99999999999927],[23.65,58.99999999999927],[23.675,58.949999999999264],[23.5,58.949999999999264],[23.5,58.924999999999265],[23.475,58.924999999999265],[23.475,58.84999999999927],[23.525,58.84999999999927],[23.525,58.77499999999927],[23.75,58.77499999999927],[23.75,58.74999999999927],[23.675,58.74999999999927],[23.675,58.72499999999927],[23.575000000000003,58.72499999999927],[23.575000000000003,58.699999999999264],[23.5,58.699999999999264],[23.5,58.62499999999927],[23.525,58.62499999999927],[23.525,58.574999999999264],[23.575000000000003,58.574999999999264],[23.6,58.52499999999927],[23.700000000000003,58.52499999999927],[23.700000000000003,58.39999999999927],[23.725,58.39999999999927],[23.75,58.34999999999927],[23.85,58.34999999999927],[23.85,58.324999999999264],[24.025,58.324999999999264],[24.025,58.299999999999265],[24.05,58.299999999999265],[24.05,58.24999999999927],[24.175,58.24999999999927],[24.175,58.27499999999927],[24.275,58.27499999999927],[24.275,58.34999999999927],[24.3,58.34999999999927],[24.3,58.37499999999927],[24.55,58.37499999999927],[24.55,58.324999999999264],[24.575000000000003,58.324999999999264],[24.575000000000003,58.27499999999927],[24.475,58.24999999999927],[24.475,58.02499999999927],[24.425,57.99999999999927],[24.4,57.89999999999927],[24.35,57.89999999999927],[24.35,57.62499999999927],[24.4,57.62499999999927],[24.4,57.59999999999927],[24.35,57.59999999999927],[24.35,57.52499999999927],[24.4,57.52499999999927],[24.4,57.37499999999927],[24.425,57.37499999999927],[24.425,57.24999999999927],[24.4,57.24999999999927],[24.4,57.199999999999264],[24.325000000000003,57.199999999999264],[24.3,57.14999999999927],[24.225,57.14999999999927],[24.225,57.09999999999927],[24.15,57.09999999999927],[24.15,57.074999999999264],[24.0,57.049999999999265],[23.975,56.99999999999927],[23.85,56.99999999999927],[23.85,56.97499999999927],[23.775,56.97499999999927],[23.775,56.949999999999264],[23.575000000000003,56.949999999999264],[23.575000000000003,56.97499999999927],[23.525,56.97499999999927],[23.5,57.02499999999927],[23.4,57.02499999999927],[23.4,57.049999999999265],[23.275,57.049999999999265],[23.25,57.09999999999927],[23.225,57.09999999999927],[23.225,57.199999999999264],[23.175,57.22499999999927],[23.175,57.299999999999265],[23.125,57.324999999999264],[23.125,57.34999999999927],[23.05,57.34999999999927],[23.025,57.39999999999927],[22.925,57.39999999999927],[22.925,57.449999999999264],[22.875,57.449999999999264],[22.875,57.49999999999927],[22.75,57.49999999999927],[22.725,57.549999999999265],[22.65,57.549999999999265],[22.65,57.59999999999927],[22.625,57.59999999999927],[22.625,57.62499999999927],[22.575000000000003,57.62499999999927],[22.575000000000003,57.74999999999927],[22.5,57.74999999999927],[22.5,57.72499999999927],[22.450000000000003,57.72499999999927],[22.450000000000003,57.699999999999264],[22.3,57.699999999999264],[22.3,57.674999999999265],[22.25,57.674999999999265],[22.25,57.64999999999927],[22.15,57.64999999999927],[22.15,57.62499999999927],[22.075000000000003,57.62499999999927],[22.075000000000003,57.59999999999927],[21.8,57.59999999999927],[21.8,57.574999999999264],[21.725,57.574999999999264],[21.700000000000003,57.52499999999927],[21.65,57.49999999999927],[21.65,57.449999999999264],[21.6,57.449999999999264],[21.575000000000003,57.39999999999927],[21.525,57.39999999999927],[21.525,57.34999999999927],[21.475,57.34999999999927],[21.475,57.299999999999265],[21.425,57.299999999999265],[21.425,57.02499999999927],[21.4,57.02499999999927],[21.4,56.99999999999927],[21.35,56.99999999999927],[21.325000000000003,56.949999999999264],[21.275,56.949999999999264],[21.25,56.89999999999927],[21.175,56.89999999999927],[21.15,56.84999999999927],[21.05,56.84999999999927],[21.05,56.64999999999927],[21.025,56.64999999999927],[21.025,56.59999999999927],[21.0,56.59999999999927],[21.0,56.39999999999927],[20.975,56.39999999999927],[20.975,56.22499999999927],[21.0,56.22499999999927],[21.025,56.12499999999927],[21.05,56.12499999999927],[21.05,56.049999999999265],[21.075000000000003,56.049999999999265],[21.075000000000003,55.949999999999264],[21.05,55.949999999999264],[21.05,55.77499999999927],[21.075000000000003,55.77499999999927],[21.075000000000003,55.72499999999927],[21.1,55.72499999999927],[21.1,55.674999999999265],[21.175,55.674999999999265],[21.175,55.64999999999927],[21.200000000000003,55.64999999999927],[21.200000000000003,55.549999999999265],[21.225,55.549999999999265],[21.225,55.49999999999927],[21.25,55.49999999999927],[21.25,55.34999999999927],[21.275,55.34999999999927],[21.275,55.27499999999927],[21.3,55.27499999999927],[21.3,55.24999999999927],[21.275,55.24999999999927],[21.275,55.199999999999264],[21.200000000000003,55.199999999999264],[21.200000000000003,55.074999999999264],[21.225,55.074999999999264],[21.225,54.97499999999927],[21.25,54.97499999999927],[21.25,54.924999999999265],[21.225,54.924999999999265],[21.225,54.89999999999927],[20.825000000000003,54.89999999999927],[20.825000000000003,54.924999999999265],[20.55,54.924999999999265],[20.55,54.949999999999264],[20.4,54.949999999999264],[20.4,54.924999999999265],[20.3,54.924999999999265],[20.3,54.949999999999264],[19.975,54.949999999999264],[19.975,54.924999999999265],[19.950000000000003,54.924999999999265],[19.975,54.72499999999927],[20.05,54.72499999999927],[20.05,54.674999999999265],[20.075000000000003,54.674999999999265],[20.075000000000003,54.64999999999927],[20.15,54.64999999999927],[20.15,54.674999999999265],[20.4,54.674999999999265],[20.4,54.64999999999927],[20.325000000000003,54.64999999999927],[20.325000000000003,54.62499999999927],[20.275,54.62499999999927],[20.275,54.59999999999927],[20.15,54.59999999999927],[20.15,54.549999999999265],[19.975,54.549999999999265],[19.975,54.49999999999927],[19.925,54.49999999999927],[19.925,54.47499999999927],[19.85,54.47499999999927],[19.85,54.449999999999264],[19.75,54.424999999999265],[19.75,54.39999999999927],[19.725,54.39999999999927],[19.700000000000003,54.34999999999927],[19.65,54.34999999999927],[19.65,54.324999999999264],[19.525,54.324999999999264],[19.525,54.299999999999265],[19.450000000000003,54.299999999999265],[19.425,54.24999999999927],[19.375,54.24999999999927],[19.375,54.199999999999264],[19.35,54.199999999999264],[19.35,54.24999999999927],[19.25,54.24999999999927],[19.25,54.34999999999927],[18.75,54.34999999999927],[18.75,54.37499999999927],[18.700000000000003,54.37499999999927],[18.700000000000003,54.39999999999927],[18.6,54.39999999999927],[18.575000000000003,54.449999999999264],[18.55,54.449999999999264],[18.55,54.574999999999264],[18.525,54.574999999999264],[18.525,54.59999999999927],[18.475,54.62499999999927],[18.475,54.699999999999264],[18.425,54.699999999999264],[18.425,54.72499999999927],[18.4,54.72499999999927],[18.4,54.799999999999265],[18.35,54.799999999999265],[18.35,54.824999999999264],[17.925,54.824999999999264],[17.925,54.799999999999265],[17.725,54.799999999999265],[17.725,54.77499999999927],[17.6,54.77499999999927],[17.6,54.74999999999927],[17.325000000000003,54.74999999999927],[17.325000000000003,54.72499999999927],[17.125,54.699999999999264],[17.125,54.674999999999265],[17.075000000000003,54.674999999999265],[17.075000000000003,54.64999999999927],[17.0,54.64999999999927],[16.975,54.59999999999927],[16.875,54.59999999999927],[16.875,54.574999999999264],[16.775,54.574999999999264],[16.775,54.549999999999265],[16.525,54.549999999999265],[16.5,54.49999999999927],[16.45,54.49999999999927],[16.45,54.47499999999927],[16.425,54.47499999999927],[16.425,54.449999999999264],[16.35,54.449999999999264],[16.35,54.39999999999927],[16.325,54.39999999999927],[16.3,54.34999999999927],[16.25,54.34999999999927],[16.225,54.299999999999265],[16.125,54.299999999999265],[16.1,54.24999999999927],[15.850000000000001,54.24999999999927],[15.850000000000001,54.22499999999927],[15.775,54.22499999999927],[15.775,54.199999999999264],[15.600000000000001,54.199999999999264],[15.600000000000001,54.174999999999265],[15.525,54.174999999999265],[15.525,54.14999999999927],[15.275,54.14999999999927],[15.275,54.12499999999927],[15.2,54.12499999999927],[15.2,54.09999999999927],[15.05,54.09999999999927],[15.05,54.074999999999264],[14.975000000000001,54.074999999999264],[14.975000000000001,54.049999999999265],[14.825,54.049999999999265],[14.825,54.02499999999927],[14.725000000000001,54.02499999999927],[14.725000000000001,53.949999999999264],[14.7,53.949999999999264],[14.675,53.84999999999927],[14.625,53.84999999999927],[14.600000000000001,53.74999999999927],[14.55,53.74999999999927],[14.55,53.674999999999265],[14.600000000000001,53.64999999999927],[14.600000000000001,53.62499999999927],[14.55,53.59999999999927],[14.55,53.64999999999927],[14.45,53.64999999999927],[14.45,53.674999999999265],[14.4,53.674999999999265],[14.4,53.699999999999264],[14.225000000000001,53.699999999999264],[14.225000000000001,53.72499999999927],[14.075,53.72499999999927],[14.075,53.74999999999927],[13.975000000000001,53.74999999999927],[13.95,53.799999999999265],[13.850000000000001,53.799999999999265],[13.825,53.84999999999927],[13.8,53.84999999999927],[13.8,53.87499999999927],[13.850000000000001,53.87499999999927],[13.850000000000001,53.949999999999264],[13.825,53.949999999999264],[13.8,53.99999999999927],[13.75,53.99999999999927],[13.75,54.02499999999927],[13.775,54.02499999999927],[13.775,54.09999999999927],[13.725000000000001,54.09999999999927],[13.7,54.14999999999927],[13.625,54.14999999999927],[13.625,54.12499999999927],[13.5,54.12499999999927],[13.5,54.074999999999264],[13.45,54.074999999999264],[13.45,54.12499999999927],[13.425,54.12499999999927],[13.425,54.14999999999927],[13.325,54.14999999999927],[13.325,54.199999999999264],[13.3,54.199999999999264],[13.3,54.22499999999927],[13.225000000000001,54.22499999999927],[13.225000000000001,54.24999999999927],[13.100000000000001,54.24999999999927],[13.100000000000001,54.299999999999265],[13.075,54.299999999999265],[13.075,54.37499999999927],[13.025,54.37499999999927],[13.025,54.39999999999927],[12.875,54.39999999999927],[12.875,54.34999999999927],[12.525,54.34999999999927],[12.525,54.324999999999264],[12.475,54.324999999999264],[12.475,54.299999999999265],[12.45,54.299999999999265],[12.45,54.24999999999927],[12.4,54.24999999999927],[12.4,54.27499999999927],[12.275,54.27499999999927],[12.275,54.24999999999927],[12.2,54.24999999999927],[12.175,54.199999999999264],[12.125,54.199999999999264],[12.125,54.174999999999265],[12.0,54.174999999999265],[12.0,54.14999999999927],[11.675,54.14999999999927],[11.675,54.12499999999927],[11.625,54.12499999999927],[11.625,54.074999999999264],[11.6,54.074999999999264],[11.6,54.049999999999265],[11.575,54.049999999999265],[11.55,53.99999999999927],[11.5,53.97499999999927],[11.5,53.949999999999264],[11.475,53.949999999999264],[11.475,53.89999999999927],[11.4,53.89999999999927],[11.4,53.924999999999265],[11.25,53.924999999999265],[11.25,53.97499999999927],[11.2,53.97499999999927],[11.2,53.99999999999927],[11.0,53.99999999999927],[11.0,53.97499999999927],[10.95,53.97499999999927],[10.95,53.949999999999264],[10.9,53.949999999999264],[10.9,53.97499999999927],[10.85,53.97499999999927],[10.85,53.99999999999927],[10.75,53.99999999999927],[10.75,54.074999999999264],[10.9,54.074999999999264],[10.9,54.09999999999927],[10.925,54.09999999999927],[10.95,54.14999999999927],[11.05,54.174999999999265],[11.05,54.199999999999264],[11.075,54.199999999999264],[11.075,54.34999999999927],[10.825,54.34999999999927],[10.8,54.299999999999265],[10.675,54.299999999999265],[10.65,54.34999999999927],[10.55,54.34999999999927],[10.55,54.37499999999927],[10.4,54.39999999999927],[10.4,54.424999999999265],[10.3,54.424999999999265],[10.3,54.39999999999927],[10.225,54.39999999999927],[10.225,54.34999999999927],[10.15,54.34999999999927],[10.15,54.37499999999927],[10.175,54.37499999999927],[10.175,54.47499999999927],[10.025,54.47499999999927],[10.025,54.449999999999264],[9.825,54.449999999999264],[9.825,54.47499999999927],[9.925,54.47499999999927],[9.925,54.49999999999927],[9.975,54.49999999999927],[9.975,54.52499999999927],[10.025,54.549999999999265],[10.025,54.699999999999264],[9.975,54.699999999999264],[9.975,54.77499999999927],[9.875,54.77499999999927],[9.875,54.74999999999927],[9.8,54.74999999999927],[9.8,54.799999999999265],[9.65,54.799999999999265],[9.65,54.824999999999264],[9.5,54.824999999999264],[9.5,54.799999999999265],[9.45,54.799999999999265],[9.475,54.84999999999927],[9.5,54.84999999999927],[9.5,54.87499999999927],[9.575,54.87499999999927],[9.575,54.924999999999265],[9.775,54.89999999999927],[9.775,54.97499999999927],[9.7,54.97499999999927],[9.7,54.99999999999927],[9.6,54.99999999999927],[9.6,55.02499999999927],[9.525,55.02499999999927],[9.525,54.99999999999927],[9.425,54.99999999999927],[9.425,55.049999999999265],[9.475,55.049999999999265],[9.475,55.12499999999927],[9.5,55.12499999999927],[9.5,55.174999999999265],[9.575,55.174999999999265],[9.575,55.199999999999264],[9.6,55.199999999999264],[9.6,55.174999999999265],[9.7,55.174999999999265],[9.7,55.24999999999927],[9.675,55.24999999999927],[9.675,55.299999999999265],[9.65,55.299999999999265],[9.65,55.34999999999927],[9.6,55.34999999999927],[9.6,55.39999999999927],[9.575,55.39999999999927],[9.575,55.47499999999927],[9.5,55.47499999999927],[9.5,55.49999999999927],[9.55,55.49999999999927],[9.55,55.52499999999927],[9.675,55.52499999999927],[9.675,55.574999999999264],[9.75,55.574999999999264],[9.75,55.64999999999927],[9.7,55.64999999999927],[9.7,55.674999999999265],[9.575,55.674999999999265],[9.575,55.699999999999264],[9.65,55.699999999999264],[9.65,55.72499999999927],[9.7,55.72499999999927],[9.725,55.674999999999265],[9.925,55.674999999999265],[9.925,55.699999999999264],[10.0,55.699999999999264],[10.0,55.72499999999927],[10.025,55.72499999999927],[10.025,55.824999999999264],[9.9,55.824999999999264],[9.9,55.87499999999927],[10.125,55.87499999999927],[10.125,55.84999999999927],[10.2,55.84999999999927],[10.2,55.87499999999927],[10.25,55.89999999999927],[10.25,56.09999999999927],[10.225,56.09999999999927],[10.225,56.174999999999265],[10.275,56.199999999999264],[10.275,56.22499999999927],[10.325,56.22499999999927],[10.325,56.27499999999927],[10.425,56.27499999999927],[10.425,56.299999999999265],[10.45,56.299999999999265],[10.45,56.27499999999927],[10.5,56.27499999999927],[10.5,56.24999999999927],[10.475,56.24999999999927],[10.475,56.174999999999265],[10.55,56.174999999999265],[10.575,56.22499999999927],[10.775,56.22499999999927],[10.775,56.24999999999927],[10.8,56.24999999999927],[10.825,56.299999999999265],[10.85,56.299999999999265],[10.85,56.324999999999264],[10.925,56.324999999999264],[10.925,56.47499999999927],[10.85,56.47499999999927],[10.825,56.52499999999927],[10.625,56.52499999999927],[10.625,56.49999999999927],[10.425,56.49999999999927],[10.4,56.549999999999265],[10.25,56.549999999999265],[10.25,56.52499999999927],[10.225,56.52499999999927],[10.225,56.574999999999264],[10.275,56.574999999999264],[10.3,56.62499999999927],[10.35,56.62499999999927],[10.35,56.699999999999264],[10.225,56.699999999999264],[10.225,56.674999999999265],[10.2,56.674999999999265],[10.2,56.699999999999264],[10.125,56.699999999999264],[10.125,56.674999999999265],[10.025,56.674999999999265],[10.025,56.64999999999927],[9.925,56.64999999999927],[9.925,56.62499999999927],[9.8,56.62499999999927],[9.8,56.64999999999927],[9.9,56.64999999999927],[9.9,56.674999999999265],[10.0,56.674999999999265],[10.0,56.699999999999264],[10.1,56.699999999999264],[10.1,56.72499999999927],[10.275,56.72499999999927],[10.275,56.87499999999927],[10.25,56.87499999999927],[10.25,56.89999999999927],[10.275,56.89999999999927],[10.275,56.97499999999927],[10.2,56.97499999999927],[10.2,56.99999999999927],[10.1,56.99999999999927],[10.075,57.049999999999265],[9.725,57.049999999999265],[9.725,57.02499999999927],[9.625,56.99999999999927],[9.6,56.949999999999264],[9.55,56.924999999999265],[9.55,56.949999999999264],[9.525,56.949999999999264],[9.525,56.99999999999927],[9.425,56.99999999999927],[9.425,57.02499999999927],[9.475,57.02499999999927],[9.475,57.049999999999265],[9.6,57.049999999999265],[9.6,57.074999999999264],[9.775,57.074999999999264],[9.775,57.09999999999927],[9.825,57.09999999999927],[9.825,57.074999999999264],[10.1,57.074999999999264],[10.125,57.02499999999927],[10.225,57.02499999999927],[10.225,56.99999999999927],[10.35,56.99999999999927],[10.35,57.049999999999265],[10.4,57.049999999999265],[10.4,57.12499999999927],[10.425,57.12499999999927],[10.45,57.174999999999265],[10.5,57.199999999999264],[10.5,57.22499999999927],[10.525,57.22499999999927],[10.525,57.47499999999927],[10.5,57.47499999999927],[10.5,57.49999999999927],[10.475,57.49999999999927],[10.475,57.52499999999927],[10.425,57.549999999999265],[10.425,57.64999999999927],[10.325,57.64999999999927],[10.325,57.62499999999927],[10.275,57.62499999999927],[10.275,57.59999999999927],[10.125,57.59999999999927],[10.125,57.574999999999264],[9.925,57.574999999999264],[9.925,57.549999999999265],[9.875,57.549999999999265],[9.875,57.49999999999927],[9.825,57.49999999999927],[9.8,57.449999999999264],[9.775,57.449999999999264],[9.75,57.39999999999927],[9.725,57.39999999999927],[9.725,57.34999999999927],[9.675,57.34999999999927],[9.675,57.299999999999265],[9.6,57.299999999999265],[9.6,57.24999999999927],[9.55,57.24999999999927],[9.525,57.199999999999264],[9.475,57.199999999999264],[9.475,57.174999999999265],[9.425,57.174999999999265],[9.425,57.14999999999927],[9.25,57.14999999999927],[9.25,57.12499999999927],[9.15,57.12499999999927],[9.15,57.14999999999927],[9.0,57.14999999999927],[9.0,58.62499999999927],[9.1,58.62499999999927],[9.1,58.72499999999927],[9.075,58.72499999999927],[9.075,58.74999999999927],[9.35,58.74999999999927],[9.35,58.77499999999927],[9.425,58.77499999999927],[9.425,58.799999999999265],[9.45,58.799999999999265],[9.45,58.84999999999927],[9.475,58.84999999999927],[9.475,58.924999999999265],[9.575,58.924999999999265],[9.575,58.949999999999264],[9.65,58.949999999999264],[9.65,58.97499999999927],[9.675,58.97499999999927],[9.675,59.074999999999264],[9.7,59.074999999999264],[9.7,59.12499999999927],[9.725,59.12499999999927],[9.725,59.074999999999264],[9.8,59.074999999999264],[9.8,59.02499999999927],[9.85,59.02499999999927],[9.85,58.97499999999927],[10.025,58.97499999999927],[10.025,59.049999999999265],[10.05,59.049999999999265],[10.05,59.02499999999927],[10.2,59.02499999999927],[10.225,59.12499999999927],[10.325,59.12499999999927],[10.35,59.174999999999265],[10.45,59.174999999999265],[10.45,59.22499999999927],[10.475,59.22499999999927],[10.475,59.424999999999265],[10.425,59.424999999999265],[10.425,59.449999999999264],[10.325,59.449999999999264],[10.325,59.47499999999927],[10.275,59.49999999999927],[10.275,59.52499999999927],[10.25,59.52499999999927],[10.25,59.574999999999264],[10.275,59.574999999999264],[10.3,59.52499999999927],[10.4,59.52499999999927],[10.4,59.64999999999927],[10.35,59.64999999999927],[10.35,59.674999999999265],[10.3,59.674999999999265],[10.3,59.699999999999264],[10.25,59.699999999999264],[10.25,59.74999999999927],[10.275,59.74999999999927],[10.275,59.72499999999927],[10.375,59.72499999999927],[10.375,59.674999999999265],[10.45,59.674999999999265],[10.45,59.52499999999927],[10.55,59.52499999999927],[10.575,59.574999999999264],[10.6,59.574999999999264],[10.6,59.64999999999927],[10.525,59.64999999999927],[10.525,59.72499999999927],[10.5,59.72499999999927],[10.5,59.799999999999265],[10.475,59.799999999999265],[10.475,59.824999999999264],[10.5,59.824999999999264],[10.5,59.87499999999927],[10.525,59.87499999999927],[10.525,59.89999999999927],[10.65,59.89999999999927],[10.65,59.924999999999265],[10.725,59.924999999999265],[10.725,59.89999999999927],[10.775,59.87499999999927],[10.775,59.824999999999264],[10.75,59.824999999999264],[10.725,59.77499999999927],[10.7,59.77499999999927],[10.7,59.84999999999927],[10.625,59.84999999999927],[10.625,59.799999999999265],[10.6,59.799999999999265],[10.625,59.59999999999927],[10.675,59.59999999999927],[10.675,59.52499999999927],[10.7,59.52499999999927],[10.7,59.449999999999264],[10.625,59.449999999999264],[10.625,59.37499999999927],[10.675,59.37499999999927],[10.675,59.34999999999927],[10.75,59.34999999999927],[10.75,59.324999999999264],[10.775,59.324999999999264],[10.775,59.299999999999265],[10.75,59.299999999999265],[10.75,59.22499999999927],[10.8,59.22499999999927],[10.8,59.174999999999265],[11.05,59.174999999999265],[11.05,59.14999999999927],[11.15,59.14999999999927],[11.15,59.199999999999264],[11.2,59.174999999999265],[11.2,59.09999999999927],[11.25,59.09999999999927],[11.25,59.074999999999264],[11.2,59.074999999999264],[11.2,58.97499999999927],[11.175,58.97499999999927],[11.175,58.89999999999927],[11.2,58.89999999999927],[11.2,58.824999999999264],[11.25,58.824999999999264],[11.25,58.799999999999265],[11.225,58.799999999999265],[11.225,58.64999999999927],[11.275,58.64999999999927],[11.275,58.47499999999927],[11.3,58.47499999999927],[11.3,58.37499999999927],[11.45,58.37499999999927],[11.45,58.324999999999264],[11.55,58.324999999999264],[11.55,58.39999999999927],[11.6,58.424999999999265],[11.625,58.37499999999927],[11.575,58.34999999999927],[11.575,58.27499999999927],[11.65,58.27499999999927],[11.65,58.299999999999265],[11.7,58.324999999999264],[11.7,58.34999999999927],[11.75,58.34999999999927],[11.75,58.324999999999264],[11.85,58.324999999999264],[11.85,58.34999999999927],[11.925,58.34999999999927],[11.925,58.324999999999264],[11.875,58.324999999999264],[11.875,58.299999999999265],[11.85,58.299999999999265],[11.85,58.22499999999927],[11.925,58.22499999999927],[11.925,58.199999999999264],[11.875,58.199999999999264],[11.875,58.12499999999927],[11.85,58.12499999999927],[11.825,58.074999999999264],[11.8,58.074999999999264],[11.8,57.97499999999927],[11.775,57.97499999999927],[11.775,57.89999999999927],[11.725,57.89999999999927],[11.725,57.799999999999265],[11.825,57.799999999999265],[11.825,57.77499999999927],[11.8,57.77499999999927],[11.8,57.674999999999265],[11.85,57.674999999999265],[11.85,57.62499999999927],[11.925,57.62499999999927],[11.925,57.574999999999264],[11.95,57.574999999999264],[11.95,57.449999999999264],[11.925,57.449999999999264],[11.925,57.37499999999927],[12.025,57.37499999999927],[12.05,57.47499999999927],[12.075,57.47499999999927],[12.075,57.424999999999265],[12.1,57.424999999999265],[12.1,57.34999999999927],[12.125,57.34999999999927],[12.125,57.324999999999264],[12.175,57.324999999999264],[12.175,57.22499999999927],[12.225,57.22499999999927],[12.225,57.12499999999927],[12.25,57.12499999999927],[12.275,57.02499999999927],[12.325,57.02499999999927],[12.325,56.99999999999927],[12.35,56.99999999999927],[12.35,56.924999999999265],[12.375,56.924999999999265],[12.375,56.89999999999927],[12.475,56.89999999999927],[12.475,56.87499999999927],[12.55,56.87499999999927],[12.55,56.824999999999264],[12.6,56.824999999999264],[12.625,56.72499999999927],[12.7,56.72499999999927],[12.7,56.674999999999265],[12.725,56.674999999999265],[12.725,56.64999999999927],[12.8,56.64999999999927],[12.8,56.674999999999265],[12.85,56.674999999999265],[12.875,56.62499999999927],[12.925,56.62499999999927],[12.925,56.59999999999927],[12.95,56.59999999999927],[12.95,56.47499999999927],[12.925,56.47499999999927],[12.925,56.449999999999264],[12.875,56.449999999999264],[12.875,56.424999999999265],[12.8,56.424999999999265],[12.8,56.449999999999264],[12.625,56.449999999999264],[12.625,56.37499999999927],[12.75,56.37499999999927],[12.75,56.299999999999265],[12.8,56.299999999999265],[12.825,56.24999999999927],[12.775,56.22499999999927],[12.775,56.199999999999264],[12.7,56.199999999999264],[12.675,56.24999999999927],[12.55,56.24999999999927],[12.55,56.14999999999927],[12.6,56.12499999999927],[12.6,56.09999999999927],[12.625,56.09999999999927],[12.625,56.074999999999264],[12.675,56.074999999999264],[12.675,56.049999999999265],[12.7,56.049999999999265],[12.7,55.99999999999927],[12.75,55.99999999999927],[12.75,55.949999999999264],[12.8,55.924999999999265],[12.8,55.87499999999927],[12.875,55.87499999999927],[12.875,55.84999999999927],[12.925,55.84999999999927],[12.925,55.824999999999264],[12.95,55.824999999999264],[12.95,55.74999999999927],[13.05,55.699999999999264],[13.05,55.62499999999927],[13.025,55.62499999999927],[13.025,55.59999999999927],[12.925,55.59999999999927],[12.925,55.49999999999927],[12.975,55.47499999999927],[12.975,55.39999999999927],[13.0,55.39999999999927],[13.0,55.37499999999927],[13.225000000000001,55.37499999999927],[13.225000000000001,55.34999999999927],[13.425,55.34999999999927],[13.425,55.37499999999927],[13.600000000000001,55.37499999999927],[13.600000000000001,55.424999999999265],[14.0,55.424999999999265],[14.025,55.37499999999927],[14.2,55.37499999999927],[14.2,55.39999999999927],[14.225000000000001,55.39999999999927],[14.25,55.449999999999264],[14.275,55.449999999999264],[14.275,55.47499999999927],[14.325,55.49999999999927],[14.325,55.59999999999927],[14.275,55.59999999999927],[14.275,55.674999999999265],[14.225000000000001,55.674999999999265],[14.225000000000001,55.699999999999264],[14.2,55.699999999999264],[14.2,55.799999999999265],[14.225000000000001,55.799999999999265],[14.225000000000001,55.84999999999927],[14.25,55.84999999999927],[14.25,55.87499999999927],[14.275,55.87499999999927],[14.275,55.89999999999927],[14.325,55.924999999999265],[14.325,55.97499999999927],[14.45,55.97499999999927],[14.45,55.99999999999927],[14.475000000000001,55.99999999999927],[14.475000000000001,56.02499999999927],[14.525,56.02499999999927],[14.525,56.049999999999265],[14.55,56.049999999999265],[14.55,56.02499999999927],[14.600000000000001,56.02499999999927],[14.600000000000001,55.99999999999927],[14.7,55.99999999999927],[14.7,56.02499999999927],[14.725000000000001,56.02499999999927],[14.725000000000001,56.09999999999927],[14.675,56.09999999999927],[14.675,56.174999999999265],[14.75,56.174999999999265],[14.75,56.14999999999927],[14.850000000000001,56.14999999999927],[14.850000000000001,56.174999999999265],[15.125,56.174999999999265],[15.125,56.14999999999927],[15.2,56.14999999999927],[15.2,56.174999999999265],[15.3,56.174999999999265],[15.3,56.12499999999927],[15.4,56.12499999999927],[15.4,56.174999999999265],[15.525,56.174999999999265],[15.55,56.22499999999927],[15.600000000000001,56.22499999999927],[15.600000000000001,56.174999999999265],[15.8,56.174999999999265],[15.8,56.09999999999927],[15.9,56.09999999999927],[15.9,56.12499999999927],[15.925,56.12499999999927],[15.925,56.174999999999265],[16.025,56.22499999999927],[16.025,56.27499999999927],[16.05,56.27499999999927],[16.05,56.34999999999927],[16.075,56.34999999999927],[16.075,56.424999999999265],[16.1,56.424999999999265],[16.1,56.449999999999264],[16.15,56.449999999999264],[16.15,56.47499999999927],[16.175,56.47499999999927],[16.175,56.52499999999927],[16.225,56.52499999999927],[16.225,56.62499999999927],[16.275,56.62499999999927],[16.275,56.674999999999265],[16.35,56.674999999999265],[16.35,56.74999999999927],[16.4,56.74999999999927],[16.4,56.77499999999927],[16.425,56.77499999999927],[16.425,56.84999999999927],[16.45,56.84999999999927],[16.45,56.97499999999927],[16.475,56.97499999999927],[16.475,57.02499999999927],[16.55,57.02499999999927],[16.55,57.09999999999927],[16.5,57.09999999999927],[16.5,57.14999999999927],[16.45,57.14999999999927],[16.45,57.174999999999265],[16.475,57.174999999999265],[16.475,57.27499999999927],[16.5,57.27499999999927],[16.5,57.299999999999265],[16.55,57.299999999999265],[16.55,57.37499999999927],[16.65,57.37499999999927],[16.65,57.549999999999265],[16.55,57.549999999999265],[16.525,57.59999999999927],[16.5,57.59999999999927],[16.5,57.62499999999927],[16.55,57.62499999999927],[16.55,57.59999999999927],[16.65,57.59999999999927],[16.65,57.62499999999927],[16.675,57.62499999999927],[16.675,57.74999999999927],[16.65,57.74999999999927],[16.65,57.799999999999265],[16.575,57.799999999999265],[16.55,57.84999999999927],[16.525,57.84999999999927],[16.525,57.87499999999927],[16.475,57.87499999999927],[16.475,57.924999999999265],[16.5,57.924999999999265],[16.5,57.99999999999927],[16.525,57.99999999999927],[16.525,57.97499999999927],[16.575,57.97499999999927],[16.575,57.949999999999264],[16.625,57.924999999999265],[16.625,57.84999999999927],[16.7,57.84999999999927],[16.7,57.89999999999927],[16.75,57.89999999999927],[16.75,58.09999999999927],[16.7,58.09999999999927],[16.675,58.14999999999927],[16.65,58.14999999999927],[16.65,58.174999999999265],[16.6,58.174999999999265],[16.6,58.199999999999264],[16.675,58.199999999999264],[16.7,58.14999999999927],[16.725,58.14999999999927],[16.725,58.12499999999927],[16.8,58.12499999999927],[16.8,58.24999999999927],[16.725,58.24999999999927],[16.725,58.299999999999265],[16.7,58.299999999999265],[16.7,58.324999999999264],[16.725,58.324999999999264],[16.725,58.39999999999927],[16.6,58.39999999999927],[16.6,58.424999999999265],[16.45,58.449999999999264],[16.45,58.47499999999927],[16.55,58.47499999999927],[16.55,58.449999999999264],[16.625,58.449999999999264],[16.625,58.424999999999265],[16.775,58.424999999999265],[16.775,58.449999999999264],[16.85,58.449999999999264],[16.85,58.52499999999927],[16.8,58.52499999999927],[16.775,58.574999999999264],[16.725,58.574999999999264],[16.725,58.59999999999927],[16.5,58.59999999999927],[16.5,58.62499999999927],[16.425,58.62499999999927],[16.425,58.574999999999264],[16.4,58.574999999999264],[16.4,58.59999999999927],[16.2,58.59999999999927],[16.2,58.62499999999927],[16.225,58.62499999999927],[16.225,58.674999999999265],[16.675,58.64999999999927],[16.675,58.62499999999927],[16.95,58.62499999999927],[16.95,58.674999999999265],[17.025,58.674999999999265],[17.025,58.74999999999927],[17.075000000000003,58.74999999999927],[17.075000000000003,58.77499999999927],[17.1,58.77499999999927],[17.125,58.72499999999927],[17.275,58.72499999999927],[17.275,58.74999999999927],[17.4,58.74999999999927],[17.4,58.77499999999927],[17.450000000000003,58.799999999999265],[17.450000000000003,58.89999999999927],[17.475,58.89999999999927],[17.475,58.87499999999927],[17.575000000000003,58.87499999999927],[17.575000000000003,58.949999999999264],[17.6,58.949999999999264],[17.6,58.97499999999927],[17.625,58.97499999999927],[17.625,58.924999999999265],[17.700000000000003,58.924999999999265],[17.700000000000003,59.049999999999265],[17.6,59.049999999999265],[17.6,59.074999999999264],[17.65,59.074999999999264],[17.65,59.09999999999927],[17.75,59.09999999999927],[17.75,59.12499999999927],[17.775,59.12499999999927],[17.775,59.074999999999264],[17.75,59.074999999999264],[17.75,58.89999999999927],[17.9,58.87499999999927],[17.9,58.89999999999927],[17.950000000000003,58.89999999999927],[17.950000000000003,58.924999999999265],[17.975,58.924999999999265],[17.975,58.97499999999927],[18.0,58.97499999999927],[18.0,59.02499999999927],[18.025,59.02499999999927],[18.025,59.049999999999265],[18.1,59.049999999999265],[18.1,59.074999999999264],[18.200000000000003,59.074999999999264],[18.225,59.12499999999927],[18.4,59.12499999999927],[18.4,59.22499999999927],[18.35,59.22499999999927],[18.35,59.24999999999927],[18.275,59.24999999999927],[18.275,59.324999999999264],[18.200000000000003,59.324999999999264],[18.200000000000003,59.299999999999265],[18.15,59.299999999999265],[18.15,59.324999999999264],[18.075000000000003,59.324999999999264],[18.075000000000003,59.299999999999265],[18.025,59.299999999999265],[18.025,59.324999999999264],[18.05,59.324999999999264],[18.05,59.37499999999927],[18.075000000000003,59.37499999999927],[18.075000000000003,59.424999999999265],[18.175,59.424999999999265],[18.175,59.39999999999927],[18.25,59.39999999999927],[18.25,59.424999999999265],[18.325000000000003,59.424999999999265],[18.325000000000003,59.449999999999264],[18.4,59.449999999999264],[18.4,59.47499999999927],[18.450000000000003,59.47499999999927],[18.475,59.52499999999927],[18.55,59.52499999999927],[18.575000000000003,59.574999999999264],[18.65,59.574999999999264],[18.65,59.62499999999927],[18.700000000000003,59.62499999999927],[18.700000000000003,59.64999999999927],[18.75,59.64999999999927],[18.75,59.674999999999265],[18.85,59.674999999999265],[18.85,59.74999999999927],[18.725,59.74999999999927],[18.725,59.77499999999927],[18.85,59.77499999999927],[18.85,59.799999999999265],[18.9,59.799999999999265],[18.9,59.89999999999927],[18.925,59.89999999999927],[18.925,59.97499999999927],[18.9,59.97499999999927],[18.9,59.99999999999927],[18.85,59.99999999999927],[18.825000000000003,60.049999999999265],[18.75,60.049999999999265],[18.75,60.09999999999927],[18.725,60.09999999999927],[18.725,60.12499999999927],[18.575000000000003,60.14999999999927],[18.575000000000003,60.09999999999927],[18.55,60.09999999999927],[18.55,60.14999999999927],[18.450000000000003,60.14999999999927],[18.450000000000003,60.199999999999264],[18.475,60.199999999999264],[18.475,60.174999999999265],[18.55,60.174999999999265],[18.55,60.24999999999927],[18.525,60.24999999999927],[18.5,60.299999999999265],[18.4,60.324999999999264],[18.4,60.34999999999927],[18.275,60.34999999999927],[18.275,60.324999999999264],[18.225,60.324999999999264],[18.225,60.39999999999927],[18.15,60.39999999999927],[18.15,60.424999999999265],[18.1,60.424999999999265],[18.1,60.449999999999264],[18.075000000000003,60.449999999999264],[18.075000000000003,60.49999999999927],[17.975,60.49999999999927],[17.975,60.52499999999927],[18.0,60.52499999999927],[18.0,60.59999999999927],[17.875,60.59999999999927],[17.875,60.574999999999264],[17.8,60.574999999999264],[17.8,60.549999999999265],[17.725,60.549999999999265],[17.725,60.52499999999927],[17.675,60.52499999999927],[17.675,60.49999999999927],[17.65,60.49999999999927],[17.65,60.52499999999927],[17.6,60.52499999999927],[17.6,60.64999999999927],[17.325000000000003,60.64999999999927],[17.325000000000003,60.674999999999265],[17.225,60.674999999999265],[17.25,60.72499999999927],[17.275,60.72499999999927],[17.275,60.87499999999927],[17.225,60.87499999999927],[17.225,60.924999999999265],[17.15,60.924999999999265],[17.15,61.02499999999927],[17.175,61.02499999999927],[17.175,61.199999999999264],[17.15,61.199999999999264],[17.15,61.22499999999927],[17.175,61.22499999999927],[17.175,61.27499999999927],[17.200000000000003,61.27499999999927],[17.200000000000003,61.34999999999927],[17.1,61.34999999999927],[17.1,61.39999999999927],[17.075000000000003,61.39999999999927],[17.075000000000003,61.424999999999265],[17.15,61.424999999999265],[17.15,61.49999999999927],[17.1,61.49999999999927],[17.1,61.52499999999927],[17.075000000000003,61.52499999999927],[17.075000000000003,61.59999999999927],[17.05,61.59999999999927],[17.05,61.62499999999927],[17.200000000000003,61.62499999999927],[17.200000000000003,61.699999999999264],[17.1,61.699999999999264],[17.1,61.72499999999927],[17.25,61.72499999999927],[17.25,61.699999999999264],[17.35,61.699999999999264],[17.35,61.799999999999265],[17.325000000000003,61.799999999999265],[17.325000000000003,61.924999999999265],[17.35,61.924999999999265],[17.35,61.949999999999264],[17.4,61.949999999999264],[17.4,61.99999999999927],[17.450000000000003,62.02499999999927],[17.450000000000003,62.074999999999264],[17.475,62.074999999999264],[17.5,62.174999999999265],[17.575000000000003,62.174999999999265],[17.575000000000003,62.24999999999927],[17.5,62.24999999999927],[17.5,62.27499999999927],[17.450000000000003,62.27499999999927],[17.450000000000003,62.324999999999264],[17.375,62.324999999999264],[17.375,62.299999999999265],[17.35,62.299999999999265],[17.35,62.37499999999927],[17.3,62.37499999999927],[17.3,62.39999999999927],[17.325000000000003,62.39999999999927],[17.325000000000003,62.47499999999927],[17.35,62.47499999999927],[17.35,62.49999999999927],[17.475,62.49999999999927],[17.475,62.52499999999927],[17.5,62.52499999999927],[17.5,62.47499999999927],[17.525,62.47499999999927],[17.525,62.449999999999264],[17.575000000000003,62.449999999999264],[17.575000000000003,62.424999999999265],[17.675,62.424999999999265],[17.675,62.47499999999927],[17.700000000000003,62.47499999999927],[17.700000000000003,62.49999999999927],[17.9,62.49999999999927],[17.9,62.549999999999265],[17.925,62.549999999999265],[17.925,62.64999999999927],[17.825000000000003,62.64999999999927],[17.825000000000003,62.674999999999265],[17.950000000000003,62.674999999999265],[17.950000000000003,62.77499999999927],[17.925,62.77499999999927],[17.925,62.799999999999265],[17.85,62.799999999999265],[17.85,62.84999999999927],[17.875,62.84999999999927],[17.875,62.824999999999264],[18.0,62.824999999999264],[18.0,62.84999999999927],[18.075000000000003,62.84999999999927],[18.075000000000003,62.824999999999264],[18.125,62.824999999999264],[18.125,62.77499999999927],[18.200000000000003,62.77499999999927],[18.200000000000003,62.87499999999927],[18.275,62.87499999999927],[18.275,62.89999999999927],[18.3,62.89999999999927],[18.3,62.84999999999927],[18.4,62.84999999999927],[18.4,62.87499999999927],[18.450000000000003,62.87499999999927],[18.450000000000003,62.949999999999264],[18.4,62.949999999999264],[18.4,62.99999999999927],[18.325000000000003,62.99999999999927],[18.325000000000003,62.97499999999927],[18.3,62.97499999999927],[18.275,63.02499999999927],[18.325000000000003,63.02499999999927],[18.325000000000003,63.049999999999265],[18.35,63.049999999999265],[18.35,63.02499999999927],[18.475,63.02499999999927],[18.475,63.049999999999265],[18.525,63.074999999999264],[18.525,63.14999999999927],[18.575000000000003,63.14999999999927],[18.575000000000003,63.174999999999265],[18.775,63.174999999999265],[18.775,63.199999999999264],[18.8,63.199999999999264],[18.8,63.24999999999927],[18.9,63.24999999999927],[18.9,63.27499999999927],[18.925,63.27499999999927],[18.950000000000003,63.22499999999927],[19.025,63.22499999999927],[19.025,63.27499999999927],[19.1,63.27499999999927],[19.1,63.299999999999265],[19.15,63.299999999999265],[19.15,63.324999999999264],[19.25,63.324999999999264],[19.25,63.449999999999264],[19.275,63.449999999999264],[19.275,63.47499999999927],[19.3,63.47499999999927],[19.3,63.449999999999264],[19.425,63.449999999999264],[19.425,63.52499999999927],[19.450000000000003,63.52499999999927],[19.450000000000003,63.574999999999264],[19.5,63.574999999999264],[19.525,63.52499999999927],[19.575000000000003,63.52499999999927],[19.575000000000003,63.47499999999927],[19.6,63.47499999999927],[19.6,63.449999999999264],[19.725,63.449999999999264],[19.725,63.52499999999927],[19.775,63.52499999999927],[19.775,63.549999999999265],[19.875,63.574999999999264],[19.9,63.62499999999927],[20.0,63.62499999999927],[20.0,63.674999999999265],[20.15,63.64999999999927],[20.15,63.674999999999265],[20.3,63.699999999999264],[20.3,63.74999999999927],[20.35,63.74999999999927],[20.35,63.72499999999927],[20.450000000000003,63.72499999999927],[20.475,63.824999999999264],[20.525,63.824999999999264],[20.525,63.799999999999265],[20.675,63.799999999999265],[20.675,63.87499999999927],[20.775,63.87499999999927],[20.775,63.89999999999927],[20.8,63.89999999999927],[20.825000000000003,63.949999999999264],[20.925,63.97499999999927],[20.925,64.04999999999927],[20.950000000000003,64.04999999999927],[20.950000000000003,64.12499999999926],[20.975,64.12499999999926],[20.975,64.14999999999927],[21.025,64.14999999999927],[21.05,64.19999999999926],[21.15,64.19999999999926],[21.15,64.22499999999927],[21.200000000000003,64.24999999999926],[21.200000000000003,64.27499999999927],[21.275,64.27499999999927],[21.275,64.29999999999927],[21.325000000000003,64.29999999999927],[21.325000000000003,64.32499999999926],[21.425,64.32499999999926],[21.425,64.34999999999927],[21.475,64.34999999999927],[21.475,64.37499999999926],[21.5,64.37499999999926],[21.5,64.44999999999926],[21.475,64.44999999999926],[21.475,64.54999999999927],[21.425,64.54999999999927],[21.4,64.59999999999927],[21.325000000000003,64.59999999999927],[21.325000000000003,64.57499999999926],[21.3,64.57499999999926],[21.3,64.59999999999927],[21.25,64.59999999999927],[21.25,64.64999999999927],[21.200000000000003,64.64999999999927],[21.200000000000003,64.67499999999927],[21.225,64.67499999999927],[21.225,64.74999999999926],[21.175,64.74999999999926],[21.175,64.77499999999927],[21.05,64.77499999999927],[21.05,64.79999999999927],[21.0,64.82499999999926],[21.025,64.87499999999926],[21.075000000000003,64.84999999999927],[21.075000000000003,64.82499999999926],[21.175,64.82499999999926],[21.175,64.87499999999926],[21.225,64.89999999999927],[21.225,64.94999999999926],[21.325000000000003,64.94999999999926],[21.325000000000003,64.97499999999927],[21.375,64.97499999999927],[21.4,65.02499999999927],[21.450000000000003,65.02499999999927],[21.450000000000003,65.07499999999926],[21.5,65.07499999999926],[21.5,65.09999999999927],[21.55,65.12499999999926],[21.55,65.19999999999926],[21.525,65.19999999999926],[21.525,65.22499999999927],[21.625,65.24999999999926],[21.625,65.32499999999926],[21.525,65.32499999999926],[21.525,65.34999999999927],[21.450000000000003,65.34999999999927],[21.450000000000003,65.37499999999926],[21.575000000000003,65.37499999999926],[21.575000000000003,65.39999999999927],[21.675,65.39999999999927],[21.675,65.42499999999927],[21.725,65.42499999999927],[21.725,65.39999999999927],[21.925,65.39999999999927],[21.925,65.44999999999926],[21.950000000000003,65.44999999999926],[21.950000000000003,65.49999999999926],[21.975,65.49999999999926],[21.975,65.52499999999927],[22.125,65.49999999999926],[22.125,65.57499999999926],[22.075000000000003,65.57499999999926],[22.075000000000003,65.59999999999927],[22.15,65.59999999999927],[22.15,65.57499999999926],[22.200000000000003,65.57499999999926],[22.200000000000003,65.54999999999927],[22.275,65.54999999999927],[22.275,65.57499999999926],[22.3,65.57499999999926],[22.3,65.77499999999927],[22.325000000000003,65.77499999999927],[22.325000000000003,65.79999999999927],[22.375,65.79999999999927],[22.375,65.87499999999926],[22.450000000000003,65.87499999999926],[22.450000000000003,65.84999999999927],[22.475,65.84999999999927],[22.5,65.79999999999927],[22.675,65.79999999999927],[22.675,65.89999999999927],[22.700000000000003,65.89999999999927],[22.700000000000003,65.87499999999926]],[[24.6,65.04999999999927],[24.6,64.97499999999927],[24.75,64.97499999999927],[24.75,64.94999999999926],[24.825000000000003,64.94999999999926],[24.825000000000003,65.07499999999926],[24.65,65.07499999999926],[24.65,65.04999999999927],[24.6,65.04999999999927]],[[21.225,63.199999999999264],[21.225,63.299999999999265],[21.15,63.299999999999265],[21.15,63.199999999999264],[21.225,63.199999999999264]],[[18.1,62.674999999999265],[18.1,62.74999999999927],[18.025,62.74999999999927],[18.025,62.674999999999265],[18.1,62.674999999999265]],[[17.5,61.62499999999927],[17.5,61.699999999999264],[17.425,61.699999999999264],[17.425,61.62499999999927],[17.5,61.62499999999927]],[[21.25,60.574999999999264],[21.25,60.549999999999265],[21.325000000000003,60.549999999999265],[21.325000000000003,60.52499999999927],[21.4,60.52499999999927],[21.4,60.59999999999927],[21.375,60.59999999999927],[21.375,60.62499999999927],[21.3,60.62499999999927],[21.3,60.64999999999927],[21.225,60.64999999999927],[21.225,60.574999999999264],[21.25,60.574999999999264]],[[18.475,60.37499999999927],[18.475,60.449999999999264],[18.450000000000003,60.449999999999264],[18.450000000000003,60.49999999999927],[18.375,60.49999999999927],[18.375,60.37499999999927],[18.475,60.37499999999927]],[[21.8,60.449999999999264],[21.8,60.37499999999927],[21.825000000000003,60.37499999999927],[21.825000000000003,60.34999999999927],[21.9,60.34999999999927],[21.9,60.324999999999264],[22.0,60.324999999999264],[22.0,60.39999999999927],[21.950000000000003,60.39999999999927],[21.950000000000003,60.449999999999264],[21.9,60.449999999999264],[21.9,60.47499999999927],[21.825000000000003,60.47499999999927],[21.825000000000003,60.449999999999264],[21.8,60.449999999999264]],[[19.8,60.39999999999927],[19.8,60.299999999999265],[19.85,60.299999999999265],[19.85,60.27499999999927],[19.9,60.27499999999927],[19.9,60.24999999999927],[19.775,60.24999999999927],[19.775,60.27499999999927],[19.700000000000003,60.27499999999927],[19.700000000000003,60.174999999999265],[19.725,60.174999999999265],[19.725,60.12499999999927],[19.75,60.12499999999927],[19.75,60.09999999999927],[19.950000000000003,60.09999999999927],[19.950000000000003,60.12499999999927],[20.0,60.12499999999927],[20.0,60.24999999999927],[20.025,60.24999999999927],[20.025,60.22499999999927],[20.075000000000003,60.22499999999927],[20.075000000000003,60.174999999999265],[20.200000000000003,60.174999999999265],[20.225,60.22499999999927],[20.25,60.22499999999927],[20.25,60.299999999999265],[20.200000000000003,60.299999999999265],[20.200000000000003,60.34999999999927],[20.025,60.34999999999927],[20.0,60.39999999999927],[19.925,60.39999999999927],[19.925,60.424999999999265],[19.85,60.424999999999265],[19.85,60.39999999999927],[19.8,60.39999999999927]],[[19.525,60.24999999999927],[19.525,60.14999999999927],[19.625,60.14999999999927],[19.625,60.174999999999265],[19.65,60.174999999999265],[19.65,60.27499999999927],[19.575000000000003,60.27499999999927],[19.575000000000003,60.24999999999927],[19.525,60.24999999999927]],[[21.4,60.174999999999265],[21.4,60.24999999999927],[21.3,60.24999999999927],[21.3,60.174999999999265],[21.4,60.174999999999265]],[[22.4,60.09999999999927],[22.4,60.02499999999927],[22.425,60.02499999999927],[22.425,59.99999999999927],[22.525,59.99999999999927],[22.525,60.02499999999927],[22.775,60.02499999999927],[22.775,60.074999999999264],[22.825000000000003,60.074999999999264],[22.825000000000003,60.22499999999927],[22.6,60.22499999999927],[22.6,60.199999999999264],[22.575000000000003,60.199999999999264],[22.575000000000003,60.22499999999927],[22.5,60.22499999999927],[22.5,60.09999999999927],[22.4,60.09999999999927]],[[21.675,60.09999999999927],[21.675,60.199999999999264],[21.6,60.199999999999264],[21.6,60.09999999999927],[21.675,60.09999999999927]],[[21.8,60.12499999999927],[21.8,60.199999999999264],[21.725,60.199999999999264],[21.725,60.12499999999927],[21.8,60.12499999999927]],[[20.1,60.02499999999927],[20.1,59.99999999999927],[20.175,59.99999999999927],[20.175,60.09999999999927],[20.075000000000003,60.09999999999927],[20.075000000000003,60.02499999999927],[20.1,60.02499999999927]],[[18.6,59.424999999999265],[18.6,59.49999999999927],[18.525,59.49999999999927],[18.525,59.424999999999265],[18.6,59.424999999999265]],[[18.450000000000003,59.299999999999265],[18.450000000000003,59.34999999999927],[18.375,59.34999999999927],[18.375,59.27499999999927],[18.450000000000003,59.27499999999927],[18.450000000000003,59.22499999999927],[18.575000000000003,59.22499999999927],[18.575000000000003,59.24999999999927],[18.675,59.24999999999927],[18.675,59.27499999999927],[18.700000000000003,59.27499999999927],[18.700000000000003,59.34999999999927],[18.575000000000003,59.34999999999927],[18.575000000000003,59.37499999999927],[18.5,59.37499999999927],[18.5,59.299999999999265],[18.450000000000003,59.299999999999265]],[[22.475,58.99999999999927],[22.450000000000003,58.949999999999264],[22.425,58.949999999999264],[22.425,58.87499999999927],[22.450000000000003,58.87499999999927],[22.450000000000003,58.77499999999927],[22.5,58.74999999999927],[22.5,58.699999999999264],[22.55,58.699999999999264],[22.55,58.674999999999265],[22.625,58.674999999999265],[22.625,58.699999999999264],[22.675,58.699999999999264],[22.675,58.72499999999927],[22.725,58.74999999999927],[22.725,58.799999999999265],[22.75,58.799999999999265],[22.75,58.824999999999264],[22.8,58.824999999999264],[22.8,58.77499999999927],[22.875,58.77499999999927],[22.875,58.824999999999264],[22.950000000000003,58.824999999999264],[22.950000000000003,58.84999999999927],[22.975,58.84999999999927],[22.975,58.924999999999265],[22.950000000000003,58.924999999999265],[22.950000000000003,58.97499999999927],[22.875,58.97499999999927],[22.875,58.99999999999927],[22.700000000000003,58.99999999999927],[22.700000000000003,59.074999999999264],[22.575000000000003,59.074999999999264],[22.575000000000003,59.02499999999927],[22.475,58.99999999999927]],[[22.325000000000003,58.87499999999927],[22.325000000000003,58.949999999999264],[22.25,58.949999999999264],[22.25,58.87499999999927],[22.325000000000003,58.87499999999927]],[[23.175,58.574999999999264],[23.175,58.549999999999265],[23.225,58.549999999999265],[23.225,58.52499999999927],[23.375,58.549999999999265],[23.375,58.64999999999927],[23.225,58.64999999999927],[23.225,58.674999999999265],[23.15,58.674999999999265],[23.15,58.574999999999264],[23.175,58.574999999999264]],[[22.425,58.574999999999264],[22.425,58.549999999999265],[22.3,58.549999999999265],[22.3,58.47499999999927],[22.25,58.47499999999927],[22.25,58.49999999999927],[22.15,58.49999999999927],[22.15,58.47499999999927],[22.1,58.47499999999927],[22.1,58.39999999999927],[22.075000000000003,58.39999999999927],[22.075000000000003,58.424999999999265],[22.025,58.424999999999265],[22.025,58.49999999999927],[21.925,58.49999999999927],[21.925,58.424999999999265],[21.950000000000003,58.424999999999265],[21.950000000000003,58.39999999999927],[22.0,58.39999999999927],[22.0,58.324999999999264],[21.950000000000003,58.324999999999264],[21.950000000000003,58.24999999999927],[22.025,58.24999999999927],[22.025,58.22499999999927],[22.05,58.22499999999927],[22.05,58.174999999999265],[22.275,58.174999999999265],[22.3,58.22499999999927],[22.450000000000003,58.22499999999927],[22.450000000000003,58.24999999999927],[22.55,58.24999999999927],[22.55,58.22499999999927],[22.625,58.22499999999927],[22.625,58.24999999999927],[22.700000000000003,58.24999999999927],[22.700000000000003,58.27499999999927],[22.825000000000003,58.27499999999927],[22.825000000000003,58.299999999999265],[22.875,58.299999999999265],[22.875,58.324999999999264],[22.950000000000003,58.324999999999264],[22.975,58.37499999999927],[23.05,58.37499999999927],[23.05,58.424999999999265],[23.15,58.424999999999265],[23.15,58.549999999999265],[23.05,58.549999999999265],[23.025,58.59999999999927],[22.775,58.59999999999927],[22.775,58.574999999999264],[22.625,58.574999999999264],[22.625,58.59999999999927],[22.5,58.59999999999927],[22.5,58.574999999999264],[22.425,58.574999999999264]],[[11.6,58.24999999999927],[11.575,58.199999999999264],[11.5,58.199999999999264],[11.5,58.174999999999265],[11.475,58.174999999999265],[11.475,58.074999999999264],[11.575,58.074999999999264],[11.575,58.12499999999927],[11.825,58.12499999999927],[11.825,58.24999999999927],[11.775,58.24999999999927],[11.775,58.27499999999927],[11.675,58.27499999999927],[11.675,58.24999999999927],[11.6,58.24999999999927]],[[11.575,58.049999999999265],[11.575,57.949999999999264],[11.65,57.949999999999264],[11.65,57.97499999999927],[11.7,57.97499999999927],[11.7,58.09999999999927],[11.625,58.09999999999927],[11.625,58.049999999999265],[11.575,58.049999999999265]],[[22.05,58.049999999999265],[22.05,57.99999999999927],[22.025,57.99999999999927],[22.025,57.924999999999265],[22.125,57.924999999999265],[22.15,57.97499999999927],[22.200000000000003,57.97499999999927],[22.200000000000003,58.049999999999265],[22.15,58.049999999999265],[22.15,58.074999999999264],[22.075000000000003,58.074999999999264],[22.075000000000003,58.049999999999265],[22.05,58.049999999999265]],[[19.15,57.87499999999927],[19.15,57.949999999999264],[19.075000000000003,57.949999999999264],[19.075000000000003,57.87499999999927],[19.15,57.87499999999927]],[[18.6,57.87499999999927],[18.6,57.84999999999927],[18.55,57.84999999999927],[18.55,57.824999999999264],[18.475,57.824999999999264],[18.450000000000003,57.77499999999927],[18.425,57.77499999999927],[18.425,57.74999999999927],[18.375,57.74999999999927],[18.375,57.699999999999264],[18.35,57.699999999999264],[18.325000000000003,57.64999999999927],[18.275,57.64999999999927],[18.275,57.59999999999927],[18.200000000000003,57.59999999999927],[18.175,57.549999999999265],[18.125,57.549999999999265],[18.125,57.424999999999265],[18.175,57.424999999999265],[18.175,57.39999999999927],[18.200000000000003,57.39999999999927],[18.200000000000003,57.37499999999927],[18.175,57.37499999999927],[18.175,57.299999999999265],[18.125,57.299999999999265],[18.125,57.199999999999264],[18.175,57.199999999999264],[18.175,57.14999999999927],[18.200000000000003,57.14999999999927],[18.225,57.09999999999927],[18.4,57.09999999999927],[18.4,57.12499999999927],[18.425,57.12499999999927],[18.450000000000003,57.174999999999265],[18.55,57.174999999999265],[18.55,57.22499999999927],[18.675,57.22499999999927],[18.675,57.324999999999264],[18.725,57.324999999999264],[18.75,57.37499999999927],[18.8,57.37499999999927],[18.8,57.449999999999264],[18.775,57.449999999999264],[18.775,57.49999999999927],[18.75,57.49999999999927],[18.75,57.52499999999927],[18.8,57.52499999999927],[18.8,57.59999999999927],[18.775,57.59999999999927],[18.775,57.64999999999927],[18.8,57.64999999999927],[18.8,57.74999999999927],[18.825000000000003,57.74999999999927],[18.825000000000003,57.72499999999927],[18.950000000000003,57.72499999999927],[18.950000000000003,57.77499999999927],[19.0,57.77499999999927],[19.0,57.824999999999264],[19.025,57.824999999999264],[19.025,57.89999999999927],[18.825000000000003,57.89999999999927],[18.825000000000003,57.84999999999927],[18.8,57.84999999999927],[18.8,57.824999999999264],[18.775,57.824999999999264],[18.775,57.89999999999927],[18.625,57.89999999999927],[18.625,57.87499999999927],[18.6,57.87499999999927]],[[11.025,57.22499999999927],[11.025,57.299999999999265],[10.95,57.299999999999265],[10.95,57.22499999999927],[11.025,57.22499999999927]],[[16.925,57.199999999999264],[16.925,57.12499999999927],[16.875,57.12499999999927],[16.875,57.09999999999927],[16.85,57.09999999999927],[16.825,56.99999999999927],[16.775,56.99999999999927],[16.775,56.949999999999264],[16.725,56.924999999999265],[16.725,56.87499999999927],[16.625,56.87499999999927],[16.6,56.824999999999264],[16.55,56.799999999999265],[16.55,56.74999999999927],[16.525,56.74999999999927],[16.5,56.699999999999264],[16.475,56.699999999999264],[16.475,56.62499999999927],[16.425,56.59999999999927],[16.425,56.549999999999265],[16.375,56.549999999999265],[16.375,56.424999999999265],[16.425,56.424999999999265],[16.425,56.24999999999927],[16.5,56.24999999999927],[16.5,56.299999999999265],[16.55,56.324999999999264],[16.55,56.37499999999927],[16.575,56.37499999999927],[16.575,56.449999999999264],[16.6,56.449999999999264],[16.6,56.49999999999927],[16.65,56.49999999999927],[16.65,56.574999999999264],[16.7,56.574999999999264],[16.7,56.62499999999927],[16.725,56.62499999999927],[16.725,56.674999999999265],[16.75,56.674999999999265],[16.75,56.74999999999927],[16.775,56.74999999999927],[16.775,56.799999999999265],[16.8,56.799999999999265],[16.8,56.824999999999264],[16.85,56.824999999999264],[16.85,56.89999999999927],[16.9,56.89999999999927],[16.9,56.97499999999927],[16.925,56.97499999999927],[16.95,57.074999999999264],[17.0,57.074999999999264],[17.025,57.174999999999265],[17.05,57.174999999999265],[17.05,57.299999999999265],[16.975,57.299999999999265],[16.975,57.22499999999927],[16.925,57.199999999999264]],[[18.200000000000003,56.99999999999927],[18.200000000000003,56.924999999999265],[18.3,56.924999999999265],[18.3,56.949999999999264],[18.325000000000003,56.949999999999264],[18.325000000000003,57.02499999999927],[18.225,57.02499999999927],[18.225,56.99999999999927],[18.200000000000003,56.99999999999927]],[[12.1,56.074999999999264],[12.1,56.049999999999265],[12.025,56.049999999999265],[12.025,56.02499999999927],[12.0,56.02499999999927],[12.0,55.949999999999264],[12.05,55.924999999999265],[12.05,55.799999999999265],[12.075,55.799999999999265],[12.075,55.77499999999927],[12.025,55.77499999999927],[12.025,55.74999999999927],[12.0,55.74999999999927],[12.0,55.799999999999265],[11.875,55.799999999999265],[11.85,55.699999999999264],[11.8,55.699999999999264],[11.8,55.674999999999265],[11.725,55.674999999999265],[11.725,55.699999999999264],[11.675,55.699999999999264],[11.675,55.77499999999927],[11.65,55.77499999999927],[11.65,55.824999999999264],[11.675,55.824999999999264],[11.675,55.924999999999265],[11.6,55.924999999999265],[11.6,55.949999999999264],[11.525,55.949999999999264],[11.525,55.84999999999927],[11.425,55.84999999999927],[11.425,55.824999999999264],[11.375,55.824999999999264],[11.375,55.77499999999927],[11.25,55.77499999999927],[11.25,55.72499999999927],[11.2,55.72499999999927],[11.2,55.74999999999927],[11.1,55.74999999999927],[11.1,55.62499999999927],[11.125,55.62499999999927],[11.125,55.574999999999264],[11.175,55.574999999999264],[11.175,55.47499999999927],[11.2,55.47499999999927],[11.2,55.39999999999927],[11.225,55.39999999999927],[11.225,55.37499999999927],[11.175,55.37499999999927],[11.175,55.299999999999265],[11.225,55.299999999999265],[11.225,55.27499999999927],[11.25,55.27499999999927],[11.25,55.22499999999927],[11.325,55.22499999999927],[11.325,55.199999999999264],[11.425,55.199999999999264],[11.425,55.22499999999927],[11.475,55.22499999999927],[11.475,55.199999999999264],[11.55,55.199999999999264],[11.55,55.174999999999265],[11.725,55.174999999999265],[11.725,55.14999999999927],[11.8,55.14999999999927],[11.8,55.074999999999264],[11.825,55.074999999999264],[11.825,55.02499999999927],[11.85,55.02499999999927],[11.85,54.99999999999927],[11.95,54.99999999999927],[11.95,54.97499999999927],[12.1,54.97499999999927],[12.1,55.09999999999927],[12.025,55.09999999999927],[12.025,55.174999999999265],[12.15,55.174999999999265],[12.15,55.22499999999927],[12.35,55.22499999999927],[12.35,55.24999999999927],[12.425,55.24999999999927],[12.425,55.27499999999927],[12.45,55.27499999999927],[12.45,55.34999999999927],[12.35,55.37499999999927],[12.35,55.39999999999927],[12.225,55.39999999999927],[12.225,55.424999999999265],[12.2,55.424999999999265],[12.2,55.52499999999927],[12.25,55.52499999999927],[12.275,55.574999999999264],[12.35,55.574999999999264],[12.35,55.59999999999927],[12.4,55.59999999999927],[12.4,55.62499999999927],[12.45,55.62499999999927],[12.45,55.59999999999927],[12.525,55.59999999999927],[12.525,55.574999999999264],[12.675,55.574999999999264],[12.675,55.64999999999927],[12.65,55.64999999999927],[12.65,55.699999999999264],[12.575,55.699999999999264],[12.575,55.84999999999927],[12.525,55.87499999999927],[12.55,56.074999999999264],[12.5,56.074999999999264],[12.5,56.09999999999927],[12.125,56.09999999999927],[12.125,56.074999999999264],[12.1,56.074999999999264]],[[10.525,55.84999999999927],[10.525,55.77499999999927],[10.65,55.77499999999927],[10.65,55.87499999999927],[10.575,55.87499999999927],[10.575,55.84999999999927],[10.525,55.84999999999927]],[[10.175,55.574999999999264],[10.175,55.549999999999265],[10.0,55.549999999999265],[9.975,55.49999999999927],[9.85,55.49999999999927],[9.85,55.52499999999927],[9.775,55.52499999999927],[9.775,55.49999999999927],[9.75,55.49999999999927],[9.75,55.424999999999265],[9.8,55.424999999999265],[9.8,55.39999999999927],[9.825,55.39999999999927],[9.825,55.34999999999927],[9.875,55.34999999999927],[9.875,55.22499999999927],[9.975,55.22499999999927],[9.975,55.199999999999264],[10.025,55.199999999999264],[10.025,55.174999999999265],[10.125,55.174999999999265],[10.125,55.14999999999927],[10.175,55.14999999999927],[10.175,55.09999999999927],[10.25,55.09999999999927],[10.25,55.074999999999264],[10.375,55.074999999999264],[10.375,55.049999999999265],[10.425,55.049999999999265],[10.425,55.02499999999927],[10.575,55.02499999999927],[10.6,55.074999999999264],[10.625,55.074999999999264],[10.625,55.049999999999265],[10.7,55.049999999999265],[10.7,55.074999999999264],[10.75,55.074999999999264],[10.75,55.09999999999927],[10.775,55.09999999999927],[10.8,55.24999999999927],[10.775,55.24999999999927],[10.775,55.37499999999927],[10.675,55.424999999999265],[10.675,55.47499999999927],[10.7,55.47499999999927],[10.7,55.549999999999265],[10.625,55.549999999999265],[10.625,55.47499999999927],[10.525,55.47499999999927],[10.525,55.449999999999264],[10.475,55.449999999999264],[10.475,55.549999999999265],[10.425,55.574999999999264],[10.425,55.59999999999927],[10.3,55.59999999999927],[10.3,55.574999999999264],[10.275,55.574999999999264],[10.275,55.59999999999927],[10.2,55.59999999999927],[10.2,55.574999999999264],[10.175,55.574999999999264]],[[14.7,55.199999999999264],[14.7,55.074999999999264],[14.75,55.074999999999264],[14.75,55.049999999999265],[14.825,55.049999999999265],[14.825,55.02499999999927],[14.95,55.02499999999927],[14.95,54.99999999999927],[15.100000000000001,54.99999999999927],[15.100000000000001,55.049999999999265],[15.15,55.049999999999265],[15.15,55.14999999999927],[15.025,55.14999999999927],[15.0,55.199999999999264],[14.9,55.199999999999264],[14.9,55.22499999999927],[14.850000000000001,55.22499999999927],[14.850000000000001,55.24999999999927],[14.725000000000001,55.24999999999927],[14.725000000000001,55.199999999999264],[14.7,55.199999999999264]],[[10.925,55.02499999999927],[10.925,55.09999999999927],[10.85,55.09999999999927],[10.85,55.02499999999927],[10.925,55.02499999999927]],[[9.95,54.89999999999927],[9.95,54.87499999999927],[10.025,54.87499999999927],[10.025,54.949999999999264],[10.0,54.949999999999264],[10.0,54.99999999999927],[9.9,54.99999999999927],[9.9,55.02499999999927],[9.825,55.02499999999927],[9.825,54.89999999999927],[9.95,54.89999999999927]],[[10.675,54.87499999999927],[10.675,54.74999999999927],[10.75,54.74999999999927],[10.775,54.84999999999927],[10.8,54.84999999999927],[10.8,54.949999999999264],[10.725,54.949999999999264],[10.725,54.87499999999927],[10.675,54.87499999999927]],[[11.05,54.924999999999265],[11.05,54.84999999999927],[11.1,54.824999999999264],[11.1,54.799999999999265],[11.075,54.799999999999265],[11.075,54.72499999999927],[11.225,54.72499999999927],[11.225,54.699999999999264],[11.275,54.699999999999264],[11.275,54.674999999999265],[11.375,54.64999999999927],[11.375,54.62499999999927],[11.55,54.62499999999927],[11.55,54.674999999999265],[11.7,54.674999999999265],[11.7,54.64999999999927],[11.8,54.64999999999927],[11.8,54.799999999999265],[11.75,54.824999999999264],[11.725,54.87499999999927],[11.625,54.87499999999927],[11.625,54.84999999999927],[11.55,54.84999999999927],[11.55,54.824999999999264],[11.475,54.824999999999264],[11.475,54.84999999999927],[11.425,54.84999999999927],[11.425,54.87499999999927],[11.35,54.87499999999927],[11.35,54.89999999999927],[11.3,54.89999999999927],[11.3,54.949999999999264],[11.1,54.949999999999264],[11.1,54.924999999999265],[11.05,54.924999999999265]],[[11.8,54.84999999999927],[11.8,54.824999999999264],[11.85,54.799999999999265],[11.85,54.77499999999927],[11.875,54.77499999999927],[11.875,54.72499999999927],[11.925,54.72499999999927],[11.925,54.699999999999264],[11.875,54.699999999999264],[11.875,54.62499999999927],[11.975,54.62499999999927],[11.975,54.699999999999264],[12.0,54.699999999999264],[12.0,54.72499999999927],[12.05,54.74999999999927],[12.075,54.799999999999265],[12.1,54.799999999999265],[12.1,54.87499999999927],[12.075,54.87499999999927],[12.075,54.89999999999927],[11.9,54.89999999999927],[11.9,54.924999999999265],[11.85,54.924999999999265],[11.85,54.949999999999264],[11.75,54.949999999999264],[11.75,54.87499999999927],[11.8,54.84999999999927]],[[12.225,54.87499999999927],[12.225,54.949999999999264],[12.125,54.949999999999264],[12.125,54.87499999999927],[12.225,54.87499999999927]],[[13.4,54.59999999999927],[13.4,54.674999999999265],[13.325,54.674999999999265],[13.325,54.59999999999927],[13.4,54.59999999999927]],[[13.5,54.549999999999265],[13.5,54.47499999999927],[13.425,54.47499999999927],[13.425,54.52499999999927],[13.3,54.52499999999927],[13.3,54.49999999999927],[13.25,54.49999999999927],[13.25,54.34999999999927],[13.175,54.34999999999927],[13.175,54.27499999999927],[13.425,54.27499999999927],[13.45,54.324999999999264],[13.5,54.324999999999264],[13.5,54.34999999999927],[13.575,54.34999999999927],[13.575,54.47499999999927],[13.600000000000001,54.47499999999927],[13.600000000000001,54.49999999999927],[13.65,54.49999999999927],[13.65,54.574999999999264],[13.525,54.574999999999264],[13.525,54.549999999999265],[13.5,54.549999999999265]],[[11.075,54.449999999999264],[11.075,54.424999999999265],[11.25,54.424999999999265],[11.25,54.49999999999927],[11.05,54.52499999999927],[11.05,54.449999999999264],[11.075,54.449999999999264]],[[12.6,54.37499999999927],[12.6,54.449999999999264],[12.475,54.449999999999264],[12.475,54.37499999999927],[12.6,54.37499999999927]],[[14.55,53.97499999999927],[14.55,53.949999999999264],[14.475000000000001,53.949999999999264],[14.475000000000001,53.87499999999927],[14.65,53.87499999999927],[14.65,53.924999999999265],[14.675,53.924999999999265],[14.675,53.99999999999927],[14.600000000000001,53.99999999999927],[14.600000000000001,53.97499999999927],[14.55,53.97499999999927]],[[13.975000000000001,53.949999999999264],[13.975000000000001,53.87499999999927],[14.2,53.87499999999927],[14.2,53.949999999999264],[14.15,53.949999999999264],[14.15,53.97499999999927],[14.05,53.97499999999927],[14.05,53.949999999999264],[13.975000000000001,53.949999999999264]],[[14.425,53.824999999999264],[14.425,53.89999999999927],[14.25,53.89999999999927],[14.25,53.824999999999264],[14.425,53.824999999999264]]]]}},{"type":"Feature","properties":{"threshold_kt":0.5,"kind":"mask","atlas":"CMEMS_BAL","resolution_m":1852,"method":"max speed over 15 days hourly, all constituents","area_deg2":0.08},"geometry":{"type":"MultiPolygon","coordinates":[[[[9.45,53.72499999999927],[9.5,53.72499999999927],[9.5,53.699999999999264],[9.425,53.699999999999264],[9.4,53.74999999999927],[9.35,53.74999999999927],[9.35,53.799999999999265],[9.425,53.799999999999265],[9.425,53.74999999999927],[9.45,53.74999999999927],[9.45,53.72499999999927]]],[[[9.3,53.84999999999927],[9.0,53.84999999999927],[9.0,53.87499999999927],[9.05,53.87499999999927],[9.05,53.89999999999927],[9.075,53.89999999999927],[9.075,53.87499999999927],[9.325,53.87499999999927],[9.325,53.84999999999927],[9.35,53.84999999999927],[9.35,53.799999999999265],[9.325,53.799999999999265],[9.325,53.824999999999264],[9.3,53.824999999999264],[9.3,53.84999999999927]]],[[[10.975,54.84999999999927],[10.95,54.84999999999927],[10.95,54.74999999999927],[10.825,54.74999999999927],[10.825,54.77499999999927],[10.8,54.77499999999927],[10.8,54.84999999999927],[10.85,54.87499999999927],[10.85,54.924999999999265],[10.9,54.924999999999265],[10.9,54.949999999999264],[10.925,54.949999999999264],[10.925,54.97499999999927],[11.025,54.97499999999927],[11.025,54.89999999999927],[11.0,54.89999999999927],[10.975,54.84999999999927]]],[[[11.2,56.09999999999927],[11.225,56.09999999999927],[11.225,56.074999999999264],[11.3,56.074999999999264],[11.3,55.99999999999927],[11.2,55.99999999999927],[11.2,56.09999999999927]]],[[[10.65,57.199999999999264],[10.575,57.199999999999264],[10.575,57.24999999999927],[10.6,57.24999999999927],[10.6,57.27499999999927],[10.65,57.27499999999927],[10.65,57.324999999999264],[10.75,57.324999999999264],[10.75,57.27499999999927],[10.775,57.27499999999927],[10.775,57.14999999999927],[10.675,57.14999999999927],[10.65,57.199999999999264]]]]}},{"type":"Feature","properties":{"threshold_kt":1.0,"kind":"mask","atlas":"CMEMS_BAL","resolution_m":1852,"method":"max speed over 15 days hourly, all constituents","area_deg2":0.0},"geometry":{"type":"MultiPolygon","coordinates":[]}},{"type":"Feature","properties":{"threshold_kt":1.5,"kind":"mask","atlas":"CMEMS_BAL","resolution_m":1852,"method":"max speed over 15 days hourly, all constituents","area_deg2":0.0},"geometry":{"type":"MultiPolygon","coordinates":[]}},{"type":"Feature","properties":{"threshold_kt":2.0,"kind":"mask","atlas":"CMEMS_BAL","resolution_m":1852,"method":"max speed over 15 days hourly, all constituents","area_deg2":0.0},"geometry":{"type":"MultiPolygon","coordinates":[]}},{"type":"Feature","properties":{"threshold_kt":3.0,"kind":"mask","atlas":"CMEMS_BAL","resolution_m":1852,"method":"max speed over 15 days hourly, all constituents","area_deg2":0.0},"geometry":{"type":"MultiPolygon","coordinates":[]}},{"type":"Feature","properties":{"threshold_kt":5.0,"kind":"mask","atlas":"CMEMS_BAL","resolution_m":1852,"method":"max speed over 15 days hourly, all constituents","area_deg2":0.0},"geometry":{"type":"MultiPolygon","coordinates":[]}}]}