{
 "type": "FeatureCollection",
 "name": "tidal_world_objective",
 "description": "Zone objectif de couverture pour OhMyWind : là où l'application doit répondre avec une source de courants à 1 km ou mieux partout où le courant tidal dépasse 1,5 kt. Boîtes indicatives, à faire évoluer à la main.",
 "features": [
  {
   "type": "Feature",
   "properties": {
    "name": "Atlantique Nord-Est, Manche, mer du Nord, Islande",
    "priority": 1
   },
   "geometry": {
    "type": "Polygon",
    "coordinates": [
     [
      [
       -25.0,
       35.5
      ],
      [
       15.0,
       35.5
      ],
      [
       15.0,
       67.0
      ],
      [
       -25.0,
       67.0
      ],
      [
       -25.0,
       35.5
      ]
     ]
    ]
   }
  },
  {
   "type": "Feature",
   "properties": {
    "name": "Baltique, Kattegat, Skagerrak",
    "priority": 2
   },
   "geometry": {
    "type": "Polygon",
    "coordinates": [
     [
      [
       9.0,
       53.0
      ],
      [
       31.0,
       53.0
      ],
      [
       31.0,
       66.5
      ],
      [
       9.0,
       66.5
      ],
      [
       9.0,
       53.0
      ]
     ]
    ]
   }
  },
  {
   "type": "Feature",
   "properties": {
    "name": "Méditerranée et mer Noire (courants de marée faibles, détroits exceptés)",
    "priority": 3
   },
   "geometry": {
    "type": "Polygon",
    "coordinates": [
     [
      [
       -6.5,
       30.0
      ],
      [
       42.0,
       30.0
      ],
      [
       42.0,
       47.5
      ],
      [
       -6.5,
       47.5
      ],
      [
       -6.5,
       30.0
      ]
     ]
    ]
   }
  },
  {
   "type": "Feature",
   "properties": {
    "name": "Norvège jusqu'aux Lofoten",
    "priority": 2
   },
   "geometry": {
    "type": "Polygon",
    "coordinates": [
     [
      [
       3.0,
       57.0
      ],
      [
       20.0,
       57.0
      ],
      [
       20.0,
       71.5
      ],
      [
       3.0,
       71.5
      ],
      [
       3.0,
       57.0
      ]
     ]
    ]
   }
  }
 ]
}