{
 "type": "FeatureCollection",
 "name": "tidal_world_sources",
 "description": "Registre de référence des sources de courants de marée évaluées pour OhMyWind. status : current (dans la cascade), ok (licence compatible AGPL + sponsoring, dérivés redistribuables), clarify (à trancher), blocked (clause non commerciale, redistribution interdite ou payant), no_currents (hauteurs seulement). Dates de lecture des licences dans licence_read_at.",
 "features": [
  {
   "type": "Feature",
   "properties": {
    "id": "bsh_german_bight",
    "name": "BSH Strömungsvorhersagen, baie allemande 0,5 nm",
    "provider": "BSH (DE)",
    "zone": "Baie allemande, Frise",
    "status": "current",
    "kind": "forecast_grid",
    "resolution_m": 926,
    "access": "keyless FTP",
    "licence": "CC BY 4.0",
    "licence_url": "ftp://ftp.bsh.de/Stroemungsvorhersagen/LICENSE.txt",
    "licence_read_at": "2026-09-19",
    "derivative_redistribution": "yes",
    "effort": "S",
    "roadmap_step": 1,
    "vertical": "surface_0_5m_mean",
    "step_min": 15,
    "constituents": "à analyser (séries) ; spike : M2, K1, M4, M6 résolus, reste inféré",
    "archive": "3 jours sur le FTP, archivage quotidien requis",
    "notes": "Spike de cette PR. Surface 0-5 m, marée + météo. Zones db, idb, nfi, ofi. Publié dans le dataset et servi depuis le 2026-09-20.",
    "atlases": [
     "BSH_DB",
     "BSH_IDB"
    ],
    "acquisition": "FTP public du BSH sans clé : fichiers NetCDF de prévision horaire à 3 jours, téléchargés puis analysés en constantes harmoniques (scripts/build_bsh_atlas.py).",
    "update_plan": "Archivage quotidien des prévisions (workflow prêt, pas encore activé) jusqu'à 29 jours puis un an, puis reconstruction annuelle de l'atlas."
   },
   "geometry": {
    "type": "Polygon",
    "coordinates": [
     [
      [
       6.0,
       53.0
      ],
      [
       9.5,
       53.0
      ],
      [
       9.5,
       58.0
      ],
      [
       6.0,
       58.0
      ],
      [
       6.0,
       53.0
      ]
     ]
    ]
   }
  },
  {
   "type": "Feature",
   "properties": {
    "id": "bsh_elbe",
    "name": "BSH Strömungsvorhersagen, Elbe 90 m",
    "provider": "BSH (DE)",
    "zone": "Elbe, Cuxhaven à Hambourg",
    "status": "current",
    "kind": "forecast_grid",
    "resolution_m": 90,
    "access": "keyless FTP",
    "licence": "CC BY 4.0",
    "licence_url": "ftp://ftp.bsh.de/Stroemungsvorhersagen/LICENSE.txt",
    "licence_read_at": "2026-09-19",
    "derivative_redistribution": "yes",
    "effort": "S",
    "roadmap_step": 1,
    "vertical": "surface_0_5m_mean",
    "step_min": 15,
    "archive": "3 jours sur le FTP",
    "notes": "Quatre tronçons AusAlt, CuxBru, BruPag, PagHam. Spike de cette PR. Publié dans le dataset et servi depuis le 2026-09-20.",
    "atlases": [
     "BSH_AUSALT",
     "BSH_CUXBRU"
    ],
    "acquisition": "Même FTP du BSH, grille Elbe à 90 m, même chaîne d'analyse (scripts/build_bsh_atlas.py).",
    "update_plan": "Même archivage quotidien que la baie allemande, puis reconstruction annuelle."
   },
   "geometry": {
    "type": "Polygon",
    "coordinates": [
     [
      [
       8.0,
       53.75
      ],
      [
       10.05,
       53.75
      ],
      [
       10.05,
       54.05
      ],
      [
       8.0,
       54.05
      ],
      [
       8.0,
       53.75
      ]
     ]
    ]
   }
  },
  {
   "type": "Feature",
   "properties": {
    "id": "bsh_north_sea_3nm",
    "name": "BSH Strömungsvorhersagen, mer du Nord 3 nm",
    "provider": "BSH (DE)",
    "zone": "Mer du Nord + Manche jusqu'à Start Point",
    "status": "ok",
    "kind": "forecast_grid",
    "resolution_m": 5556,
    "access": "keyless FTP",
    "licence": "CC BY 4.0",
    "licence_url": "ftp://ftp.bsh.de/Stroemungsvorhersagen/LICENSE.txt",
    "licence_read_at": "2026-09-19",
    "derivative_redistribution": "yes",
    "effort": "S",
    "roadmap_step": 3,
    "vertical": "surface_0_5m_mean",
    "notes": "Trop grossier pour les passes ; utile en bouche-trou mer du Nord centrale, mieux que SMOC 8 km.",
    "acquisition": "Même FTP du BSH, grille à 3 nm.",
    "update_plan": "Non intégré : plus grossier que Copernicus NWS, qui couvre déjà la zone."
   },
   "geometry": {
    "type": "Polygon",
    "coordinates": [
     [
      [
       -4.0,
       49.0
      ],
      [
       12.5,
       49.0
      ],
      [
       12.5,
       61.5
      ],
      [
       -4.0,
       61.5
      ],
      [
       -4.0,
       49.0
      ]
     ]
    ]
   }
  },
  {
   "type": "Feature",
   "properties": {
    "id": "bsh_baltic",
    "name": "BSH Strömungsvorhersagen, Baltique 3 nm + zones 0,5 nm",
    "provider": "BSH (DE)",
    "zone": "Baltique, Belts, Sund",
    "status": "ok",
    "kind": "forecast_grid",
    "resolution_m": 926,
    "access": "keyless FTP",
    "licence": "CC BY 4.0",
    "licence_url": "ftp://ftp.bsh.de/Stroemungsvorhersagen/LICENSE.txt",
    "licence_read_at": "2026-09-19",
    "derivative_redistribution": "yes",
    "effort": "S",
    "roadmap_step": 4,
    "notes": "Marée quasi nulle en Baltique : les courants sont météo, un atlas harmonique n'a pas de sens ici sauf Belts/Sund.",
    "acquisition": "Même FTP du BSH.",
    "update_plan": "Non intégré : la marée est négligeable en Baltique."
   },
   "geometry": {
    "type": "Polygon",
    "coordinates": [
     [
      [
       9.0,
       53.5
      ],
      [
       30.5,
       53.5
      ],
      [
       30.5,
       66.0
      ],
      [
       9.0,
       66.0
      ],
      [
       9.0,
       53.5
      ]
     ]
    ]
   }
  },
  {
   "type": "Feature",
   "properties": {
    "id": "cmems_nws",
    "name": "Copernicus Marine NWS (NWSHELF_ANALYSISFORECAST_PHY_004_013)",
    "provider": "Mercator Ocean / Met Office",
    "zone": "Plateau NO européen",
    "status": "current",
    "kind": "forecast_grid",
    "resolution_m": 1500,
    "access": "compte gratuit (toolbox copernicusmarine)",
    "licence": "Licence Copernicus Marine (usage commercial et dérivés autorisés, attribution)",
    "licence_url": "https://marine.copernicus.eu/user-corner/service-commitments-and-licence",
    "licence_read_at": "2026-09-19",
    "derivative_redistribution": "yes",
    "effort": "M",
    "roadmap_step": 2,
    "vertical": "surface + 3D (33 niveaux)",
    "step_min": 15,
    "constituents": "à analyser ; produit 'detided' fourni aussi",
    "archive": "analyses depuis 2019 (best estimate), 7 jours de prévision",
    "attribution": "Generated using E.U. Copernicus Marine Service Information; DOI 10.48670/moi-00054",
    "notes": "Meilleure couverture UK / Irlande / mer du Nord / Manche en une source. Marée incluse. Pas d'identifiant local : non testé ici. Publié dans le dataset et servi depuis le 2026-09-20.",
    "atlases": [
     "CMEMS_NWS"
    ],
    "acquisition": "Compte Copernicus Marine gratuit, outil copernicusmarine (service arco-time-series) : un an de courants horaires de surface lu par fenêtres de 96 h et analysé à la volée, sans garder l'archive (scripts/build_cmems_atlas.py).",
    "update_plan": "Reconstruction annuelle sur les douze derniers mois, automatisable avec l'identifiant Copernicus en secret."
   },
   "geometry": {
    "type": "Polygon",
    "coordinates": [
     [
      [
       -16.0,
       46.0
      ],
      [
       13.0,
       46.0
      ],
      [
       13.0,
       63.0
      ],
      [
       -16.0,
       63.0
      ],
      [
       -16.0,
       46.0
      ]
     ]
    ]
   }
  },
  {
   "type": "Feature",
   "properties": {
    "id": "cmems_ibi",
    "name": "Copernicus Marine IBI (IBI_ANALYSISFORECAST_PHY_005_001)",
    "provider": "Mercator Ocean / Nologin",
    "zone": "Ibérie, Gascogne, Irlande",
    "status": "current",
    "kind": "forecast_grid",
    "resolution_m": 2500,
    "access": "compte gratuit",
    "licence": "Licence Copernicus Marine",
    "licence_url": "https://marine.copernicus.eu/user-corner/service-commitments-and-licence",
    "licence_read_at": "2026-09-19",
    "derivative_redistribution": "yes",
    "effort": "M",
    "roadmap_step": 3,
    "vertical": "surface + 3D (50 niveaux)",
    "step_min": 60,
    "archive": "2 ans + 10 jours de prévision",
    "notes": "1/36°. Espagne, Portugal, Gibraltar (grossier), Maroc. Publié dans le dataset et servi depuis le 2026-09-20.",
    "atlases": [
     "CMEMS_IBI"
    ],
    "acquisition": "Même chaîne que NWS, produit IBI à 3 km.",
    "update_plan": "Reconstruction annuelle, comme NWS."
   },
   "geometry": {
    "type": "Polygon",
    "coordinates": [
     [
      [
       -19.0,
       26.0
      ],
      [
       5.0,
       26.0
      ],
      [
       5.0,
       56.0
      ],
      [
       -19.0,
       56.0
      ],
      [
       -19.0,
       26.0
      ]
     ]
    ]
   }
  },
  {
   "type": "Feature",
   "properties": {
    "id": "cmems_med",
    "name": "Copernicus Marine MED (MEDSEA_ANALYSISFORECAST_PHY_006_013)",
    "provider": "Mercator Ocean / Nologin",
    "zone": "Méditerranée, de Gibraltar au Levant",
    "status": "current",
    "kind": "forecast_grid",
    "resolution_m": 4200,
    "access": "compte gratuit",
    "licence": "Licence Copernicus Marine",
    "licence_url": "https://marine.copernicus.eu/user-corner/service-commitments-and-licence",
    "licence_read_at": "2026-09-19",
    "derivative_redistribution": "yes",
    "effort": "M",
    "roadmap_step": 3,
    "vertical": "surface + 3D (50 niveaux)",
    "step_min": 60,
    "archive": "2 ans + 10 jours de prévision",
    "notes": "Courants horaires cmems_mod_med_phy-cur_anfc_4.2km-2D_PT1H-m, DOI 10.48670/mds-00359. Un an analysé ; seules les cellules où la marée dépasse 0,2 kt sont gardées (Messine, golfe de Gabès, Gibraltar est). Publié dans le dataset et servi depuis le 2026-09-20.",
    "atlases": [
     "CMEMS_MED"
    ],
    "acquisition": "Même chaîne que NWS, produit MED à 4,2 km, cellules gardées là où la marée dépasse 0,2 kt.",
    "update_plan": "Reconstruction annuelle, comme NWS."
   },
   "geometry": {
    "type": "Polygon",
    "coordinates": [
     [
      [
       -6.5,
       30.0
      ],
      [
       36.5,
       30.0
      ],
      [
       36.5,
       46.0
      ],
      [
       -6.5,
       46.0
      ],
      [
       -6.5,
       30.0
      ]
     ]
    ]
   }
  },
  {
   "type": "Feature",
   "properties": {
    "id": "cmems_global_smoc",
    "name": "Copernicus Marine SMOC (GLOBAL_ANALYSISFORECAST_PHY_001_024)",
    "provider": "Mercator Ocean",
    "zone": "Monde",
    "status": "current",
    "kind": "forecast_grid",
    "resolution_m": 8000,
    "access": "compte gratuit (ou via Open-Meteo, sans clé)",
    "licence": "Licence Copernicus Marine",
    "licence_url": "https://marine.copernicus.eu/user-corner/service-commitments-and-licence",
    "licence_read_at": "2026-09-19",
    "derivative_redistribution": "yes",
    "effort": "S",
    "roadmap_step": 0,
    "vertical": "surface",
    "step_min": 60,
    "constituents": "utide/vtide dérivés de FES2014",
    "notes": "Fallback actuel via Open-Meteo Marine. Une analyse d'un mois de utide/vtide donnerait FES2014 à 8 km sans compte AVISO.",
    "acquisition": "Lu en direct à chaque requête par l'API Open-Meteo Marine, sans clé.",
    "update_plan": "Rien à mettre à jour : c'est une prévision lue en temps réel."
   },
   "geometry": {
    "type": "Polygon",
    "coordinates": [
     [
      [
       -180,
       -80
      ],
      [
       180,
       -80
      ],
      [
       180,
       90
      ],
      [
       -180,
       90
      ],
      [
       -180,
       -80
      ]
     ]
    ]
   }
  },
  {
   "type": "Feature",
   "properties": {
    "id": "norkyst800",
    "name": "NorKyst v3 800 m (MET Norway)",
    "provider": "MET Norway",
    "zone": "Norvège",
    "status": "current",
    "kind": "forecast_grid",
    "resolution_m": 800,
    "access": "keyless THREDDS/OPeNDAP",
    "licence": "CC BY 4.0 / NLOD",
    "licence_url": "https://www.met.no/en/free-meteorological-data/Licensing-and-crediting",
    "licence_read_at": "2026-09-21",
    "derivative_redistribution": "yes",
    "effort": "M",
    "roadmap_step": 4,
    "vertical": "3D (15 niveaux z), surface disponible",
    "step_min": 60,
    "archive": "v3 depuis le 2024-01-01 sur thredds.met.no (agrégat horaire, sans clé) ; v2 2017-2025 arrêtée",
    "notes": "Publié le 2026-09-21 : huit atlas d'un an (2025-09-19 au 2026-09-19), 264 000 cellules, 72 Mo, rang 1, confiance medium. Grille polaire stéréo rééchantillonnée à 800 m. Saltstraumen (150 m) absent de la grille, inscrit comme passe non résolue.",
    "atlases": [
     "NORKYST_SKAGERRAK",
     "NORKYST_ROGALAND",
     "NORKYST_VESTLAND",
     "NORKYST_TRONDELAG",
     "NORKYST_HELGELAND",
     "NORKYST_LOFOTEN",
     "NORKYST_TROMS",
     "NORKYST_FINNMARK"
    ],
    "acquisition": "THREDDS de MET Norway sans clé : sous-ensemble OPeNDAP par boîte côtière et par jour de l'agrégat horaire NorKyst v3, puis analyse harmonique et rééchantillonnage à 800 m (scripts/build_norkyst_atlas.py).",
    "update_plan": "Reconstruction annuelle des huit boîtes sur les douze derniers mois (35 Go, environ 9 h), automatisable ; surveiller les changements de version du modèle (la v2 a été arrêtée en 2025)."
   },
   "geometry": {
    "type": "Polygon",
    "coordinates": [
     [
      [
       -1.56,
       55.8
      ],
      [
       37.94,
       55.8
      ],
      [
       37.94,
       75.2
      ],
      [
       -1.56,
       75.2
      ],
      [
       -1.56,
       55.8
      ]
     ]
    ]
   }
  },
  {
   "type": "Feature",
   "properties": {
    "id": "marine_institute_neatl",
    "name": "Marine Institute NE Atlantic ROMS",
    "provider": "Marine Institute (IE)",
    "zone": "Irlande",
    "status": "ok",
    "kind": "forecast_grid",
    "resolution_m": 1900,
    "access": "keyless ERDDAP",
    "licence": "CC BY 4.0",
    "licence_url": "https://data.marine.ie/geonetwork/srv/api/records/ie.marine.data:dataset.3778",
    "licence_read_at": "2026-09-19",
    "derivative_redistribution": "yes",
    "effort": "M",
    "roadmap_step": 3,
    "vertical": "3D (40 niveaux)",
    "archive": "2012 à aujourd'hui",
    "notes": "Pas horaire à confirmer sur l'ERDDAP. Nested 200 m Galway et Bantry.",
    "acquisition": "ERDDAP du Marine Institute sans clé, requêtes griddap par boîte.",
    "update_plan": "Non intégré à ce jour ; archive horaire disponible, même chaîne que Copernicus si retenu."
   },
   "geometry": {
    "type": "Polygon",
    "coordinates": [
     [
      [
       -18.0,
       48.0
      ],
      [
       -1.0,
       48.0
      ],
      [
       -1.0,
       58.0
      ],
      [
       -18.0,
       58.0
      ],
      [
       -18.0,
       48.0
      ]
     ]
    ]
   }
  },
  {
   "type": "Feature",
   "properties": {
    "id": "fes2014_currents",
    "name": "FES2014 courants (AVISO)",
    "provider": "CNES / LEGOS / Noveltis / CLS",
    "zone": "Monde",
    "status": "ok",
    "kind": "harmonic_constants",
    "resolution_m": 7000,
    "access": "compte AVISO+ gratuit (FTP/THREDDS)",
    "licence": "Licence AVISO Issue 20 (10/08/2026) : FES2014 = version précédente, donc licence standard, usage commercial et dérivés autorisés",
    "licence_url": "https://www.aviso.altimetry.fr/fileadmin/documents/data/License_Aviso.pdf",
    "licence_read_at": "2026-09-19",
    "derivative_redistribution": "yes",
    "effort": "M",
    "roadmap_step": 2,
    "vertical": "depth_averaged",
    "constituents": "34 (u, v)",
    "notes": "Remplaçant naturel de SMOC en fallback tidal mondial. Redistribution en masse de l'ORIGINAL soumise à autorisation ; nos Parquet sont des dérivés.",
    "acquisition": "Compte AVISO+ gratuit, archives NetCDF de constantes harmoniques par SFTP, converties au format standard (scripts/build_fes_atlas.py) ; atlas mondial construit, pas publié.",
    "update_plan": "Produit figé, pas de mise à jour ; sa publication comme repli mondial reste à décider."
   },
   "geometry": {
    "type": "Polygon",
    "coordinates": [
     [
      [
       -180,
       -90
      ],
      [
       180,
       -90
      ],
      [
       180,
       90
      ],
      [
       -180,
       90
      ],
      [
       -180,
       -90
      ]
     ]
    ]
   }
  },
  {
   "type": "Feature",
   "properties": {
    "id": "fes2022_currents",
    "name": "FES2022 courants (AVISO)",
    "provider": "CNES / Noveltis",
    "zone": "Monde",
    "status": "blocked",
    "kind": "harmonic_constants",
    "resolution_m": 7000,
    "access": "sur demande, équipes scientifiques",
    "licence": "Licence AVISO Issue 20, annexe A : non commercial pour les courants de la dernière version FES",
    "licence_url": "https://www.aviso.altimetry.fr/fileadmin/documents/data/License_Aviso.pdf",
    "licence_read_at": "2026-09-19",
    "derivative_redistribution": "no",
    "effort": "M",
    "roadmap_step": null,
    "notes": "Deviendra libre à la sortie de la version suivante (clause explicite de l'annexe A).",
    "acquisition": "Sur demande, réservé aux équipes scientifiques.",
    "update_plan": "Non intégrable en l'état."
   },
   "geometry": {
    "type": "Polygon",
    "coordinates": [
     [
      [
       -180,
       -90
      ],
      [
       180,
       -90
      ],
      [
       180,
       90
      ],
      [
       -180,
       90
      ],
      [
       -180,
       -90
      ]
     ]
    ]
   }
  },
  {
   "type": "Feature",
   "properties": {
    "id": "tpxo10",
    "name": "TPXO10-atlas (OSU)",
    "provider": "Oregon State University",
    "zone": "Monde",
    "status": "blocked",
    "kind": "harmonic_constants",
    "resolution_m": 3700,
    "access": "inscription",
    "licence": "Académique / non commercial ; licence commerciale via ModEM-geophysics",
    "licence_url": "https://www.tpxo.net/tpxo-products-and-registration",
    "licence_read_at": "2026-09-19",
    "derivative_redistribution": "no",
    "effort": "M",
    "roadmap_step": null,
    "acquisition": "Inscription auprès de l'université d'État de l'Oregon, licence non commerciale.",
    "update_plan": "Non intégrable (licence)."
   },
   "geometry": {
    "type": "Polygon",
    "coordinates": [
     [
      [
       -180,
       -90
      ],
      [
       180,
       -90
      ],
      [
       180,
       90
      ],
      [
       -180,
       90
      ],
      [
       -180,
       -90
      ]
     ]
    ]
   }
  },
  {
   "type": "Feature",
   "properties": {
    "id": "eot20",
    "name": "EOT20 (DGFI-TUM)",
    "provider": "DGFI-TUM",
    "zone": "Monde",
    "status": "no_currents",
    "kind": "harmonic_constants",
    "resolution_m": 14000,
    "access": "keyless (SEANOE)",
    "licence": "CC BY 4.0",
    "licence_url": "https://www.seanoe.org/data/00683/79489/",
    "licence_read_at": "2026-09-19",
    "derivative_redistribution": "yes",
    "effort": "S",
    "roadmap_step": null,
    "notes": "Hauteurs seulement, 17 constituants.",
    "acquisition": "SEANOE, sans clé.",
    "update_plan": "Sans objet : hauteurs seulement, pas de courants."
   },
   "geometry": {
    "type": "Polygon",
    "coordinates": [
     [
      [
       -180,
       -66
      ],
      [
       180,
       -66
      ],
      [
       180,
       66
      ],
      [
       -180,
       66
      ],
      [
       -180,
       -66
      ]
     ]
    ]
   }
  },
  {
   "type": "Feature",
   "properties": {
    "id": "dmi_dkss",
    "name": "DMI Open Data, modèle DKSS",
    "provider": "DMI (DK)",
    "zone": "Mer du Nord, Skagerrak, Baltique",
    "status": "ok",
    "kind": "forecast_grid",
    "resolution_m": null,
    "access": "clé API gratuite (STAC/EDR), miroir S3 sans signature",
    "licence": "CC BY 4.0",
    "licence_url": "https://registry.opendata.aws/dmi-opendata/",
    "licence_read_at": "2026-09-19",
    "derivative_redistribution": "yes",
    "effort": "M",
    "roadmap_step": 4,
    "archive": "48 h (STAC), archivage requis",
    "notes": "Résolution du domaine idw non confirmée. Skagerrak / Kattegat / Belts.",
    "acquisition": "Clé API gratuite (STAC/EDR) ou miroir S3 sans signature, 48 h de profondeur.",
    "update_plan": "Archivage quotidien requis puis analyse annuelle ; en attente d'une clé."
   },
   "geometry": {
    "type": "Polygon",
    "coordinates": [
     [
      [
       -5.0,
       48.0
      ],
      [
       31.0,
       48.0
      ],
      [
       31.0,
       66.0
      ],
      [
       -5.0,
       66.0
      ],
      [
       -5.0,
       48.0
      ]
     ]
    ]
   }
  },
  {
   "type": "Feature",
   "properties": {
    "id": "smhi",
    "name": "SMHI open data (NEMO-Nordic)",
    "provider": "SMHI (SE)",
    "zone": "Baltique, Kattegat",
    "status": "clarify",
    "kind": "forecast_grid",
    "resolution_m": null,
    "access": "keyless",
    "licence": "CC BY 4.0 SE",
    "licence_url": "https://www.smhi.se/data/om-smhis-data/villkor-for-anvandning",
    "licence_read_at": "2026-09-19",
    "derivative_redistribution": "yes",
    "effort": "M",
    "roadmap_step": null,
    "notes": "Licence OK, champs de courant en open data non confirmés.",
    "acquisition": "Open data sans clé, licence à clarifier.",
    "update_plan": "Non prévu : marée négligeable dans la zone couverte."
   },
   "geometry": {
    "type": "Polygon",
    "coordinates": [
     [
      [
       9.0,
       53.0
      ],
      [
       31.0,
       53.0
      ],
      [
       31.0,
       66.0
      ],
      [
       9.0,
       66.0
      ],
      [
       9.0,
       53.0
      ]
     ]
    ]
   }
  },
  {
   "type": "Feature",
   "properties": {
    "id": "puertos_del_estado",
    "name": "Puertos del Estado SAMOA / ROMS",
    "provider": "Puertos del Estado (ES)",
    "zone": "Espagne, Gibraltar, Baléares",
    "status": "blocked",
    "kind": "forecast_grid",
    "resolution_m": 500,
    "access": "keyless THREDDS",
    "licence": "FAQ officielle : usage limité à la finalité du téléchargement, cession à des tiers interdite",
    "licence_url": "https://www.puertos.es/en/services/oceanography/faqs",
    "licence_read_at": "2026-09-19",
    "derivative_redistribution": "no",
    "effort": "M",
    "roadmap_step": null,
    "notes": "THREDDS ouvert mais republier un Parquet dérivé est interdit. Bloque Gibraltar fin.",
    "acquisition": "THREDDS sans clé, conditions d'usage restrictives.",
    "update_plan": "Non intégrable tant que la licence ne permet pas la redistribution d'un dérivé."
   },
   "geometry": {
    "type": "Polygon",
    "coordinates": [
     [
      [
       -13.0,
       34.0
      ],
      [
       5.0,
       34.0
      ],
      [
       5.0,
       46.0
      ],
      [
       -13.0,
       46.0
      ],
      [
       -13.0,
       34.0
      ]
     ]
    ]
   }
  },
  {
   "type": "Feature",
   "properties": {
    "id": "ukho",
    "name": "UKHO ADMIRALTY tidal streams / TotalTide",
    "provider": "UKHO",
    "zone": "UK, Irlande, île de Man, îles Anglo-Normandes",
    "status": "blocked",
    "kind": "station_points",
    "resolution_m": null,
    "access": "abonnement payant",
    "licence": "Licence commerciale UKHO (non-commercial et low-value : 1 port ≤ 1 an…)",
    "licence_url": "https://copyright.ukho.gov.uk/Docs/Licence_Agreements/Non-commercial_and_low-value_commercial_licence_template.pdf",
    "licence_read_at": "2026-09-19",
    "derivative_redistribution": "no",
    "effort": "L",
    "roadmap_step": null,
    "acquisition": "Abonnement payant.",
    "update_plan": "Non intégrable."
   },
   "geometry": {
    "type": "Polygon",
    "coordinates": [
     [
      [
       -12.0,
       48.0
      ],
      [
       4.0,
       48.0
      ],
      [
       4.0,
       62.0
      ],
      [
       -12.0,
       62.0
      ],
      [
       -12.0,
       48.0
      ]
     ]
    ]
   }
  },
  {
   "type": "Feature",
   "properties": {
    "id": "abpmer_atlas",
    "name": "ABPmer Atlas of UK Marine Renewable Energy Resources",
    "provider": "ABPmer",
    "zone": "UK",
    "status": "blocked",
    "kind": "harmonic_constants",
    "resolution_m": 1800,
    "access": "accord de licence signé",
    "licence": "Propriétaire ABPmer, accord au téléchargement",
    "licence_url": "https://metadata.naturalresources.wales/geonetwork/srv/api/records/EXT_DS121665",
    "licence_read_at": "2026-09-19",
    "derivative_redistribution": "no",
    "effort": "M",
    "roadmap_step": null,
    "acquisition": "Accord de licence signé requis.",
    "update_plan": "Non intégrable."
   },
   "geometry": {
    "type": "Polygon",
    "coordinates": [
     [
      [
       -12.0,
       48.0
      ],
      [
       4.0,
       48.0
      ],
      [
       4.0,
       62.0
      ],
      [
       -12.0,
       62.0
      ],
      [
       -12.0,
       48.0
      ]
     ]
    ]
   }
  },
  {
   "type": "Feature",
   "properties": {
    "id": "ssw_rs",
    "name": "Scottish Shelf Waters Reanalysis (SSW-RS, FVCOM)",
    "provider": "Marine Directorate (Écosse)",
    "zone": "Écosse, mer du Nord, Manche",
    "status": "clarify",
    "kind": "timeseries",
    "resolution_m": null,
    "access": "inscription JASMIN",
    "licence": "Open Government Licence (UK)",
    "licence_url": "https://marine.gov.scot/information/scottish-shelf-waters-reanalysis-service",
    "licence_read_at": "2026-09-19",
    "derivative_redistribution": "yes",
    "effort": "L",
    "roadmap_step": 5,
    "archive": "réanalyse 1993-2019, horaire",
    "notes": "Maillage non structuré, très gros volume. Pentland Firth, Hébrides, Corryvreckan partiellement résolus.",
    "acquisition": "Compte JASMIN (CEDA), réanalyse horaire 1993-2019, volume lourd.",
    "update_plan": "Produit figé : une seule construction si l'accès et la licence sont clarifiés."
   },
   "geometry": {
    "type": "Polygon",
    "coordinates": [
     [
      [
       -13.0,
       48.0
      ],
      [
       13.0,
       48.0
      ],
      [
       13.0,
       62.0
      ],
      [
       -13.0,
       62.0
      ],
      [
       -13.0,
       48.0
      ]
     ]
    ]
   }
  },
  {
   "type": "Feature",
   "properties": {
    "id": "rijkswaterstaat",
    "name": "Rijkswaterstaat Waterinfo / Matroos",
    "provider": "Rijkswaterstaat (NL)",
    "zone": "Pays-Bas, Wadden, Escaut",
    "status": "clarify",
    "kind": "station_points",
    "resolution_m": null,
    "access": "Waterinfo keyless ; Matroos mot de passe gratuit",
    "licence": "Open data sans texte de licence formel (« vrij inzien en hergebruiken »)",
    "licence_url": "https://www.rijkswaterstaat.nl/zakelijk/open-data",
    "licence_read_at": "2026-09-19",
    "derivative_redistribution": "unclear",
    "effort": "M",
    "roadmap_step": 5,
    "notes": "Stations de mesure ouvertes ; sorties modèle DCSM-FM via Matroos (3 semaines). Licence non opposable : à clarifier avec RWS.",
    "acquisition": "Waterinfo sans clé pour les stations, Matroos avec un mot de passe gratuit.",
    "update_plan": "Points de contrôle, pas d'atlas prévu."
   },
   "geometry": {
    "type": "Polygon",
    "coordinates": [
     [
      [
       2.5,
       51.0
      ],
      [
       7.5,
       51.0
      ],
      [
       7.5,
       54.0
      ],
      [
       2.5,
       54.0
      ],
      [
       2.5,
       51.0
      ]
     ]
    ]
   }
  },
  {
   "type": "Feature",
   "properties": {
    "id": "cosyna_hfr",
    "name": "COSYNA radar HF, baie allemande (référence de validation)",
    "provider": "Hereon via EMODnet Physics",
    "zone": "Baie allemande",
    "status": "ok",
    "kind": "timeseries",
    "resolution_m": 2000,
    "access": "keyless ERDDAP",
    "licence": "CC BY 4.0",
    "licence_url": "https://erddap.emodnet-physics.eu/erddap/info/EUHFR_NRTcurrent_HFR-COSYNA-Total/index.html",
    "licence_read_at": "2026-09-19",
    "derivative_redistribution": "yes",
    "effort": "S",
    "roadmap_step": 1,
    "vertical": "surface 0,3-2,5 m",
    "archive": "2019-01 à 2022-10, pas 20 min",
    "notes": "Observations, pas un modèle : sert de référence indépendante (spike). Pourrait devenir un atlas M2/S2 de surface à 2 km.",
    "acquisition": "ERDDAP du Hereon sans clé.",
    "update_plan": "Référence de validation figée (2019-2022), pas de mise à jour."
   },
   "geometry": {
    "type": "Polygon",
    "coordinates": [
     [
      [
       5.92,
       53.42
      ],
      [
       8.97,
       53.42
      ],
      [
       8.97,
       55.2
      ],
      [
       5.92,
       55.2
      ],
      [
       5.92,
       53.42
      ]
     ]
    ]
   }
  },
  {
   "type": "Feature",
   "properties": {
    "id": "pegelonline",
    "name": "Pegelonline (WSV), hauteurs d'eau (référence)",
    "provider": "WSV (DE)",
    "zone": "Allemagne",
    "status": "ok",
    "kind": "station_points",
    "resolution_m": null,
    "access": "keyless REST",
    "licence": "DL-DE Zero 2.0",
    "licence_url": "https://www.pegelonline.wsv.de/gast/nutzungsbedingungen",
    "licence_read_at": "2026-09-19",
    "derivative_redistribution": "yes",
    "effort": "S",
    "roadmap_step": 1,
    "notes": "Hauteurs seulement, 30 jours glissants. Contrôle de phase.",
    "acquisition": "API REST de la WSV sans clé.",
    "update_plan": "Référence de validation, lue à la demande."
   },
   "geometry": {
    "type": "Polygon",
    "coordinates": [
     [
      [
       6.0,
       53.3
      ],
      [
       14.5,
       53.3
      ],
      [
       14.5,
       55.2
      ],
      [
       6.0,
       55.2
      ],
      [
       6.0,
       53.3
      ]
     ]
    ]
   }
  },
  {
   "type": "Feature",
   "properties": {
    "id": "marc_previmer",
    "name": "MARC PREVIMER (Ifremer), atlas harmoniques",
    "provider": "Ifremer / SHOM",
    "zone": "Atlantique NE, Manche, France",
    "status": "current",
    "kind": "harmonic_constants",
    "resolution_m": 2000,
    "access": "FTP Ifremer avec compte",
    "licence": "Engagement de non redistribution du brut, citation obligatoire",
    "licence_url": "https://archimer.ifremer.fr/doc/00157/26801/",
    "licence_read_at": "2026-09-19",
    "derivative_redistribution": "unclear",
    "effort": "S",
    "roadmap_step": 0,
    "vertical": "depth_averaged",
    "constituents": "17 (rang 0 et 1) à 38 (rang 2)",
    "notes": "Cascade actuelle. ATLNE 2 km couvre la mer du Nord mais y est non validé (Elbe : 0,1 kt prédit contre 2 à 3 kt).",
    "atlases": [
     "FINIS",
     "MANW",
     "MANE",
     "SUDBZH",
     "AQUI",
     "MANGA",
     "ATLNE"
    ],
    "acquisition": "FTP Ifremer avec compte : constantes harmoniques converties au format standard (scripts/build_marc_atlas.py).",
    "update_plan": "Produit figé depuis 2013, pas de mise à jour."
   },
   "geometry": {
    "type": "Polygon",
    "coordinates": [
     [
      [
       -20.0,
       40.0
      ],
      [
       15.0,
       40.0
      ],
      [
       15.0,
       65.0
      ],
      [
       -20.0,
       65.0
      ],
      [
       -20.0,
       40.0
      ]
     ]
    ]
   }
  },
  {
   "type": "Feature",
   "properties": {
    "id": "shom_c2d",
    "name": "SHOM Atlas C2D (courants 2D)",
    "provider": "SHOM",
    "zone": "France (cartouches fines)",
    "status": "current",
    "kind": "station_points",
    "resolution_m": 500,
    "access": "archive SHOM",
    "licence": "Licence Ouverte / Open Licence 2.0 (data.gouv.fr, fiche archivée, produit 2005) ; édition NetCDF 2026 sur diffusion.shom.fr avec DOI 10.17183/ATLASCOURANTS2D_NETCDF signalée par la recherche, non confirmée au premier degré",
    "licence_url": "https://www.data.gouv.fr/datasets/courants-de-maree-des-cotes-de-france-manche-atlantique-produit-numerique-1",
    "licence_read_at": "2026-09-19",
    "derivative_redistribution": "yes (Licence Ouverte 2.0, si confirmée sur l'édition utilisée)",
    "effort": "S",
    "roadmap_step": 0,
    "notes": "Cascade actuelle, utilisé à moins de 0,5 km d'un point. Découverte de cette exploration : le produit numérique est sous Licence Ouverte 2.0 sur data.gouv.fr, ce qui autoriserait un dataset public pour les artefacts C2D et un masque France depuis les vitesses maximales de vive-eau (coef 95). À confirmer sur la licence de l'édition effectivement téléchargée.",
    "atlases": [
     "shom"
    ],
    "acquisition": "Archive SHOM sur data.gouv.fr (Licence Ouverte) : séries horaires de vives-eaux et de mortes-eaux par point, converties en table (scripts/build_shom_c2d.py).",
    "update_plan": "Édition figée, pas de mise à jour prévue."
   },
   "geometry": {
    "type": "Polygon",
    "coordinates": [
     [
      [
       -6.0,
       43.0
      ],
      [
       3.0,
       43.0
      ],
      [
       3.0,
       51.5
      ],
      [
       -6.0,
       51.5
      ],
      [
       -6.0,
       43.0
      ]
     ]
    ]
   }
  },
  {
   "type": "Feature",
   "properties": {
    "id": "noaa_coops_harcon",
    "name": "NOAA CO-OPS constantes harmoniques de courant (stations)",
    "provider": "NOAA (US)",
    "zone": "États-Unis",
    "status": "ok",
    "kind": "station_points",
    "resolution_m": null,
    "access": "keyless REST (mdapi harcon)",
    "licence": "Domaine public (US Government)",
    "licence_url": "https://tidesandcurrents.noaa.gov/disclaimers.html",
    "licence_read_at": "2026-09-19",
    "derivative_redistribution": "yes",
    "effort": "S",
    "roadmap_step": 6,
    "constituents": "37",
    "vertical": "par bin de profondeur",
    "notes": "Points seulement ; un atlas grillé vient des OFS.",
    "acquisition": "API REST de la NOAA sans clé (mdapi, constantes harmoniques par station et par profondeur).",
    "update_plan": "Points de contrôle des atlas américains, relus à chaque construction."
   },
   "geometry": {
    "type": "Polygon",
    "coordinates": [
     [
      [
       -180.0,
       15.0
      ],
      [
       -60.0,
       15.0
      ],
      [
       -60.0,
       72.0
      ],
      [
       -180.0,
       72.0
      ],
      [
       -180.0,
       15.0
      ]
     ]
    ]
   }
  },
  {
   "type": "Feature",
   "properties": {
    "id": "noaa_ofs_cbofs",
    "name": "NOAA CBOFS (Chesapeake)",
    "provider": "NOAA (US)",
    "zone": "États-Unis",
    "status": "ok",
    "kind": "forecast_grid",
    "resolution_m": 500,
    "access": "keyless S3 / THREDDS",
    "licence": "Domaine public, NODD",
    "licence_url": "https://registry.opendata.aws/noaa-ofs/",
    "licence_read_at": "2026-09-19",
    "derivative_redistribution": "yes",
    "effort": "M",
    "roadmap_step": 6,
    "archive": "S3 archive depuis 2022 (noaa-nos-ofs-pds)",
    "notes": "Modèle 3D (ROMS/FVCOM) horaire, marée incluse ; 40 m à 5 km selon système.",
    "acquisition": "Seau S3 public NOAA sans clé (noaa-nos-ofs-pds) : la couche de surface est lue par requêtes HTTP partielles dans les fichiers horaires non compressés, puis analysée (scripts/build_ofs_atlas.py).",
    "update_plan": "Non publié. Si publié : reconstruction annuelle sur les douze derniers mois d'archive, automatisable."
   },
   "geometry": {
    "type": "Polygon",
    "coordinates": [
     [
      [
       -77.5,
       36.5
      ],
      [
       -75.4,
       36.5
      ],
      [
       -75.4,
       39.7
      ],
      [
       -77.5,
       39.7
      ],
      [
       -77.5,
       36.5
      ]
     ]
    ]
   }
  },
  {
   "type": "Feature",
   "properties": {
    "id": "noaa_ofs_sfbofs",
    "name": "NOAA SFBOFS (San Francisco)",
    "provider": "NOAA (US)",
    "zone": "États-Unis",
    "status": "ok",
    "kind": "forecast_grid",
    "resolution_m": 500,
    "access": "keyless S3 / THREDDS",
    "licence": "Domaine public, NODD",
    "licence_url": "https://registry.opendata.aws/noaa-ofs/",
    "licence_read_at": "2026-09-19",
    "derivative_redistribution": "yes",
    "effort": "M",
    "roadmap_step": 6,
    "archive": "S3 archive depuis 2022 (noaa-nos-ofs-pds)",
    "notes": "Modèle 3D (ROMS/FVCOM) horaire, marée incluse ; 40 m à 5 km selon système.",
    "acquisition": "Seau S3 public NOAA sans clé (noaa-nos-ofs-pds) : la couche de surface est lue par requêtes HTTP partielles dans les fichiers horaires non compressés, puis analysée (scripts/build_ofs_atlas.py).",
    "update_plan": "Non publié. Si publié : reconstruction annuelle sur les douze derniers mois d'archive, automatisable."
   },
   "geometry": {
    "type": "Polygon",
    "coordinates": [
     [
      [
       -123.2,
       37.3
      ],
      [
       -121.7,
       37.3
      ],
      [
       -121.7,
       38.3
      ],
      [
       -123.2,
       38.3
      ],
      [
       -123.2,
       37.3
      ]
     ]
    ]
   }
  },
  {
   "type": "Feature",
   "properties": {
    "id": "noaa_ofs_sscofs",
    "name": "NOAA SSCOFS (Salish Sea)",
    "provider": "NOAA (US)",
    "zone": "États-Unis",
    "status": "ok",
    "kind": "forecast_grid",
    "resolution_m": 200,
    "access": "keyless S3 / THREDDS",
    "licence": "Domaine public, NODD",
    "licence_url": "https://registry.opendata.aws/noaa-ofs/",
    "licence_read_at": "2026-09-21",
    "derivative_redistribution": "yes",
    "effort": "M",
    "roadmap_step": 5,
    "archive": "S3 noaa-nos-ofs-pds depuis 2024-09 (nowcast horaire, sans clé)",
    "notes": "Spike du 2026-09-21 (spike-noaa-ofs.md) : FVCOM 163 m médian, 32 jours de la boîte Admiralty Inlet, Deception Pass et Tacoma Narrows analysés, M2 à 0,77 à 1,22 fois les huit stations CO-OPS. Deception Pass et Agate Passage font deux éléments de large.",
    "acquisition": "Seau S3 public NOAA sans clé (noaa-nos-ofs-pds) : la couche de surface est lue par requêtes HTTP partielles dans les fichiers horaires non compressés, puis analysée (scripts/build_ofs_atlas.py). Spike validé sur 32 jours contre huit stations CO-OPS.",
    "update_plan": "Non publié. Si publié : un an d'archive (45 Go sur le fil, 4 h 30), puis reconstruction annuelle automatisable."
   },
   "geometry": {
    "type": "Polygon",
    "coordinates": [
     [
      [
       -125.5,
       46.5
      ],
      [
       -122.0,
       46.5
      ],
      [
       -122.0,
       50.5
      ],
      [
       -125.5,
       50.5
      ],
      [
       -125.5,
       46.5
      ]
     ]
    ]
   }
  },
  {
   "type": "Feature",
   "properties": {
    "id": "noaa_ofs_gomofs",
    "name": "NOAA GoMOFS (golfe du Maine)",
    "provider": "NOAA (US)",
    "zone": "États-Unis",
    "status": "ok",
    "kind": "forecast_grid",
    "resolution_m": 700,
    "access": "keyless S3 / THREDDS",
    "licence": "Domaine public, NODD",
    "licence_url": "https://registry.opendata.aws/noaa-ofs/",
    "licence_read_at": "2026-09-21",
    "derivative_redistribution": "yes",
    "effort": "M",
    "roadmap_step": 5,
    "archive": "S3 noaa-nos-ofs-pds (fichiers 2ds horaires de surface, sans clé)",
    "notes": "Spike du 2026-09-21 (spike-noaa-ofs.md, section 10) : ROMS 700 m, 32 jours de la baie de Fundy analysés, Minas Passage 8,1 kt reconstruits. Passamaquoddy, Old Sow et Petit Passage sont fermés dans la grille.",
    "acquisition": "Seau S3 public NOAA sans clé (noaa-nos-ofs-pds) : la couche de surface est lue par requêtes HTTP partielles dans les fichiers horaires non compressés, puis analysée (scripts/build_ofs_atlas.py). Spike sur 32 jours en baie de Fundy.",
    "update_plan": "Non publié. Si publié : reconstruction annuelle sur les douze derniers mois d'archive, automatisable."
   },
   "geometry": {
    "type": "Polygon",
    "coordinates": [
     [
      [
       -72.0,
       39.5
      ],
      [
       -63.0,
       39.5
      ],
      [
       -63.0,
       46.0
      ],
      [
       -72.0,
       46.0
      ],
      [
       -72.0,
       39.5
      ]
     ]
    ]
   }
  },
  {
   "type": "Feature",
   "properties": {
    "id": "noaa_ofs_ngofs2",
    "name": "NOAA NGOFS2 (golfe du Mexique nord)",
    "provider": "NOAA (US)",
    "zone": "États-Unis",
    "status": "ok",
    "kind": "forecast_grid",
    "resolution_m": 500,
    "access": "keyless S3 / THREDDS",
    "licence": "Domaine public, NODD",
    "licence_url": "https://registry.opendata.aws/noaa-ofs/",
    "licence_read_at": "2026-09-19",
    "derivative_redistribution": "yes",
    "effort": "M",
    "roadmap_step": 6,
    "archive": "S3 archive depuis 2022 (noaa-nos-ofs-pds)",
    "notes": "Modèle 3D (ROMS/FVCOM) horaire, marée incluse ; 40 m à 5 km selon système.",
    "acquisition": "Seau S3 public NOAA sans clé (noaa-nos-ofs-pds) : la couche de surface est lue par requêtes HTTP partielles dans les fichiers horaires non compressés, puis analysée (scripts/build_ofs_atlas.py).",
    "update_plan": "Non publié. Si publié : reconstruction annuelle sur les douze derniers mois d'archive, automatisable."
   },
   "geometry": {
    "type": "Polygon",
    "coordinates": [
     [
      [
       -98.0,
       27.0
      ],
      [
       -84.0,
       27.0
      ],
      [
       -84.0,
       31.0
      ],
      [
       -98.0,
       31.0
      ],
      [
       -98.0,
       27.0
      ]
     ]
    ]
   }
  },
  {
   "type": "Feature",
   "properties": {
    "id": "noaa_ofs_wcofs",
    "name": "NOAA WCOFS (côte ouest)",
    "provider": "NOAA (US)",
    "zone": "États-Unis",
    "status": "ok",
    "kind": "forecast_grid",
    "resolution_m": 500,
    "access": "keyless S3 / THREDDS",
    "licence": "Domaine public, NODD",
    "licence_url": "https://registry.opendata.aws/noaa-ofs/",
    "licence_read_at": "2026-09-19",
    "derivative_redistribution": "yes",
    "effort": "M",
    "roadmap_step": 6,
    "archive": "S3 archive depuis 2022 (noaa-nos-ofs-pds)",
    "notes": "Modèle 3D (ROMS/FVCOM) horaire, marée incluse ; 40 m à 5 km selon système.",
    "acquisition": "Seau S3 public NOAA sans clé (noaa-nos-ofs-pds) : la couche de surface est lue par requêtes HTTP partielles dans les fichiers horaires non compressés, puis analysée (scripts/build_ofs_atlas.py).",
    "update_plan": "Non publié. Si publié : reconstruction annuelle sur les douze derniers mois d'archive, automatisable."
   },
   "geometry": {
    "type": "Polygon",
    "coordinates": [
     [
      [
       -134.0,
       30.0
      ],
      [
       -117.0,
       30.0
      ],
      [
       -117.0,
       50.0
      ],
      [
       -134.0,
       50.0
      ],
      [
       -134.0,
       30.0
      ]
     ]
    ]
   }
  },
  {
   "type": "Feature",
   "properties": {
    "id": "noaa_ofs_ciofs",
    "name": "NOAA CIOFS (Cook Inlet)",
    "provider": "NOAA (US)",
    "zone": "États-Unis",
    "status": "ok",
    "kind": "forecast_grid",
    "resolution_m": 500,
    "access": "keyless S3 / THREDDS",
    "licence": "Domaine public, NODD",
    "licence_url": "https://registry.opendata.aws/noaa-ofs/",
    "licence_read_at": "2026-09-19",
    "derivative_redistribution": "yes",
    "effort": "M",
    "roadmap_step": 6,
    "archive": "S3 archive depuis 2022 (noaa-nos-ofs-pds)",
    "notes": "Modèle 3D (ROMS/FVCOM) horaire, marée incluse ; 40 m à 5 km selon système.",
    "acquisition": "Seau S3 public NOAA sans clé (noaa-nos-ofs-pds) : la couche de surface est lue par requêtes HTTP partielles dans les fichiers horaires non compressés, puis analysée (scripts/build_ofs_atlas.py).",
    "update_plan": "Non publié. Si publié : reconstruction annuelle sur les douze derniers mois d'archive, automatisable."
   },
   "geometry": {
    "type": "Polygon",
    "coordinates": [
     [
      [
       -154.0,
       58.5
      ],
      [
       -149.0,
       58.5
      ],
      [
       -149.0,
       61.5
      ],
      [
       -154.0,
       61.5
      ],
      [
       -154.0,
       58.5
      ]
     ]
    ]
   }
  },
  {
   "type": "Feature",
   "properties": {
    "id": "eccc_ciops_east",
    "name": "ECCC CIOPS-East (Datamart)",
    "provider": "ECCC (CA)",
    "zone": "Canada atlantique",
    "status": "ok",
    "kind": "forecast_grid",
    "resolution_m": 2000,
    "access": "keyless HTTPS (dd.weather.gc.ca)",
    "licence": "Open Government Licence - Canada 2.0",
    "licence_url": "https://open.canada.ca/en/open-government-licence-canada",
    "licence_read_at": "2026-09-19",
    "derivative_redistribution": "yes",
    "effort": "M",
    "roadmap_step": 6,
    "archive": "30 jours sur le Datamart",
    "vertical": "surface 0,5 m + 3D",
    "step_min": 60,
    "acquisition": "Datamart d'Environnement Canada en HTTPS sans clé, 30 jours glissants.",
    "update_plan": "Archivage quotidien requis avant toute analyse, puis reconstruction annuelle."
   },
   "geometry": {
    "type": "Polygon",
    "coordinates": [
     [
      [
       -71.0,
       40.0
      ],
      [
       -48.0,
       40.0
      ],
      [
       -48.0,
       55.0
      ],
      [
       -71.0,
       55.0
      ],
      [
       -71.0,
       40.0
      ]
     ]
    ]
   }
  },
  {
   "type": "Feature",
   "properties": {
    "id": "eccc_ciops_west",
    "name": "ECCC CIOPS-West + Salish Sea 500 m (Datamart)",
    "provider": "ECCC (CA)",
    "zone": "Canada pacifique",
    "status": "ok",
    "kind": "forecast_grid",
    "resolution_m": 500,
    "access": "keyless HTTPS (dd.weather.gc.ca)",
    "licence": "Open Government Licence - Canada 2.0",
    "licence_url": "https://open.canada.ca/en/open-government-licence-canada",
    "licence_read_at": "2026-09-19",
    "derivative_redistribution": "yes",
    "effort": "M",
    "roadmap_step": 6,
    "archive": "30 jours sur le Datamart",
    "vertical": "surface 0,5 m + 3D",
    "step_min": 60,
    "notes": "Salish Sea à 500 m : Seymour Narrows non résolu, Active Pass partiellement.",
    "acquisition": "Datamart d'Environnement Canada en HTTPS sans clé, 30 jours glissants.",
    "update_plan": "Archivage quotidien requis avant toute analyse, puis reconstruction annuelle."
   },
   "geometry": {
    "type": "Polygon",
    "coordinates": [
     [
      [
       -140.0,
       44.0
      ],
      [
       -122.0,
       44.0
      ],
      [
       -122.0,
       60.0
      ],
      [
       -140.0,
       60.0
      ],
      [
       -140.0,
       44.0
      ]
     ]
    ]
   }
  },
  {
   "type": "Feature",
   "properties": {
    "id": "dfo_webtide",
    "name": "DFO WebTide",
    "provider": "DFO (CA)",
    "zone": "Canada, Fundy, Arctique",
    "status": "blocked",
    "kind": "harmonic_constants",
    "resolution_m": null,
    "access": "téléchargement libre, sans compte",
    "licence": "Pas de licence propre ; conditions génériques GoC : pas de redistribution commerciale sans autorisation écrite",
    "licence_url": "https://www.canada.ca/en/transparency/terms.html",
    "licence_read_at": "2026-09-19",
    "derivative_redistribution": "no",
    "effort": "M",
    "roadmap_step": null,
    "notes": "Le lien 'terms' de WebTide est en 404. Demander une autorisation écrite est la seule voie.",
    "acquisition": "Téléchargement libre, sans compte, mais licence restrictive.",
    "update_plan": "Non intégrable."
   },
   "geometry": {
    "type": "Polygon",
    "coordinates": [
     [
      [
       -141.0,
       41.0
      ],
      [
       -50.0,
       41.0
      ],
      [
       -50.0,
       84.0
      ],
      [
       -141.0,
       84.0
      ],
      [
       -141.0,
       41.0
      ]
     ]
    ]
   }
  },
  {
   "type": "Feature",
   "properties": {
    "id": "csiro_austen",
    "name": "CSIRO AusTEN National Tidal Model",
    "provider": "CSIRO (AU)",
    "zone": "Australie",
    "status": "clarify",
    "kind": "harmonic_constants",
    "resolution_m": 500,
    "access": "keyless (CSIRO DAP)",
    "licence": "CC BY-SA 4.0",
    "licence_url": "https://researchdata.edu.au/austen-national-tidal-model-data/1606500",
    "licence_read_at": "2026-09-19",
    "derivative_redistribution": "yes (share-alike)",
    "effort": "M",
    "roadmap_step": 7,
    "vertical": "depth_averaged",
    "constituents": "11 (u, v, h)",
    "notes": "Seul atlas régional ouvert de constituants de COURANT trouvé hors Europe. Share-alike : le Parquet dérivé serait CC BY-SA.",
    "acquisition": "Portail DAP du CSIRO sans clé, licence CC BY-SA à arbitrer.",
    "update_plan": "Produit de constantes : une construction, pas de mise à jour."
   },
   "geometry": {
    "type": "Polygon",
    "coordinates": [
     [
      [
       110.0,
       -45.0
      ],
      [
       155.0,
       -45.0
      ],
      [
       155.0,
       -9.0
      ],
      [
       110.0,
       -9.0
      ],
      [
       110.0,
       -45.0
      ]
     ]
    ]
   }
  },
  {
   "type": "Feature",
   "properties": {
    "id": "ereefs_gbr",
    "name": "eReefs GBR1 / GBR4 (CSIRO / AIMS)",
    "provider": "CSIRO / AIMS (AU)",
    "zone": "Grande Barrière",
    "status": "ok",
    "kind": "forecast_grid",
    "resolution_m": 1000,
    "access": "keyless THREDDS",
    "licence": "CC BY 4.0",
    "licence_url": "https://www.ereefs.org.au/outputs/open-access-datasets/marine-model-results",
    "licence_read_at": "2026-09-19",
    "derivative_redistribution": "yes",
    "effort": "L",
    "roadmap_step": 7,
    "archive": "2014 à 2024 (GBR1)",
    "acquisition": "THREDDS sans clé, archive 2014-2024.",
    "update_plan": "Une construction sur un an d'archive, mise à jour annuelle si l'archive continue."
   },
   "geometry": {
    "type": "Polygon",
    "coordinates": [
     [
      [
       142.0,
       -28.0
      ],
      [
       156.0,
       -28.0
      ],
      [
       156.0,
       -8.0
      ],
      [
       142.0,
       -8.0
      ],
      [
       142.0,
       -28.0
      ]
     ]
    ]
   }
  },
  {
   "type": "Feature",
   "properties": {
    "id": "khoa",
    "name": "KHOA carte numérique des courants (Corée)",
    "provider": "KHOA (KR)",
    "zone": "Corée",
    "status": "ok",
    "kind": "forecast_grid",
    "resolution_m": null,
    "access": "clé API gratuite (data.go.kr)",
    "licence": "KOGL type 1 (attribution)",
    "licence_url": "https://www.data.go.kr/data/15039013/openapi.do",
    "licence_read_at": "2026-09-19",
    "derivative_redistribution": "yes",
    "effort": "L",
    "roadmap_step": 8,
    "acquisition": "Clé API gratuite (data.go.kr).",
    "update_plan": "Non prévu à court terme."
   },
   "geometry": {
    "type": "Polygon",
    "coordinates": [
     [
      [
       124.0,
       33.0
      ],
      [
       132.0,
       33.0
      ],
      [
       132.0,
       39.0
      ],
      [
       124.0,
       39.0
      ],
      [
       124.0,
       33.0
      ]
     ]
    ]
   }
  },
  {
   "type": "Feature",
   "properties": {
    "id": "jodc",
    "name": "JODC / J-DOSS (Japon)",
    "provider": "JODC (JP)",
    "zone": "Japon",
    "status": "blocked",
    "kind": "timeseries",
    "resolution_m": null,
    "access": "libre après recherche",
    "licence": "Politique IOC : non commercial pour recherche et éducation",
    "licence_url": "https://www.jodc.go.jp/ioc_policy.htm",
    "licence_read_at": "2026-09-19",
    "derivative_redistribution": "no",
    "effort": "L",
    "roadmap_step": null,
    "acquisition": "Séries libres après recherche en ligne.",
    "update_plan": "Non intégrable en grille."
   },
   "geometry": {
    "type": "Polygon",
    "coordinates": [
     [
      [
       122.0,
       24.0
      ],
      [
       146.0,
       24.0
      ],
      [
       146.0,
       46.0
      ],
      [
       122.0,
       46.0
      ],
      [
       122.0,
       24.0
      ]
     ]
    ]
   }
  },
  {
   "type": "Feature",
   "properties": {
    "id": "niwa_linz",
    "name": "NIWA modèle marée ZEE / LINZ",
    "provider": "NIWA / LINZ (NZ)",
    "zone": "Nouvelle-Zélande",
    "status": "clarify",
    "kind": "harmonic_constants",
    "resolution_m": null,
    "access": "aucun téléchargement ouvert trouvé",
    "licence": "Crown copyright (LINZ) ; NIWA non précisé",
    "licence_url": "https://www.linz.govt.nz/products-services/tides-and-tidal-streams/tide-predictions",
    "licence_read_at": "2026-09-19",
    "derivative_redistribution": "unclear",
    "effort": "L",
    "roadmap_step": null,
    "acquisition": "Aucun téléchargement ouvert trouvé.",
    "update_plan": "Non intégrable."
   },
   "geometry": {
    "type": "Polygon",
    "coordinates": [
     [
      [
       165.0,
       -48.0
      ],
      [
       180.0,
       -48.0
      ],
      [
       180.0,
       -33.0
      ],
      [
       165.0,
       -33.0
      ],
      [
       165.0,
       -48.0
      ]
     ]
    ]
   }
  },
  {
   "type": "Feature",
   "properties": {
    "id": "sanho",
    "name": "SANHO tide tables (Afrique du Sud)",
    "provider": "SANHO (ZA)",
    "zone": "Afrique du Sud",
    "status": "blocked",
    "kind": "station_points",
    "resolution_m": null,
    "access": "publication",
    "licence": "Reproduction interdite sans autorisation écrite",
    "licence_url": "http://sanho.co.za/Default.htm",
    "licence_read_at": "2026-09-19",
    "derivative_redistribution": "no",
    "effort": "L",
    "roadmap_step": null,
    "acquisition": "Publication imprimée.",
    "update_plan": "Non intégrable."
   },
   "geometry": {
    "type": "Polygon",
    "coordinates": [
     [
      [
       15.0,
       -36.0
      ],
      [
       34.0,
       -36.0
      ],
      [
       34.0,
       -26.0
      ],
      [
       15.0,
       -26.0
      ],
      [
       15.0,
       -36.0
      ]
     ]
    ]
   }
  },
  {
   "type": "Feature",
   "properties": {
    "id": "bsh_wms_tidal_positions",
    "name": "BSH WMS « Gezeitenstrom Positionen » (vitesses vive-eau / morte-eau aux points)",
    "provider": "BSH (DE)",
    "zone": "Côtes allemandes",
    "status": "ok",
    "kind": "station_points",
    "resolution_m": null,
    "access": "WMS GetFeatureInfo sans clé",
    "licence": "Datenlizenz Deutschland Namensnennung 2.0",
    "licence_url": "https://gdi.bsh.de/en/mapservice/Tidal-Current-Positions-WMS?SERVICE=WMS&REQUEST=GetCapabilities&VERSION=1.3.0",
    "licence_read_at": "2026-09-19",
    "derivative_redistribution": "yes",
    "effort": "S",
    "roadmap_step": 1,
    "constituents": "13 pas horaires HW Helgoland -6 h à +6 h, vive-eau et morte-eau",
    "notes": "Sortie de modèle (BSHcmod V4), pas des mesures ; référence de validation de phase et de rapport vive-eau/morte-eau. Station 4 (53,98 N 8,44 E) : 2,2 kt à HW-3 h en vive-eau.",
    "acquisition": "WMS GetFeatureInfo du BSH sans clé.",
    "update_plan": "Référence de validation, lue à la demande."
   },
   "geometry": {
    "type": "Polygon",
    "coordinates": [
     [
      [
       6.0,
       53.3
      ],
      [
       14.5,
       53.3
      ],
      [
       14.5,
       55.5
      ],
      [
       6.0,
       55.5
      ],
      [
       6.0,
       53.3
      ]
     ]
    ]
   }
  },
  {
   "type": "Feature",
   "properties": {
    "id": "wsv_sos_elbe_currents",
    "name": "WSV service SOS, mesures de courant Elbe (stations LZ, D1-D4)",
    "provider": "WSV (DE)",
    "zone": "Elbe, Cuxhaven à Hambourg",
    "status": "ok",
    "kind": "timeseries",
    "resolution_m": null,
    "access": "OGC SOS 2.0 sans clé (JSON)",
    "licence": "DL-DE Zero 2.0 (GeoNutzV)",
    "licence_url": "https://www.kuestendaten.de/DE/Services/Zeitreihenclient/Zeitreihenclient_node.html",
    "licence_read_at": "2026-09-19",
    "derivative_redistribution": "yes",
    "effort": "S",
    "roadmap_step": 1,
    "archive": "LZ_3c Altenbrucher Bogen 2014 à 2025, D1 à D4 depuis 1998, pas 5 min",
    "vertical": "capteur 2,5 m au-dessus du fond (stations LZ)",
    "notes": "Référence de validation mesurée pour l'Elbe : vitesses et directions (référence de nord non documentée, probablement magnétique). Non exploité dans le spike, à faire.",
    "acquisition": "Service OGC SOS 2.0 de la WSV sans clé, réponses JSON.",
    "update_plan": "Référence de validation, lue à la demande."
   },
   "geometry": {
    "type": "Polygon",
    "coordinates": [
     [
      [
       8.3,
       53.5
      ],
      [
       10.0,
       53.5
      ],
      [
       10.0,
       54.0
      ],
      [
       8.3,
       54.0
      ],
      [
       8.3,
       53.5
      ]
     ]
    ]
   }
  },
  {
   "type": "Feature",
   "properties": {
    "id": "ticon3",
    "name": "TICON-3, constantes de marée de hauteur aux marégraphes GESLA-3",
    "provider": "DGFI-TUM",
    "zone": "Monde (marégraphes)",
    "status": "ok",
    "kind": "station_points",
    "resolution_m": null,
    "access": "PANGAEA sans clé",
    "licence": "CC BY 4.0",
    "licence_url": "https://doi.pangaea.de/10.1594/PANGAEA.951610",
    "licence_read_at": "2026-09-19",
    "derivative_redistribution": "yes",
    "effort": "S",
    "roadmap_step": 2,
    "constituents": "40, hauteurs",
    "notes": "Contrôle de phase des hauteurs (Cuxhaven M2 134,9 cm / 343,6°, Helgoland 106,0 cm / 311,1°). Attention aux séries GESLA horodatées en heure locale (+29° sur M2).",
    "acquisition": "PANGAEA, sans clé.",
    "update_plan": "Référence de hauteurs, figée."
   },
   "geometry": {
    "type": "Polygon",
    "coordinates": [
     [
      [
       -180,
       -80
      ],
      [
       180,
       -80
      ],
      [
       180,
       85
      ],
      [
       -180,
       85
      ],
      [
       -180,
       -80
      ]
     ]
    ]
   }
  }
 ]
}
